{
  "type": "FeatureCollection",
  "name": "accessible-parking",
  "features": [
    {
      "type": "Feature",
      "properties": {
        "Id": 0,
        "_layer": "Accessible Parking"
      },
      "geometry": {
        "type": "Point",
        "coordinates": [
          -93.1832541,
          44.4625044
        ]
      }
    },
    {
      "type": "Feature",
      "properties": {
        "Id": 0,
        "_layer": "Accessible Parking"
      },
      "geometry": {
        "type": "Point",
        "coordinates": [
          -93.184816,
          44.4638427
        ]
      }
    },
    {
      "type": "Feature",
      "properties": {
        "Id": 0,
        "_layer": "Accessible Parking"
      },
      "geometry": {
        "type": "Point",
        "coordinates": [
          -93.1780744,
          44.4597466
        ]
      }
    },
    {
      "type": "Feature",
      "properties": {
        "Id": 0,
        "_layer": "Accessible Parking"
      },
      "geometry": {
        "type": "Point",
        "coordinates": [
          -93.18875,
          44.4642641
        ]
      }
    },
    {
      "type": "Feature",
      "properties": {
        "Id": 0,
        "_layer": "Accessible Parking"
      },
      "geometry": {
        "type": "Point",
        "coordinates": [
          -93.1854424,
          44.4611452
        ]
      }
    },
    {
      "type": "Feature",
      "properties": {
        "Id": 0,
        "_layer": "Accessible Parking"
      },
      "geometry": {
        "type": "Point",
        "coordinates": [
          -93.1806477,
          44.4621574
        ]
      }
    },
    {
      "type": "Feature",
      "properties": {
        "Id": 0,
        "_layer": "Accessible Parking"
      },
      "geometry": {
        "type": "Point",
        "coordinates": [
          -93.1782786,
          44.4610858
        ]
      }
    },
    {
      "type": "Feature",
      "properties": {
        "Id": 0,
        "_layer": "Accessible Parking"
      },
      "geometry": {
        "type": "Point",
        "coordinates": [
          -93.1860518,
          44.4627169
        ]
      }
    },
    {
      "type": "Feature",
      "properties": {
        "Id": 0,
        "_layer": "Accessible Parking"
      },
      "geometry": {
        "type": "Point",
        "coordinates": [
          -93.1886348,
          44.4630487
        ]
      }
    },
    {
      "type": "Feature",
      "properties": {
        "Id": 0,
        "_layer": "Accessible Parking"
      },
      "geometry": {
        "type": "Point",
        "coordinates": [
          -93.1865665,
          44.4660674
        ]
      }
    },
    {
      "type": "Feature",
      "properties": {
        "Id": 0,
        "_layer": "Accessible Parking"
      },
      "geometry": {
        "type": "Point",
        "coordinates": [
          -93.1813498,
          44.4636807
        ]
      }
    },
    {
      "type": "Feature",
      "properties": {
        "Id": 0,
        "_layer": "Accessible Parking"
      },
      "geometry": {
        "type": "Point",
        "coordinates": [
          -93.1863009,
          44.4591823
        ]
      }
    },
    {
      "type": "Feature",
      "properties": {
        "Id": 0,
        "_layer": "Accessible Parking"
      },
      "geometry": {
        "type": "Point",
        "coordinates": [
          -93.1886421,
          44.4632347
        ]
      }
    },
    {
      "type": "Feature",
      "properties": {
        "Id": 0,
        "_layer": "Accessible Parking"
      },
      "geometry": {
        "type": "Point",
        "coordinates": [
          -93.182563,
          44.4594021
        ]
      }
    },
    {
      "type": "Feature",
      "properties": {
        "Id": 0,
        "_layer": "Accessible Parking"
      },
      "geometry": {
        "type": "Point",
        "coordinates": [
          -93.1839882,
          44.4600009
        ]
      }
    },
    {
      "type": "Feature",
      "properties": {
        "Id": 0,
        "_layer": "Accessible Parking"
      },
      "geometry": {
        "type": "Point",
        "coordinates": [
          -93.1868021,
          44.4613519
        ]
      }
    },
    {
      "type": "Feature",
      "properties": {
        "Id": 0,
        "_layer": "Accessible Parking"
      },
      "geometry": {
        "type": "Point",
        "coordinates": [
          -93.1803872,
          44.4590644
        ]
      }
    },
    {
      "type": "Feature",
      "properties": {
        "Id": 0,
        "_layer": "Accessible Parking"
      },
      "geometry": {
        "type": "Point",
        "coordinates": [
          -93.18894,
          44.4618726
        ]
      }
    },
    {
      "type": "Feature",
      "properties": {
        "Id": 0,
        "_layer": "Accessible Parking"
      },
      "geometry": {
        "type": "Point",
        "coordinates": [
          -93.1807625,
          44.4634031
        ]
      }
    },
    {
      "type": "Feature",
      "properties": {
        "Id": 0,
        "_layer": "Accessible Parking"
      },
      "geometry": {
        "type": "Point",
        "coordinates": [
          -93.1877665,
          44.4639536
        ]
      }
    },
    {
      "type": "Feature",
      "properties": {
        "Id": 0,
        "_layer": "Accessible Parking"
      },
      "geometry": {
        "type": "Point",
        "coordinates": [
          -93.182,
          44.4618294
        ]
      }
    },
    {
      "type": "Feature",
      "properties": {
        "Id": 0,
        "_layer": "Accessible Parking"
      },
      "geometry": {
        "type": "Point",
        "coordinates": [
          -93.182466,
          44.4635597
        ]
      }
    },
    {
      "type": "Feature",
      "properties": {
        "Id": 0,
        "_layer": "Accessible Parking"
      },
      "geometry": {
        "type": "Point",
        "coordinates": [
          -93.1813982,
          44.4599145
        ]
      }
    },
    {
      "type": "Feature",
      "properties": {
        "Id": 0,
        "_layer": "Accessible Parking"
      },
      "geometry": {
        "type": "Point",
        "coordinates": [
          -93.1852284,
          44.4601221
        ]
      }
    },
    {
      "type": "Feature",
      "properties": {
        "Id": 0,
        "_layer": "Accessible Parking"
      },
      "geometry": {
        "type": "Point",
        "coordinates": [
          -93.1843275,
          44.4599788
        ]
      }
    },
    {
      "type": "Feature",
      "properties": {
        "Id": 0,
        "_layer": "Accessible Parking"
      },
      "geometry": {
        "type": "Point",
        "coordinates": [
          -93.1772628,
          44.4616029
        ]
      }
    }
  ]
}
