{
  "type": "FeatureCollection",
  "name": "athletic-fields",
  "features": [
    {
      "type": "Feature",
      "properties": {
        "NAME": " ",
        "Type": " ",
        "Descriptio": " ",
        "_layer": "Athletic Fields"
      },
      "geometry": {
        "type": "Polygon",
        "coordinates": [
          [
            [
              -93.1779108,
              44.4616634
            ],
            [
              -93.1779141,
              44.4619779
            ],
            [
              -93.1775911,
              44.4619779
            ],
            [
              -93.1775937,
              44.461657
            ],
            [
              -93.1779108,
              44.4616634
            ]
          ]
        ]
      }
    },
    {
      "type": "Feature",
      "properties": {
        "NAME": " ",
        "Type": " ",
        "Descriptio": " ",
        "_layer": "Athletic Fields"
      },
      "geometry": {
        "type": "Polygon",
        "coordinates": [
          [
            [
              -93.1798093,
              44.4606404
            ],
            [
              -93.1800089,
              44.4606362
            ],
            [
              -93.1800122,
              44.4608432
            ],
            [
              -93.1798242,
              44.4608414
            ],
            [
              -93.1798093,
              44.4606404
            ]
          ]
        ]
      }
    },
    {
      "type": "Feature",
      "properties": {
        "NAME": " ",
        "Type": " ",
        "Descriptio": " ",
        "_layer": "Athletic Fields"
      },
      "geometry": {
        "type": "Polygon",
        "coordinates": [
          [
            [
              -93.1848264,
              44.467457
            ],
            [
              -93.1845693,
              44.4682814
            ],
            [
              -93.1842387,
              44.4682413
            ],
            [
              -93.1839393,
              44.4680944
            ],
            [
              -93.1836711,
              44.4678585
            ],
            [
              -93.1835776,
              44.4676315
            ],
            [
              -93.18359,
              44.4674268
            ],
            [
              -93.1836274,
              44.4672932
            ],
            [
              -93.1848264,
              44.467457
            ]
          ]
        ]
      }
    },
    {
      "type": "Feature",
      "properties": {
        "NAME": " ",
        "Type": " ",
        "Descriptio": " ",
        "_layer": "Athletic Fields"
      },
      "geometry": {
        "type": "Polygon",
        "coordinates": [
          [
            [
              -93.189094,
              44.4661654
            ],
            [
              -93.1883046,
              44.4661654
            ],
            [
              -93.1882928,
              44.4652383
            ],
            [
              -93.1890869,
              44.4652412
            ],
            [
              -93.189094,
              44.4661654
            ]
          ]
        ]
      }
    },
    {
      "type": "Feature",
      "properties": {
        "NAME": " ",
        "Type": " ",
        "Descriptio": " ",
        "_layer": "Athletic Fields"
      },
      "geometry": {
        "type": "Polygon",
        "coordinates": [
          [
            [
              -93.1790379,
              44.4626011
            ],
            [
              -93.1790851,
              44.4625952
            ],
            [
              -93.1791334,
              44.4625976
            ],
            [
              -93.1791446,
              44.4626091
            ],
            [
              -93.1791491,
              44.4626247
            ],
            [
              -93.1791384,
              44.4626418
            ],
            [
              -93.1791152,
              44.4626501
            ],
            [
              -93.179095,
              44.4626522
            ],
            [
              -93.179064,
              44.462656
            ],
            [
              -93.1790392,
              44.4626622
            ],
            [
              -93.1790226,
              44.4626713
            ],
            [
              -93.1790106,
              44.4626908
            ],
            [
              -93.1790061,
              44.4627088
            ],
            [
              -93.1789991,
              44.4627212
            ],
            [
              -93.1789825,
              44.4627218
            ],
            [
              -93.1789705,
              44.4627132
            ],
            [
              -93.1789685,
              44.4627009
            ],
            [
              -93.1789763,
              44.4626684
            ],
            [
              -93.1789916,
              44.4626371
            ],
            [
              -93.1790135,
              44.4626117
            ],
            [
              -93.1790379,
              44.4626011
            ]
          ]
        ]
      }
    },
    {
      "type": "Feature",
      "properties": {
        "NAME": " ",
        "Type": " ",
        "Descriptio": " ",
        "_layer": "Athletic Fields"
      },
      "geometry": {
        "type": "Polygon",
        "coordinates": [
          [
            [
              -93.1889478,
              44.4676106
            ],
            [
              -93.1853106,
              44.4675914
            ],
            [
              -93.1852761,
              44.4665429
            ],
            [
              -93.1889525,
              44.4665148
            ],
            [
              -93.1889478,
              44.4676106
            ]
          ]
        ]
      }
    },
    {
      "type": "Feature",
      "properties": {
        "NAME": " ",
        "Type": " ",
        "Descriptio": " ",
        "_layer": "Athletic Fields"
      },
      "geometry": {
        "type": "Polygon",
        "coordinates": [
          [
            [
              -93.1779101,
              44.4631353
            ],
            [
              -93.1779306,
              44.4624982
            ],
            [
              -93.1787955,
              44.4624961
            ],
            [
              -93.1788921,
              44.4625034
            ],
            [
              -93.1789272,
              44.4625389
            ],
            [
              -93.1789052,
              44.4626058
            ],
            [
              -93.1779101,
              44.4631353
            ]
          ]
        ]
      }
    },
    {
      "type": "Feature",
      "properties": {
        "NAME": " ",
        "Type": " ",
        "Descriptio": " ",
        "_layer": "Athletic Fields"
      },
      "geometry": {
        "type": "Polygon",
        "coordinates": [
          [
            [
              -93.189462,
              44.4656292
            ],
            [
              -93.189462,
              44.464634
            ],
            [
              -93.1901895,
              44.464634
            ],
            [
              -93.1901917,
              44.4656324
            ],
            [
              -93.189462,
              44.4656292
            ]
          ]
        ]
      }
    },
    {
      "type": "Feature",
      "properties": {
        "NAME": "\"Beach\" Volleyball Pit",
        "Type": " ",
        "Descriptio": " ",
        "_layer": "Athletic Fields"
      },
      "geometry": {
        "type": "Polygon",
        "coordinates": [
          [
            [
              -93.1875747,
              44.4613372
            ],
            [
              -93.1871955,
              44.4613033
            ],
            [
              -93.1872346,
              44.4610868
            ],
            [
              -93.187613,
              44.4611223
            ],
            [
              -93.1875747,
              44.4613372
            ]
          ]
        ]
      }
    },
    {
      "type": "Feature",
      "properties": {
        "NAME": "Carlson Tennis Course",
        "Type": "Athletics Field",
        "Descriptio": "Built in 1979 in honor of Robert \"Jolly\" Carlson, the courts were dedicated to the Carlson family in May 2013. The first-ever three-time South Dakota high school tennis champion (1940-42), Carlson played collegiately at Augustana University in Sioux Fall",
        "_layer": "Athletic Fields"
      },
      "geometry": {
        "type": "Polygon",
        "coordinates": [
          [
            [
              -93.1875107,
              44.4644401
            ],
            [
              -93.1866485,
              44.4644305
            ],
            [
              -93.1866395,
              44.4636645
            ],
            [
              -93.187513,
              44.4636613
            ],
            [
              -93.1875107,
              44.4644401
            ]
          ]
        ]
      }
    },
    {
      "type": "Feature",
      "properties": {
        "NAME": "Football Practice Fields",
        "Type": "Athletics Field",
        "Descriptio": " ",
        "_layer": "Athletic Fields"
      },
      "geometry": {
        "type": "Polygon",
        "coordinates": [
          [
            [
              -93.177878,
              44.4621982
            ],
            [
              -93.1778561,
              44.4632624
            ],
            [
              -93.1762335,
              44.4632585
            ],
            [
              -93.176239,
              44.4621865
            ],
            [
              -93.177878,
              44.4621982
            ]
          ]
        ]
      }
    },
    {
      "type": "Feature",
      "properties": {
        "NAME": "Klein Field at Manitou & Manitou Track",
        "Type": " ",
        "Descriptio": " ",
        "_layer": "Athletic Fields"
      },
      "geometry": {
        "type": "MultiPolygon",
        "coordinates": [
          [
            [
              [
                -93.1782124,
                44.4623459
              ],
              [
                -93.1782124,
                44.4623413
              ],
              [
                -93.1781604,
                44.4623091
              ],
              [
                -93.178113,
                44.4622731
              ],
              [
                -93.178094,
                44.4622504
              ],
              [
                -93.1780471,
                44.4621905
              ],
              [
                -93.1780156,
                44.4621222
              ],
              [
                -93.1780028,
                44.4620738
              ],
              [
                -93.1779985,
                44.4620319
              ],
              [
                -93.1776991,
                44.4620395
              ],
              [
                -93.1776987,
                44.462024
              ],
              [
                -93.1779968,
                44.462016
              ],
              [
                -93.1780027,
                44.4619633
              ],
              [
                -93.1780194,
                44.461912
              ],
              [
                -93.1780314,
                44.4618854
              ],
              [
                -93.1780383,
                44.4618696
              ],
              [
                -93.1780497,
                44.4618534
              ],
              [
                -93.1780893,
                44.4617984
              ],
              [
                -93.1781165,
                44.4617714
              ],
              [
                -93.178163,
                44.4617349
              ],
              [
                -93.1781953,
                44.4617115
              ],
              [
                -93.1782247,
                44.4616948
              ],
              [
                -93.1782903,
                44.4616638
              ],
              [
                -93.1783495,
                44.4616419
              ],
              [
                -93.1784321,
                44.4616236
              ],
              [
                -93.178516,
                44.4616136
              ],
              [
                -93.178593,
                44.4616106
              ],
              [
                -93.1796874,
                44.461606
              ],
              [
                -93.1800421,
                44.4616055
              ],
              [
                -93.1800415,
                44.461712
              ],
              [
                -93.180082,
                44.4617407
              ],
              [
                -93.1801283,
                44.4617824
              ],
              [
                -93.1801678,
                44.4618277
              ],
              [
                -93.1801977,
                44.4618778
              ],
              [
                -93.1802141,
                44.4619185
              ],
              [
                -93.1802275,
                44.4619761
              ],
              [
                -93.1802287,
                44.4620281
              ],
              [
                -93.1802226,
                44.4620711
              ],
              [
                -93.1802047,
                44.4621288
              ],
              [
                -93.180186,
                44.4621639
              ],
              [
                -93.1801737,
                44.4621884
              ],
              [
                -93.1801247,
                44.4622513
              ],
              [
                -93.1800715,
                44.4623024
              ],
              [
                -93.179991,
                44.4623492
              ],
              [
                -93.1799224,
                44.4623824
              ],
              [
                -93.1798253,
                44.4624097
              ],
              [
                -93.1797341,
                44.4624255
              ],
              [
                -93.1796605,
                44.4624276
              ],
              [
                -93.1782141,
                44.462434
              ],
              [
                -93.1782124,
                44.4623459
              ]
            ]
          ],
          [
            [
              [
                -93.1781214,
                44.4620057
              ],
              [
                -93.1781229,
                44.4620459
              ],
              [
                -93.1781331,
                44.4620905
              ],
              [
                -93.1781681,
                44.4621653
              ],
              [
                -93.1782325,
                44.4622353
              ],
              [
                -93.1782821,
                44.4622664
              ],
              [
                -93.1783482,
                44.4623017
              ],
              [
                -93.1784326,
                44.4623295
              ],
              [
                -93.1785156,
                44.4623428
              ],
              [
                -93.1786161,
                44.462344
              ],
              [
                -93.1796933,
                44.4623389
              ],
              [
                -93.1797686,
                44.4623292
              ],
              [
                -93.1798432,
                44.4623112
              ],
              [
                -93.1799294,
                44.4622749
              ],
              [
                -93.1799616,
                44.4622565
              ],
              [
                -93.1800084,
                44.4621621
              ],
              [
                -93.179951,
                44.4621616
              ],
              [
                -93.17985,
                44.4621619
              ],
              [
                -93.1798488,
                44.4622134
              ],
              [
                -93.1798811,
                44.462214
              ],
              [
                -93.1798808,
                44.4622863
              ],
              [
                -93.1797948,
                44.4622856
              ],
              [
                -93.179795,
                44.4622145
              ],
              [
                -93.1798311,
                44.4622142
              ],
              [
                -93.1798306,
                44.4621604
              ],
              [
                -93.1798289,
                44.4620372
              ],
              [
                -93.1798255,
                44.4618116
              ],
              [
                -93.1798476,
                44.4618115
              ],
              [
                -93.1798476,
                44.4618766
              ],
              [
                -93.1800055,
                44.4618765
              ],
              [
                -93.1799814,
                44.4618173
              ],
              [
                -93.1799528,
                44.4617758
              ],
              [
                -93.179938,
                44.4617665
              ],
              [
                -93.1798826,
                44.4617407
              ],
              [
                -93.1798207,
                44.4617162
              ],
              [
                -93.1797515,
                44.4617016
              ],
              [
                -93.1796931,
                44.4616934
              ],
              [
                -93.1785431,
                44.4616975
              ],
              [
                -93.1784466,
                44.46171
              ],
              [
                -93.1783768,
                44.4617294
              ],
              [
                -93.1783188,
                44.4617552
              ],
              [
                -93.1782722,
                44.4617807
              ],
              [
                -93.1782251,
                44.461813
              ],
              [
                -93.1781838,
                44.4618543
              ],
              [
                -93.1781621,
                44.4618878
              ],
              [
                -93.1781345,
                44.4619396
              ],
              [
                -93.1781212,
                44.4620008
              ],
              [
                -93.1781214,
                44.4620057
              ]
            ]
          ],
          [
            [
              [
                -93.1787912,
                44.4617111
              ],
              [
                -93.1793662,
                44.4617111
              ],
              [
                -93.1793669,
                44.4617487
              ],
              [
                -93.1787893,
                44.4617509
              ],
              [
                -93.1787912,
                44.4617111
              ]
            ]
          ],
          [
            [
              [
                -93.1781214,
                44.4620057
              ],
              [
                -93.1782183,
                44.4620048
              ],
              [
                -93.1782209,
                44.4620434
              ],
              [
                -93.1781234,
                44.4620468
              ],
              [
                -93.1781214,
                44.4620057
              ]
            ]
          ],
          [
            [
              [
                -93.1783831,
                44.461761
              ],
              [
                -93.1797699,
                44.4617533
              ],
              [
                -93.1797746,
                44.4621956
              ],
              [
                -93.1783878,
                44.4622023
              ],
              [
                -93.1783831,
                44.461761
              ]
            ]
          ],
          [
            [
              [
                -93.1787912,
                44.462208
              ],
              [
                -93.1793719,
                44.4622057
              ],
              [
                -93.1793726,
                44.4622374
              ],
              [
                -93.1787912,
                44.4622406
              ],
              [
                -93.1787912,
                44.462208
              ]
            ]
          ],
          [
            [
              [
                -93.1785133,
                44.4622902
              ],
              [
                -93.1785143,
                44.4622279
              ],
              [
                -93.1786224,
                44.4622286
              ],
              [
                -93.1786228,
                44.4622541
              ],
              [
                -93.1796577,
                44.4622499
              ],
              [
                -93.1796587,
                44.4622633
              ],
              [
                -93.178623,
                44.4622668
              ],
              [
                -93.1786234,
                44.4622909
              ],
              [
                -93.1785133,
                44.4622902
              ]
            ]
          ],
          [
            [
              [
                -93.1786637,
                44.4623013
              ],
              [
                -93.178663,
                44.4622746
              ],
              [
                -93.1787805,
                44.4622746
              ],
              [
                -93.1787803,
                44.4622823
              ],
              [
                -93.179471,
                44.4622809
              ],
              [
                -93.179471,
                44.4622714
              ],
              [
                -93.1795858,
                44.4622714
              ],
              [
                -93.1795865,
                44.4622977
              ],
              [
                -93.179471,
                44.4622977
              ],
              [
                -93.179471,
                44.4622918
              ],
              [
                -93.17878,
                44.462294
              ],
              [
                -93.1787798,
                44.4623017
              ],
              [
                -93.1786637,
                44.4623013
              ]
            ]
          ],
          [
            [
              [
                -93.1786649,
                44.4623348
              ],
              [
                -93.1786656,
                44.4623076
              ],
              [
                -93.1787811,
                44.4623063
              ],
              [
                -93.1787811,
                44.4623153
              ],
              [
                -93.1794724,
                44.4623135
              ],
              [
                -93.1794722,
                44.4623044
              ],
              [
                -93.1795884,
                44.4623058
              ],
              [
                -93.1795884,
                44.4623339
              ],
              [
                -93.1794729,
                44.462333
              ],
              [
                -93.1794727,
                44.4623244
              ],
              [
                -93.1787811,
                44.4623271
              ],
              [
                -93.1787811,
                44.4623357
              ],
              [
                -93.1786649,
                44.4623348
              ]
            ]
          ]
        ]
      }
    },
    {
      "type": "Feature",
      "properties": {
        "NAME": "Mabel Shirley Field",
        "Type": "Athletics Field",
        "Descriptio": "A short walking distance from Tostrud and Skoglund center and overlooking the intramural and practice fields, Mabel Shirley Field is the home of St. Olaf Softball.\r\n\r\n<ul><li><a href=\"https://athletics.stolaf.edu/sports/softball\">St. Olaf Softball</a></l",
        "_layer": "Athletic Fields"
      },
      "geometry": {
        "type": "Polygon",
        "coordinates": [
          [
            [
              -93.1872864,
              44.466303
            ],
            [
              -93.1868397,
              44.4658746
            ],
            [
              -93.187183,
              44.4656922
            ],
            [
              -93.1873008,
              44.4656512
            ],
            [
              -93.1874336,
              44.4656479
            ],
            [
              -93.1875899,
              44.4656715
            ],
            [
              -93.1877086,
              44.4657309
            ],
            [
              -93.1879654,
              44.4659501
            ],
            [
              -93.1874048,
              44.4663142
            ],
            [
              -93.1872864,
              44.466303
            ]
          ]
        ]
      }
    },
    {
      "type": "Feature",
      "properties": {
        "NAME": "Mark Almli Baseball Field",
        "Type": " ",
        "Descriptio": " ",
        "_layer": "Athletic Fields"
      },
      "geometry": {
        "type": "Polygon",
        "coordinates": [
          [
            [
              -93.184646,
              44.4669343
            ],
            [
              -93.1840022,
              44.4668139
            ],
            [
              -93.1837263,
              44.4666717
            ],
            [
              -93.18355,
              44.4664821
            ],
            [
              -93.1834836,
              44.4662451
            ],
            [
              -93.1835372,
              44.4660336
            ],
            [
              -93.1837595,
              44.46572
            ],
            [
              -93.184531,
              44.4658166
            ],
            [
              -93.184817,
              44.4658655
            ],
            [
              -93.1850248,
              44.4659228
            ],
            [
              -93.1851237,
              44.4659953
            ],
            [
              -93.1851367,
              44.4660745
            ],
            [
              -93.1849729,
              44.4664443
            ],
            [
              -93.184646,
              44.4669343
            ]
          ]
        ]
      }
    },
    {
      "type": "Feature",
      "properties": {
        "NAME": "Rolf Mellby Soccer Field",
        "Type": "Athletics Field",
        "Descriptio": "Home to St. Olaf's men's and women's soccer teams, Rolf Mellby Field was renovated with a new synthetic turf field starting in the fall of 2018. The $1.25 million project was made possible by a lead anonymous gift from an alumni family, supported by addi",
        "_layer": "Athletic Fields"
      },
      "geometry": {
        "type": "Polygon",
        "coordinates": [
          [
            [
              -93.185158,
              44.4657597
            ],
            [
              -93.185168,
              44.464729
            ],
            [
              -93.1861403,
              44.4647378
            ],
            [
              -93.1861522,
              44.4657615
            ],
            [
              -93.185158,
              44.4657597
            ]
          ]
        ]
      }
    },
    {
      "type": "Feature",
      "properties": {
        "NAME": "Swing Set",
        "Type": null,
        "Descriptio": null,
        "_layer": "Athletic Fields"
      },
      "geometry": {
        "type": "Polygon",
        "coordinates": [
          [
            [
              -93.1871704,
              44.4610923
            ],
            [
              -93.1871525,
              44.4611969
            ],
            [
              -93.1868521,
              44.4611727
            ],
            [
              -93.1868771,
              44.461068
            ],
            [
              -93.1871704,
              44.4610923
            ]
          ]
        ]
      }
    }
  ]
}
