{
  "type": "FeatureCollection",
  "name": "campus-boundary",
  "features": [
    {
      "type": "Feature",
      "properties": {
        "Id": 0,
        "_layer": "Campus Boundary"
      },
      "geometry": {
        "type": "Polygon",
        "coordinates": [
          [
            [
              -93.178646,
              44.4560895
            ],
            [
              -93.1789301,
              44.4563655
            ],
            [
              -93.179373,
              44.4566535
            ],
            [
              -93.1799039,
              44.4568658
            ],
            [
              -93.1805858,
              44.4570128
            ],
            [
              -93.1813913,
              44.4570422
            ],
            [
              -93.1825218,
              44.4569377
            ],
            [
              -93.1836203,
              44.4568136
            ],
            [
              -93.1852588,
              44.4567417
            ],
            [
              -93.1858034,
              44.4567678
            ],
            [
              -93.1875718,
              44.4568622
            ],
            [
              -93.1879911,
              44.4568985
            ],
            [
              -93.1887051,
              44.4569344
            ],
            [
              -93.19114,
              44.456954
            ],
            [
              -93.1930028,
              44.4570324
            ],
            [
              -93.1942202,
              44.4572219
            ],
            [
              -93.1954194,
              44.4575649
            ],
            [
              -93.1962752,
              44.4580582
            ],
            [
              -93.1971265,
              44.4587638
            ],
            [
              -93.1979229,
              44.459587
            ],
            [
              -93.1986643,
              44.4605148
            ],
            [
              -93.199209,
              44.461191
            ],
            [
              -93.199988,
              44.4616905
            ],
            [
              -93.2005767,
              44.4620229
            ],
            [
              -93.2011508,
              44.46228
            ],
            [
              -93.2019329,
              44.4625351
            ],
            [
              -93.2029907,
              44.4628505
            ],
            [
              -93.2027394,
              44.463347
            ],
            [
              -93.2022895,
              44.4641123
            ],
            [
              -93.2014613,
              44.4650187
            ],
            [
              -93.2011862,
              44.465408
            ],
            [
              -93.2009802,
              44.465898
            ],
            [
              -93.2009253,
              44.4671
            ],
            [
              -93.2009573,
              44.471408
            ],
            [
              -93.1808849,
              44.4712887
            ],
            [
              -93.1809228,
              44.4656104
            ],
            [
              -93.180899,
              44.4654778
            ],
            [
              -93.180838,
              44.4653587
            ],
            [
              -93.1807289,
              44.4652219
            ],
            [
              -93.1805948,
              44.4650999
            ],
            [
              -93.1804591,
              44.4650066
            ],
            [
              -93.1802173,
              44.4649035
            ],
            [
              -93.1796325,
              44.4646587
            ],
            [
              -93.1789968,
              44.4643929
            ],
            [
              -93.1787763,
              44.4642999
            ],
            [
              -93.1786509,
              44.4642514
            ],
            [
              -93.1785429,
              44.4642121
            ],
            [
              -93.1783629,
              44.4641718
            ],
            [
              -93.1782586,
              44.4641555
            ],
            [
              -93.1781674,
              44.4641444
            ],
            [
              -93.1780738,
              44.4641367
            ],
            [
              -93.1779394,
              44.4641298
            ],
            [
              -93.1777067,
              44.4641264
            ],
            [
              -93.1760407,
              44.4641281
            ],
            [
              -93.1761445,
              44.4604905
            ],
            [
              -93.1761679,
              44.4594556
            ],
            [
              -93.1761796,
              44.4586674
            ],
            [
              -93.1761796,
              44.4584332
            ],
            [
              -93.1761865,
              44.45699
            ],
            [
              -93.1766796,
              44.45697
            ],
            [
              -93.1769233,
              44.4569325
            ],
            [
              -93.1769889,
              44.4569874
            ],
            [
              -93.1770882,
              44.4570034
            ],
            [
              -93.1779618,
              44.4569954
            ],
            [
              -93.1780406,
              44.4569285
            ],
            [
              -93.1780481,
              44.4568549
            ],
            [
              -93.17796,
              44.4567639
            ],
            [
              -93.177776,
              44.4566017
            ],
            [
              -93.178646,
              44.4560895
            ]
          ]
        ]
      }
    }
  ]
}
