{
  "type": "FeatureCollection",
  "name": "main-campus-roads",
  "features": [
    {
      "type": "Feature",
      "properties": {
        "Id": 0,
        "Name": " ",
        "Type": "On-Campus",
        "Name2": " ",
        "_layer": "Main Campus Roads"
      },
      "geometry": {
        "type": "MultiLineString",
        "coordinates": [
          [
            [
              -93.1878027,
              44.4568357
            ],
            [
              -93.187709,
              44.4575631
            ],
            [
              -93.1878295,
              44.4584997
            ],
            [
              -93.1878555,
              44.4587995
            ],
            [
              -93.1878132,
              44.459083
            ],
            [
              -93.187683,
              44.4592666
            ],
            [
              -93.1874844,
              44.4594153
            ],
            [
              -93.1873039,
              44.4594925
            ],
            [
              -93.1871174,
              44.4595421
            ]
          ],
          [
            [
              -93.1817318,
              44.4577144
            ],
            [
              -93.1816438,
              44.4575446
            ],
            [
              -93.18161,
              44.4573466
            ],
            [
              -93.1816066,
              44.4570857
            ],
            [
              -93.1816168,
              44.456948
            ]
          ],
          [
            [
              -93.1817318,
              44.4577144
            ],
            [
              -93.1817035,
              44.4576986
            ],
            [
              -93.1815595,
              44.457666
            ],
            [
              -93.1807067,
              44.4576832
            ],
            [
              -93.1806057,
              44.4577145
            ]
          ],
          [
            [
              -93.1806057,
              44.4577145
            ],
            [
              -93.1803803,
              44.4576915
            ],
            [
              -93.1801286,
              44.4576424
            ],
            [
              -93.180016,
              44.4576727
            ],
            [
              -93.1799925,
              44.4577229
            ],
            [
              -93.1799852,
              44.4577834
            ],
            [
              -93.1800599,
              44.457797
            ],
            [
              -93.1803833,
              44.4577908
            ],
            [
              -93.1805472,
              44.4577824
            ],
            [
              -93.1805969,
              44.4577584
            ],
            [
              -93.1806057,
              44.4577145
            ]
          ],
          [
            [
              -93.1806396,
              44.4584444
            ],
            [
              -93.1806681,
              44.458538
            ]
          ],
          [
            [
              -93.1806396,
              44.4584444
            ],
            [
              -93.1807276,
              44.4583883
            ],
            [
              -93.1808597,
              44.458333
            ],
            [
              -93.181005,
              44.4582997
            ],
            [
              -93.1811531,
              44.4582912
            ],
            [
              -93.1813438,
              44.458295
            ],
            [
              -93.1815092,
              44.4583178
            ],
            [
              -93.1816372,
              44.4583559
            ],
            [
              -93.1817879,
              44.4584101
            ],
            [
              -93.1819266,
              44.4584853
            ],
            [
              -93.1819693,
              44.4585149
            ],
            [
              -93.1820373,
              44.4586043
            ]
          ],
          [
            [
              -93.1806681,
              44.458538
            ],
            [
              -93.1809237,
              44.4585082
            ],
            [
              -93.1811544,
              44.4584996
            ],
            [
              -93.1813811,
              44.458513
            ],
            [
              -93.1815878,
              44.4585434
            ],
            [
              -93.1817412,
              44.4585815
            ],
            [
              -93.1819152,
              44.4586606
            ]
          ],
          [
            [
              -93.1802676,
              44.4585793
            ],
            [
              -93.1804409,
              44.4585663
            ],
            [
              -93.1806623,
              44.4585387
            ],
            [
              -93.1806681,
              44.458538
            ]
          ],
          [
            [
              -93.1802676,
              44.4585793
            ],
            [
              -93.1804849,
              44.4585101
            ],
            [
              -93.1806396,
              44.4584444
            ]
          ],
          [
            [
              -93.1802676,
              44.4585793
            ],
            [
              -93.1801382,
              44.4586462
            ],
            [
              -93.1799741,
              44.4588138
            ],
            [
              -93.1798434,
              44.4588899
            ],
            [
              -93.1797141,
              44.458987
            ],
            [
              -93.1796394,
              44.4591241
            ],
            [
              -93.1796331,
              44.4591789
            ],
            [
              -93.1796234,
              44.459264
            ],
            [
              -93.1796514,
              44.4593497
            ],
            [
              -93.1797367,
              44.459481
            ],
            [
              -93.1798901,
              44.4595962
            ],
            [
              -93.1800048,
              44.4597019
            ],
            [
              -93.1800688,
              44.4598161
            ],
            [
              -93.1800835,
              44.4598865
            ],
            [
              -93.1800715,
              44.4600246
            ],
            [
              -93.1801048,
              44.4601378
            ],
            [
              -93.1802115,
              44.4603196
            ],
            [
              -93.1802806,
              44.460412
            ]
          ],
          [
            [
              -93.1820373,
              44.4586043
            ],
            [
              -93.1821146,
              44.4587005
            ],
            [
              -93.182155,
              44.4587366
            ]
          ],
          [
            [
              -93.1819152,
              44.4586606
            ],
            [
              -93.1820139,
              44.4586256
            ],
            [
              -93.1820373,
              44.4586043
            ]
          ],
          [
            [
              -93.1819152,
              44.4586606
            ],
            [
              -93.1819186,
              44.4586622
            ],
            [
              -93.1820946,
              44.4587576
            ],
            [
              -93.182204,
              44.4587804
            ]
          ],
          [
            [
              -93.182155,
              44.4587366
            ],
            [
              -93.1821893,
              44.4586806
            ],
            [
              -93.1822161,
              44.4585955
            ],
            [
              -93.1822052,
              44.4583694
            ],
            [
              -93.1821311,
              44.4580773
            ],
            [
              -93.1820808,
              44.4580006
            ],
            [
              -93.1817881,
              44.457746
            ],
            [
              -93.1817318,
              44.4577144
            ]
          ],
          [
            [
              -93.182155,
              44.4587366
            ],
            [
              -93.182204,
              44.4587804
            ]
          ],
          [
            [
              -93.182204,
              44.4587804
            ],
            [
              -93.1824607,
              44.4588297
            ],
            [
              -93.1826407,
              44.4589153
            ],
            [
              -93.1833069,
              44.4593982
            ],
            [
              -93.1835923,
              44.4595943
            ],
            [
              -93.1837459,
              44.4596927
            ],
            [
              -93.1838473,
              44.4597325
            ],
            [
              -93.1839617,
              44.4597551
            ],
            [
              -93.1840863,
              44.4597599
            ],
            [
              -93.1842604,
              44.4597465
            ],
            [
              -93.1847111,
              44.4596905
            ],
            [
              -93.1849462,
              44.4596779
            ],
            [
              -93.1851863,
              44.4596859
            ],
            [
              -93.1853845,
              44.4597258
            ],
            [
              -93.1855508,
              44.4597698
            ]
          ],
          [
            [
              -93.1861436,
              44.459208
            ],
            [
              -93.1862955,
              44.4590732
            ],
            [
              -93.1864142,
              44.4588968
            ],
            [
              -93.1864649,
              44.4587536
            ],
            [
              -93.1864532,
              44.4586939
            ],
            [
              -93.1864084,
              44.4586591
            ],
            [
              -93.186348,
              44.4586647
            ],
            [
              -93.1862976,
              44.4586799
            ],
            [
              -93.1862211,
              44.4587248
            ],
            [
              -93.1861991,
              44.4587559
            ],
            [
              -93.1861631,
              44.4588884
            ],
            [
              -93.1861358,
              44.459083
            ],
            [
              -93.1861436,
              44.459208
            ]
          ],
          [
            [
              -93.1861436,
              44.459208
            ],
            [
              -93.1860935,
              44.4593749
            ]
          ],
          [
            [
              -93.1860935,
              44.4593749
            ],
            [
              -93.186048,
              44.4594722
            ],
            [
              -93.1860283,
              44.4597842
            ]
          ],
          [
            [
              -93.1871174,
              44.4595421
            ],
            [
              -93.1870998,
              44.4594764
            ],
            [
              -93.1871606,
              44.4594031
            ],
            [
              -93.1872837,
              44.4592987
            ],
            [
              -93.1873648,
              44.4592108
            ],
            [
              -93.1874227,
              44.4590961
            ],
            [
              -93.1873923,
              44.4589534
            ],
            [
              -93.1872417,
              44.4588511
            ],
            [
              -93.1870549,
              44.4587684
            ]
          ],
          [
            [
              -93.1871174,
              44.4595421
            ],
            [
              -93.1867869,
              44.4596301
            ],
            [
              -93.1866287,
              44.4596767
            ]
          ],
          [
            [
              -93.1861257,
              44.4596189
            ],
            [
              -93.1861126,
              44.4595576
            ],
            [
              -93.1861126,
              44.4594802
            ],
            [
              -93.186107,
              44.4594147
            ],
            [
              -93.1860935,
              44.4593749
            ]
          ],
          [
            [
              -93.1866287,
              44.4596767
            ],
            [
              -93.1865345,
              44.4596891
            ]
          ],
          [
            [
              -93.1866287,
              44.4596767
            ],
            [
              -93.1864396,
              44.4597826
            ],
            [
              -93.1862747,
              44.4598699
            ]
          ],
          [
            [
              -93.1865345,
              44.4596891
            ],
            [
              -93.18642,
              44.4596985
            ],
            [
              -93.1863544,
              44.4596993
            ],
            [
              -93.1862943,
              44.4596961
            ],
            [
              -93.1862299,
              44.4596876
            ],
            [
              -93.1861847,
              44.4596702
            ],
            [
              -93.1861257,
              44.4596189
            ]
          ],
          [
            [
              -93.1865345,
              44.4596891
            ],
            [
              -93.1864519,
              44.459711
            ],
            [
              -93.1863659,
              44.4597382
            ],
            [
              -93.1862784,
              44.4597654
            ],
            [
              -93.186201,
              44.4597748
            ]
          ],
          [
            [
              -93.1861664,
              44.4597638
            ],
            [
              -93.1861349,
              44.45968
            ],
            [
              -93.1861257,
              44.4596189
            ]
          ],
          [
            [
              -93.1861664,
              44.4597638
            ],
            [
              -93.186201,
              44.4597748
            ]
          ],
          [
            [
              -93.1855508,
              44.4597698
            ],
            [
              -93.1857463,
              44.4598076
            ],
            [
              -93.185879,
              44.4598124
            ],
            [
              -93.1859824,
              44.4598101
            ]
          ],
          [
            [
              -93.1855508,
              44.4597698
            ],
            [
              -93.1857147,
              44.4598576
            ],
            [
              -93.185855,
              44.459895
            ],
            [
              -93.1859339,
              44.4599311
            ]
          ],
          [
            [
              -93.186201,
              44.4597748
            ],
            [
              -93.1862517,
              44.4598159
            ],
            [
              -93.1862747,
              44.4598699
            ]
          ],
          [
            [
              -93.1860283,
              44.4597842
            ],
            [
              -93.1860937,
              44.4597615
            ],
            [
              -93.186151,
              44.4597589
            ],
            [
              -93.1861664,
              44.4597638
            ]
          ],
          [
            [
              -93.1859824,
              44.4598101
            ],
            [
              -93.1860283,
              44.4597842
            ]
          ],
          [
            [
              -93.1862747,
              44.4598699
            ],
            [
              -93.1862605,
              44.4599146
            ],
            [
              -93.1861887,
              44.4599885
            ],
            [
              -93.1861313,
              44.4600216
            ]
          ],
          [
            [
              -93.1859339,
              44.4599311
            ],
            [
              -93.185949,
              44.4598683
            ],
            [
              -93.1859824,
              44.4598101
            ]
          ],
          [
            [
              -93.1859339,
              44.4599311
            ],
            [
              -93.1859831,
              44.4600125
            ]
          ],
          [
            [
              -93.1859831,
              44.4600125
            ],
            [
              -93.1859896,
              44.4600787
            ],
            [
              -93.1860382,
              44.4602289
            ]
          ],
          [
            [
              -93.1861313,
              44.4600216
            ],
            [
              -93.186058,
              44.4600265
            ],
            [
              -93.1859831,
              44.4600125
            ]
          ],
          [
            [
              -93.1861313,
              44.4600216
            ],
            [
              -93.1860862,
              44.4600937
            ],
            [
              -93.1860382,
              44.4602289
            ]
          ],
          [
            [
              -93.1812324,
              44.460089
            ],
            [
              -93.1812442,
              44.4601189
            ],
            [
              -93.1812619,
              44.4601403
            ],
            [
              -93.1812862,
              44.4601599
            ],
            [
              -93.1813125,
              44.4601735
            ],
            [
              -93.1813559,
              44.4601845
            ],
            [
              -93.1814173,
              44.460185
            ],
            [
              -93.1814545,
              44.4601764
            ],
            [
              -93.1814943,
              44.4601587
            ],
            [
              -93.1815311,
              44.4601233
            ],
            [
              -93.1815429,
              44.4600961
            ],
            [
              -93.181546,
              44.4600688
            ],
            [
              -93.1815373,
              44.4600382
            ],
            [
              -93.1815165,
              44.4600076
            ],
            [
              -93.181486,
              44.4599859
            ],
            [
              -93.181439,
              44.4599678
            ],
            [
              -93.1813982,
              44.4599637
            ],
            [
              -93.1813533,
              44.4599648
            ],
            [
              -93.1813133,
              44.4599775
            ],
            [
              -93.1812733,
              44.4599995
            ],
            [
              -93.1812425,
              44.4600316
            ],
            [
              -93.1812345,
              44.4600552
            ],
            [
              -93.1812324,
              44.460089
            ]
          ],
          [
            [
              -93.1860382,
              44.4602289
            ],
            [
              -93.1860457,
              44.460301
            ],
            [
              -93.1861032,
              44.4604581
            ],
            [
              -93.1861202,
              44.4605102
            ],
            [
              -93.1862618,
              44.4607336
            ],
            [
              -93.1863297,
              44.4608401
            ],
            [
              -93.1863492,
              44.4608958
            ],
            [
              -93.1868738,
              44.4612826
            ],
            [
              -93.1870014,
              44.4614274
            ],
            [
              -93.1870538,
              44.4615558
            ],
            [
              -93.1870657,
              44.4616847
            ],
            [
              -93.1870636,
              44.4617588
            ]
          ],
          [
            [
              -93.1802806,
              44.460412
            ],
            [
              -93.180358,
              44.4602095
            ],
            [
              -93.1804186,
              44.460187
            ],
            [
              -93.1804946,
              44.4601705
            ],
            [
              -93.1806244,
              44.4601626
            ],
            [
              -93.1807882,
              44.4601456
            ],
            [
              -93.180988,
              44.4601212
            ],
            [
              -93.1812324,
              44.460089
            ]
          ],
          [
            [
              -93.1802806,
              44.460412
            ],
            [
              -93.1798872,
              44.46047
            ],
            [
              -93.1780287,
              44.4604787
            ],
            [
              -93.1766705,
              44.4604805
            ],
            [
              -93.1761059,
              44.4605198
            ]
          ],
          [
            [
              -93.1804241,
              44.4610768
            ],
            [
              -93.1804255,
              44.4610767
            ]
          ],
          [
            [
              -93.1804241,
              44.4610768
            ],
            [
              -93.180388,
              44.4610128
            ],
            [
              -93.1803815,
              44.4606996
            ],
            [
              -93.1803608,
              44.4606185
            ],
            [
              -93.1802806,
              44.460412
            ]
          ],
          [
            [
              -93.1805478,
              44.4612962
            ],
            [
              -93.1804241,
              44.4610768
            ]
          ],
          [
            [
              -93.1805478,
              44.4612962
            ],
            [
              -93.1803166,
              44.4612913
            ],
            [
              -93.1798086,
              44.4612842
            ],
            [
              -93.179725,
              44.4612834
            ],
            [
              -93.1796341,
              44.4612822
            ],
            [
              -93.1795665,
              44.4612716
            ],
            [
              -93.1795335,
              44.4612497
            ],
            [
              -93.179508,
              44.4612334
            ],
            [
              -93.1794849,
              44.4611836
            ],
            [
              -93.1794901,
              44.461119
            ],
            [
              -93.1795395,
              44.4610612
            ],
            [
              -93.1796244,
              44.4610308
            ],
            [
              -93.179743,
              44.461038
            ],
            [
              -93.1798436,
              44.4610718
            ],
            [
              -93.1799607,
              44.4610851
            ],
            [
              -93.1802206,
              44.461088
            ],
            [
              -93.1804241,
              44.4610768
            ]
          ],
          [
            [
              -93.1870636,
              44.4617588
            ],
            [
              -93.1870636,
              44.4617587
            ]
          ],
          [
            [
              -93.1870636,
              44.4617588
            ],
            [
              -93.1870625,
              44.461798
            ],
            [
              -93.187003,
              44.4619242
            ],
            [
              -93.1869444,
              44.462045
            ]
          ],
          [
            [
              -93.1817955,
              44.461971
            ],
            [
              -93.182095,
              44.4618458
            ],
            [
              -93.1823903,
              44.4617752
            ],
            [
              -93.1824748,
              44.46171
            ],
            [
              -93.182509,
              44.4616326
            ]
          ],
          [
            [
              -93.1817955,
              44.461971
            ],
            [
              -93.1817271,
              44.4619067
            ],
            [
              -93.181559,
              44.4617289
            ],
            [
              -93.18146,
              44.4615729
            ],
            [
              -93.1813772,
              44.4614097
            ],
            [
              -93.1813183,
              44.4610837
            ],
            [
              -93.1813123,
              44.4608991
            ],
            [
              -93.181396,
              44.4607018
            ],
            [
              -93.1814352,
              44.4605714
            ],
            [
              -93.1813942,
              44.4604496
            ],
            [
              -93.181291,
              44.4603612
            ],
            [
              -93.1811757,
              44.4603131
            ],
            [
              -93.1810647,
              44.4602917
            ],
            [
              -93.1809773,
              44.4603007
            ],
            [
              -93.180593,
              44.4603594
            ],
            [
              -93.1802806,
              44.460412
            ]
          ],
          [
            [
              -93.1873844,
              44.4620036
            ],
            [
              -93.1870636,
              44.4617588
            ]
          ],
          [
            [
              -93.1873844,
              44.4620036
            ],
            [
              -93.187142,
              44.4620109
            ],
            [
              -93.1869444,
              44.462045
            ]
          ],
          [
            [
              -93.1884928,
              44.4620116
            ],
            [
              -93.1877973,
              44.4620025
            ],
            [
              -93.1876528,
              44.4619723
            ],
            [
              -93.1874599,
              44.4619588
            ],
            [
              -93.1873844,
              44.4620036
            ]
          ],
          [
            [
              -93.1884928,
              44.4620116
            ],
            [
              -93.1885704,
              44.4619714
            ],
            [
              -93.1887156,
              44.4618903
            ],
            [
              -93.188758,
              44.4618763
            ],
            [
              -93.1887877,
              44.4618812
            ],
            [
              -93.1888376,
              44.4618936
            ],
            [
              -93.1888597,
              44.461923
            ],
            [
              -93.188862,
              44.4619651
            ],
            [
              -93.1888352,
              44.4619916
            ],
            [
              -93.1887806,
              44.4620148
            ],
            [
              -93.1887177,
              44.4620146
            ],
            [
              -93.1884928,
              44.4620116
            ]
          ],
          [
            [
              -93.1869444,
              44.462045
            ],
            [
              -93.186901,
              44.462071
            ],
            [
              -93.1867788,
              44.4621493
            ],
            [
              -93.1864936,
              44.4622712
            ],
            [
              -93.1863465,
              44.4623539
            ],
            [
              -93.1862029,
              44.462459
            ],
            [
              -93.1861287,
              44.462596
            ],
            [
              -93.1861203,
              44.4627389
            ],
            [
              -93.1860614,
              44.4628504
            ],
            [
              -93.1859095,
              44.4629649
            ],
            [
              -93.1856824,
              44.4631064
            ],
            [
              -93.1855851,
              44.4631775
            ],
            [
              -93.1855758,
              44.4631815
            ],
            [
              -93.1854733,
              44.4632256
            ],
            [
              -93.1853606,
              44.4632622
            ],
            [
              -93.1853503,
              44.4632642
            ],
            [
              -93.1852557,
              44.4632829
            ],
            [
              -93.1851219,
              44.4632987
            ],
            [
              -93.1851012,
              44.4633011
            ],
            [
              -93.1849212,
              44.463297
            ],
            [
              -93.1848959,
              44.4632943
            ],
            [
              -93.1847452,
              44.463278
            ],
            [
              -93.184612,
              44.4632602
            ]
          ],
          [
            [
              -93.1922308,
              44.4626693
            ],
            [
              -93.1925152,
              44.4626029
            ],
            [
              -93.1926152,
              44.4625339
            ],
            [
              -93.1927055,
              44.4624429
            ],
            [
              -93.1927636,
              44.4623151
            ],
            [
              -93.1927588,
              44.4622622
            ],
            [
              -93.1927378,
              44.4622034
            ],
            [
              -93.1927055,
              44.4621758
            ],
            [
              -93.1926184,
              44.4621758
            ],
            [
              -93.1924829,
              44.4621873
            ],
            [
              -93.1924119,
              44.4622138
            ],
            [
              -93.1923426,
              44.4622576
            ],
            [
              -93.1922813,
              44.4623577
            ],
            [
              -93.1922216,
              44.462558
            ],
            [
              -93.19222,
              44.462634
            ],
            [
              -93.1922308,
              44.4626693
            ]
          ],
          [
            [
              -93.1919393,
              44.4627238
            ],
            [
              -93.1921006,
              44.4626997
            ],
            [
              -93.1922308,
              44.4626693
            ]
          ],
          [
            [
              -93.1919393,
              44.4627238
            ],
            [
              -93.1919149,
              44.4621513
            ]
          ],
          [
            [
              -93.1903314,
              44.463024
            ],
            [
              -93.1905407,
              44.4629472
            ],
            [
              -93.1909166,
              44.462877
            ],
            [
              -93.1919393,
              44.4627238
            ]
          ],
          [
            [
              -93.1903314,
              44.463024
            ],
            [
              -93.1902761,
              44.4629897
            ],
            [
              -93.1901319,
              44.462889
            ],
            [
              -93.1899827,
              44.4628281
            ],
            [
              -93.1898481,
              44.4627755
            ],
            [
              -93.1896109,
              44.4627057
            ],
            [
              -93.189329,
              44.4626387
            ],
            [
              -93.1891332,
              44.4626164
            ],
            [
              -93.188781,
              44.4626075
            ],
            [
              -93.1885194,
              44.462631
            ],
            [
              -93.1884172,
              44.4626331
            ],
            [
              -93.1883195,
              44.4626115
            ],
            [
              -93.1882423,
              44.4625727
            ],
            [
              -93.1880152,
              44.4623597
            ],
            [
              -93.1878978,
              44.4622821
            ],
            [
              -93.1876897,
              44.4621534
            ],
            [
              -93.1875533,
              44.462072
            ],
            [
              -93.1873844,
              44.4620036
            ]
          ],
          [
            [
              -93.1840581,
              44.4630502
            ],
            [
              -93.1839815,
              44.4629031
            ],
            [
              -93.1839642,
              44.4627889
            ],
            [
              -93.1839632,
              44.4626194
            ],
            [
              -93.1839267,
              44.4625301
            ],
            [
              -93.1838381,
              44.462449
            ],
            [
              -93.1837659,
              44.4624112
            ],
            [
              -93.1837066,
              44.4624057
            ],
            [
              -93.1836113,
              44.4624087
            ],
            [
              -93.1833181,
              44.4624174
            ],
            [
              -93.1830283,
              44.4624199
            ],
            [
              -93.1828213,
              44.4624022
            ],
            [
              -93.1826432,
              44.4623598
            ],
            [
              -93.1825557,
              44.4623418
            ],
            [
              -93.1823118,
              44.4622674
            ],
            [
              -93.1820745,
              44.4621577
            ],
            [
              -93.1818594,
              44.462031
            ],
            [
              -93.1817955,
              44.461971
            ]
          ],
          [
            [
              -93.1840581,
              44.4630502
            ],
            [
              -93.1837236,
              44.4632543
            ],
            [
              -93.1834991,
              44.463328
            ],
            [
              -93.1833181,
              44.4633688
            ],
            [
              -93.1831321,
              44.4633797
            ],
            [
              -93.1822188,
              44.4633736
            ],
            [
              -93.1819439,
              44.4634297
            ],
            [
              -93.1817433,
              44.4635558
            ],
            [
              -93.181651,
              44.4635775
            ],
            [
              -93.180784,
              44.4635795
            ],
            [
              -93.1807148,
              44.4635692
            ],
            [
              -93.1806498,
              44.4635145
            ],
            [
              -93.1806675,
              44.463304
            ],
            [
              -93.1809009,
              44.4631288
            ],
            [
              -93.1810108,
              44.4631096
            ],
            [
              -93.1818148,
              44.4630957
            ],
            [
              -93.181955,
              44.4630611
            ],
            [
              -93.1820489,
              44.4630014
            ],
            [
              -93.1821676,
              44.4628559
            ],
            [
              -93.1822017,
              44.4627864
            ],
            [
              -93.1822162,
              44.4627139
            ],
            [
              -93.1822,
              44.4626396
            ],
            [
              -93.1821624,
              44.4625768
            ],
            [
              -93.1821044,
              44.4625226
            ],
            [
              -93.1820122,
              44.4624782
            ],
            [
              -93.181897,
              44.4624568
            ],
            [
              -93.1817689,
              44.462455
            ],
            [
              -93.1815577,
              44.462498
            ],
            [
              -93.181423,
              44.4625193
            ],
            [
              -93.1812547,
              44.4625204
            ],
            [
              -93.1811467,
              44.4625086
            ],
            [
              -93.1809666,
              44.4624419
            ],
            [
              -93.1808236,
              44.4623438
            ],
            [
              -93.1808139,
              44.4622447
            ],
            [
              -93.180812,
              44.4621803
            ],
            [
              -93.1807775,
              44.4616572
            ],
            [
              -93.1807174,
              44.4615869
            ],
            [
              -93.1805478,
              44.4612962
            ]
          ],
          [
            [
              -93.184612,
              44.4632602
            ],
            [
              -93.184483,
              44.463243
            ],
            [
              -93.1843673,
              44.463204
            ],
            [
              -93.1840581,
              44.4630502
            ]
          ],
          [
            [
              -93.184612,
              44.4632602
            ],
            [
              -93.1846152,
              44.4637129
            ],
            [
              -93.184588,
              44.4637897
            ],
            [
              -93.1845551,
              44.4638403
            ],
            [
              -93.1843871,
              44.4639698
            ]
          ],
          [
            [
              -93.1843871,
              44.4639698
            ],
            [
              -93.1843979,
              44.4639741
            ]
          ],
          [
            [
              -93.1843871,
              44.4639698
            ],
            [
              -93.1844236,
              44.4640065
            ],
            [
              -93.1844454,
              44.4640335
            ],
            [
              -93.1844522,
              44.4640622
            ],
            [
              -93.1844491,
              44.4640897
            ],
            [
              -93.184425,
              44.4641315
            ],
            [
              -93.1843959,
              44.4641597
            ],
            [
              -93.1843471,
              44.4641843
            ],
            [
              -93.1842901,
              44.4641932
            ],
            [
              -93.1842154,
              44.4641921
            ],
            [
              -93.1841493,
              44.4641586
            ],
            [
              -93.1841217,
              44.4641318
            ],
            [
              -93.1841019,
              44.4640975
            ],
            [
              -93.1840961,
              44.464057
            ],
            [
              -93.1841102,
              44.4640209
            ],
            [
              -93.1841478,
              44.4639785
            ],
            [
              -93.1841883,
              44.463953
            ],
            [
              -93.1842525,
              44.4639433
            ],
            [
              -93.1842976,
              44.4639422
            ],
            [
              -93.1843207,
              44.4639431
            ],
            [
              -93.1843415,
              44.4639515
            ],
            [
              -93.1843871,
              44.4639698
            ]
          ],
          [
            [
              -93.1906146,
              44.4643289
            ],
            [
              -93.1906455,
              44.4637921
            ],
            [
              -93.1906294,
              44.4635304
            ],
            [
              -93.1906033,
              44.4633953
            ],
            [
              -93.1905796,
              44.4633426
            ],
            [
              -93.1905456,
              44.4632671
            ],
            [
              -93.1904808,
              44.4631695
            ],
            [
              -93.1904088,
              44.4630999
            ],
            [
              -93.1903314,
              44.463024
            ]
          ],
          [
            [
              -93.1906146,
              44.4643289
            ],
            [
              -93.189255,
              44.4643529
            ],
            [
              -93.1884438,
              44.464341
            ],
            [
              -93.1879879,
              44.4643843
            ],
            [
              -93.1876527,
              44.4644922
            ],
            [
              -93.1868814,
              44.4645084
            ],
            [
              -93.1868773,
              44.4650183
            ],
            [
              -93.1867612,
              44.4653441
            ],
            [
              -93.1866386,
              44.465587
            ],
            [
              -93.1864128,
              44.4659404
            ],
            [
              -93.1862176,
              44.4660751
            ],
            [
              -93.1860256,
              44.4661396
            ],
            [
              -93.1857433,
              44.4661454
            ],
            [
              -93.1854965,
              44.466074
            ],
            [
              -93.1853691,
              44.4662098
            ],
            [
              -93.1852364,
              44.4663739
            ],
            [
              -93.1851001,
              44.4666134
            ],
            [
              -93.1851073,
              44.4670083
            ],
            [
              -93.1849566,
              44.4670945
            ]
          ],
          [
            [
              -93.1888699,
              44.4713362
            ],
            [
              -93.1888269,
              44.4710777
            ],
            [
              -93.1888429,
              44.4706894
            ],
            [
              -93.1888856,
              44.4705191
            ],
            [
              -93.1890733,
              44.4703206
            ],
            [
              -93.1903255,
              44.4682743
            ],
            [
              -93.190734,
              44.467675
            ],
            [
              -93.1907798,
              44.4669002
            ],
            [
              -93.1907756,
              44.4665344
            ],
            [
              -93.1907745,
              44.4663085
            ],
            [
              -93.1907745,
              44.4657875
            ],
            [
              -93.1906528,
              44.4648428
            ],
            [
              -93.1906475,
              44.4645079
            ],
            [
              -93.1906642,
              44.4643883
            ],
            [
              -93.1906146,
              44.4643289
            ]
          ]
        ]
      }
    }
  ]
}
