{
  "type": "FeatureCollection",
  "name": "natural-lands-trails",
  "features": [
    {
      "type": "Feature",
      "properties": {
        "NAME": null,
        "Type": "Access Trail",
        "_layer": "Natural Lands Trails"
      },
      "geometry": {
        "type": "LineString",
        "coordinates": [
          [
            -93.1817399,
            44.4640932
          ],
          [
            -93.1816891,
            44.4641957
          ],
          [
            -93.1816806,
            44.4643707
          ],
          [
            -93.1815621,
            44.4644953
          ],
          [
            -93.1815413,
            44.4645166
          ],
          [
            -93.1815048,
            44.4645195
          ],
          [
            -93.1814814,
            44.4645079
          ],
          [
            -93.1814607,
            44.4644964
          ],
          [
            -93.1813951,
            44.4644553
          ],
          [
            -93.1813672,
            44.4644239
          ],
          [
            -93.1812944,
            44.4643738
          ],
          [
            -93.1812423,
            44.4643277
          ],
          [
            -93.181192,
            44.4642757
          ]
        ]
      }
    },
    {
      "type": "Feature",
      "properties": {
        "NAME": null,
        "Type": "Access Trail",
        "_layer": "Natural Lands Trails"
      },
      "geometry": {
        "type": "LineString",
        "coordinates": [
          [
            -93.1813859,
            44.4682926
          ],
          [
            -93.1812419,
            44.4682898
          ],
          [
            -93.1811457,
            44.4682731
          ],
          [
            -93.1810433,
            44.4682716
          ],
          [
            -93.1809169,
            44.4682726
          ]
        ]
      }
    },
    {
      "type": "Feature",
      "properties": {
        "NAME": "",
        "Type": "Access Trail",
        "_layer": "Natural Lands Trails"
      },
      "geometry": {
        "type": "LineString",
        "coordinates": [
          [
            -93.1874761,
            44.4472064
          ],
          [
            -93.187191,
            44.447083
          ]
        ]
      }
    },
    {
      "type": "Feature",
      "properties": {
        "NAME": null,
        "Type": "Access Trail",
        "_layer": "Natural Lands Trails"
      },
      "geometry": {
        "type": "LineString",
        "coordinates": [
          [
            -93.1897393,
            44.4599479
          ],
          [
            -93.1886762,
            44.4599548
          ]
        ]
      }
    },
    {
      "type": "Feature",
      "properties": {
        "NAME": null,
        "Type": "Access Trail",
        "_layer": "Natural Lands Trails"
      },
      "geometry": {
        "type": "LineString",
        "coordinates": [
          [
            -93.1809297,
            44.4689341
          ],
          [
            -93.1810232,
            44.4688682
          ],
          [
            -93.1810919,
            44.4688889
          ],
          [
            -93.1811756,
            44.4688989
          ],
          [
            -93.1813109,
            44.4688943
          ],
          [
            -93.1814355,
            44.4688766
          ],
          [
            -93.1815214,
            44.4688521
          ],
          [
            -93.1815392,
            44.4687988
          ]
        ]
      }
    },
    {
      "type": "Feature",
      "properties": {
        "NAME": null,
        "Type": "Access Trail",
        "_layer": "Natural Lands Trails"
      },
      "geometry": {
        "type": "LineString",
        "coordinates": [
          [
            -93.1859211,
            44.4579808
          ],
          [
            -93.1859855,
            44.4580559
          ],
          [
            -93.1860718,
            44.458104
          ],
          [
            -93.1861544,
            44.4581445
          ]
        ]
      }
    },
    {
      "type": "Feature",
      "properties": {
        "NAME": null,
        "Type": "Access Trail",
        "_layer": "Natural Lands Trails"
      },
      "geometry": {
        "type": "LineString",
        "coordinates": [
          [
            -93.1895853,
            44.4612305
          ],
          [
            -93.1887195,
            44.4611909
          ]
        ]
      }
    },
    {
      "type": "Feature",
      "properties": {
        "NAME": null,
        "Type": "Access Trail",
        "_layer": "Natural Lands Trails"
      },
      "geometry": {
        "type": "LineString",
        "coordinates": [
          [
            -93.1849543,
            44.4574431
          ],
          [
            -93.1851649,
            44.4574187
          ],
          [
            -93.18546,
            44.4574105
          ],
          [
            -93.1856937,
            44.4575609
          ],
          [
            -93.1858269,
            44.4577646
          ],
          [
            -93.1859211,
            44.4579808
          ],
          [
            -93.1858709,
            44.4581029
          ],
          [
            -93.1858379,
            44.4582015
          ],
          [
            -93.1856606,
            44.4583169
          ],
          [
            -93.1856171,
            44.4583705
          ]
        ]
      }
    },
    {
      "type": "Feature",
      "properties": {
        "NAME": null,
        "Type": "Access Trail",
        "_layer": "Natural Lands Trails"
      },
      "geometry": {
        "type": "LineString",
        "coordinates": [
          [
            -93.1817842,
            44.4671782
          ],
          [
            -93.1810051,
            44.4670998
          ]
        ]
      }
    },
    {
      "type": "Feature",
      "properties": {
        "NAME": null,
        "Type": "Access Trail",
        "_layer": "Natural Lands Trails"
      },
      "geometry": {
        "type": "LineString",
        "coordinates": [
          [
            -93.1856171,
            44.4583705
          ],
          [
            -93.1857818,
            44.4585482
          ],
          [
            -93.18587,
            44.4586713
          ],
          [
            -93.1860501,
            44.4587944
          ],
          [
            -93.186193,
            44.45883
          ]
        ]
      }
    },
    {
      "type": "Feature",
      "properties": {
        "NAME": "Baseball Pond Loop",
        "Type": null,
        "_layer": "Natural Lands Trails"
      },
      "geometry": {
        "type": "LineString",
        "coordinates": [
          [
            -93.1814013,
            44.4686605
          ],
          [
            -93.1815346,
            44.4687974
          ],
          [
            -93.1817676,
            44.4688695
          ],
          [
            -93.1820775,
            44.4688543
          ],
          [
            -93.1824562,
            44.4688312
          ],
          [
            -93.1829317,
            44.4688626
          ],
          [
            -93.1833234,
            44.4689082
          ],
          [
            -93.183588,
            44.4688646
          ],
          [
            -93.1840622,
            44.4687782
          ],
          [
            -93.1842792,
            44.4687198
          ],
          [
            -93.1843654,
            44.468702
          ],
          [
            -93.1844081,
            44.4686754
          ],
          [
            -93.1845586,
            44.4686252
          ],
          [
            -93.1844131,
            44.4685282
          ],
          [
            -93.1844007,
            44.4685203
          ],
          [
            -93.1842442,
            44.4684513
          ],
          [
            -93.183887,
            44.4682083
          ],
          [
            -93.1836473,
            44.4680062
          ],
          [
            -93.1834643,
            44.4677974
          ],
          [
            -93.1834698,
            44.4675537
          ],
          [
            -93.1835351,
            44.4673605
          ],
          [
            -93.1836739,
            44.4671609
          ],
          [
            -93.1837248,
            44.467053
          ],
          [
            -93.1836925,
            44.4668965
          ],
          [
            -93.1835406,
            44.4667484
          ],
          [
            -93.1834066,
            44.4664953
          ],
          [
            -93.1833399,
            44.4663119
          ],
          [
            -93.1833447,
            44.4661663
          ],
          [
            -93.1834141,
            44.4659676
          ],
          [
            -93.1833021,
            44.4658598
          ],
          [
            -93.1830217,
            44.4658205
          ],
          [
            -93.1827984,
            44.4658671
          ],
          [
            -93.1827015,
            44.4661349
          ],
          [
            -93.1826907,
            44.4664176
          ],
          [
            -93.1823943,
            44.4665709
          ],
          [
            -93.1820572,
            44.4666567
          ],
          [
            -93.1819827,
            44.4668641
          ],
          [
            -93.1819834,
            44.4670083
          ],
          [
            -93.1818295,
            44.4671407
          ],
          [
            -93.181725,
            44.467254
          ],
          [
            -93.1819284,
            44.4674978
          ],
          [
            -93.1820796,
            44.4676204
          ],
          [
            -93.1821085,
            44.4677273
          ],
          [
            -93.1821325,
            44.4678131
          ],
          [
            -93.181949,
            44.4680049
          ],
          [
            -93.1817078,
            44.468125
          ],
          [
            -93.1814034,
            44.4682412
          ],
          [
            -93.1813278,
            44.4684634
          ],
          [
            -93.1814013,
            44.4686605
          ]
        ]
      }
    },
    {
      "type": "Feature",
      "properties": {
        "NAME": "Big Pond Loop",
        "Type": null,
        "_layer": "Natural Lands Trails"
      },
      "geometry": {
        "type": "MultiLineString",
        "coordinates": [
          [
            [
              -93.1928482,
              44.4640935
            ],
            [
              -93.1928138,
              44.4640887
            ],
            [
              -93.1925675,
              44.4640883
            ],
            [
              -93.1923136,
              44.4641605
            ],
            [
              -93.192171,
              44.4641836
            ],
            [
              -93.192081,
              44.4641498
            ],
            [
              -93.1919439,
              44.4641227
            ],
            [
              -93.1918423,
              44.4641081
            ],
            [
              -93.1913118,
              44.4641161
            ],
            [
              -93.1911232,
              44.4641078
            ],
            [
              -93.1909943,
              44.464081
            ],
            [
              -93.1909303,
              44.4641269
            ],
            [
              -93.190908,
              44.4641345
            ],
            [
              -93.1908522,
              44.464154
            ],
            [
              -93.1908063,
              44.4642798
            ],
            [
              -93.1907921,
              44.4643399
            ],
            [
              -93.1907519,
              44.4644157
            ],
            [
              -93.1906936,
              44.4644638
            ],
            [
              -93.1906475,
              44.4645079
            ],
            [
              -93.1906528,
              44.4648428
            ],
            [
              -93.1907717,
              44.4657658
            ],
            [
              -93.1910573,
              44.4659062
            ],
            [
              -93.1913729,
              44.4660337
            ],
            [
              -93.1915476,
              44.4661407
            ],
            [
              -93.1916528,
              44.466229
            ],
            [
              -93.1917951,
              44.466373
            ],
            [
              -93.1920237,
              44.4665154
            ],
            [
              -93.1921155,
              44.4665583
            ],
            [
              -93.192218,
              44.4665924
            ],
            [
              -93.1922993,
              44.4666114
            ],
            [
              -93.1924128,
              44.4666289
            ],
            [
              -93.1925618,
              44.4666094
            ],
            [
              -93.1927058,
              44.4665944
            ],
            [
              -93.1928667,
              44.4666018
            ],
            [
              -93.1929795,
              44.4666375
            ],
            [
              -93.1931667,
              44.4666918
            ],
            [
              -93.1932797,
              44.4666976
            ],
            [
              -93.1934031,
              44.4666691
            ],
            [
              -93.1936614,
              44.4665532
            ],
            [
              -93.1937998,
              44.4665292
            ],
            [
              -93.1938719,
              44.4665291
            ],
            [
              -93.1939919,
              44.4665394
            ],
            [
              -93.1942109,
              44.4665705
            ],
            [
              -93.1943843,
              44.4665901
            ],
            [
              -93.1946093,
              44.4666215
            ],
            [
              -93.194726,
              44.4666539
            ],
            [
              -93.1949437,
              44.4667146
            ],
            [
              -93.1950397,
              44.4667321
            ],
            [
              -93.195082,
              44.4667399
            ],
            [
              -93.1952231,
              44.4667429
            ],
            [
              -93.195259,
              44.4667437
            ],
            [
              -93.1954082,
              44.4667028
            ],
            [
              -93.195494,
              44.4666753
            ],
            [
              -93.1955173,
              44.466667
            ],
            [
              -93.1956411,
              44.4665925
            ],
            [
              -93.1956975,
              44.4665283
            ],
            [
              -93.1957256,
              44.4664971
            ],
            [
              -93.1957632,
              44.4664435
            ],
            [
              -93.1957956,
              44.4663063
            ],
            [
              -93.1958173,
              44.4661747
            ],
            [
              -93.1958119,
              44.4661179
            ],
            [
              -93.1958265,
              44.4659549
            ],
            [
              -93.1958525,
              44.4656631
            ],
            [
              -93.195871,
              44.4655361
            ],
            [
              -93.1958717,
              44.4654855
            ],
            [
              -93.1958329,
              44.4654131
            ],
            [
              -93.1957741,
              44.4653314
            ],
            [
              -93.1957467,
              44.4652926
            ],
            [
              -93.1956062,
              44.465128
            ],
            [
              -93.1954046,
              44.464819
            ]
          ],
          [
            [
              -93.1928482,
              44.4640935
            ],
            [
              -93.1927976,
              44.4641871
            ],
            [
              -93.1927827,
              44.4642871
            ]
          ],
          [
            [
              -93.1954046,
              44.464819
            ],
            [
              -93.1953567,
              44.4646769
            ],
            [
              -93.1953299,
              44.4646106
            ],
            [
              -93.1953022,
              44.4645473
            ],
            [
              -93.1952699,
              44.4644486
            ],
            [
              -93.1952868,
              44.4643375
            ],
            [
              -93.1953183,
              44.4641881
            ],
            [
              -93.1952914,
              44.4641154
            ],
            [
              -93.1952615,
              44.4641106
            ],
            [
              -93.1952425,
              44.4641078
            ],
            [
              -93.1951102,
              44.464127
            ],
            [
              -93.1948974,
              44.4641345
            ],
            [
              -93.1947217,
              44.464127
            ],
            [
              -93.1945146,
              44.464132
            ],
            [
              -93.194357,
              44.4641356
            ],
            [
              -93.1941065,
              44.464135
            ],
            [
              -93.1937589,
              44.4641083
            ],
            [
              -93.1932721,
              44.4641231
            ],
            [
              -93.1930713,
              44.4641231
            ],
            [
              -93.1928482,
              44.4640935
            ]
          ],
          [
            [
              -93.1954046,
              44.464819
            ],
            [
              -93.1952978,
              44.4648515
            ],
            [
              -93.1950902,
              44.4648711
            ]
          ]
        ]
      }
    },
    {
      "type": "Feature",
      "properties": {
        "NAME": "Big Woods Trail",
        "Type": null,
        "_layer": "Natural Lands Trails"
      },
      "geometry": {
        "type": "LineString",
        "coordinates": [
          [
            -93.1898544,
            44.4567486
          ],
          [
            -93.1898544,
            44.4566493
          ],
          [
            -93.189854,
            44.4565085
          ],
          [
            -93.1898496,
            44.4563649
          ],
          [
            -93.1898377,
            44.4562489
          ],
          [
            -93.1898101,
            44.4560667
          ],
          [
            -93.1896904,
            44.4560006
          ],
          [
            -93.1896809,
            44.455985
          ],
          [
            -93.1897093,
            44.455879
          ],
          [
            -93.1897011,
            44.4557354
          ],
          [
            -93.1895618,
            44.4555921
          ],
          [
            -93.1893571,
            44.4554764
          ],
          [
            -93.1892373,
            44.4553993
          ],
          [
            -93.1892212,
            44.4551977
          ],
          [
            -93.1892271,
            44.4550746
          ],
          [
            -93.1891395,
            44.4549498
          ],
          [
            -93.1891458,
            44.4549281
          ],
          [
            -93.1892587,
            44.4548671
          ],
          [
            -93.1892665,
            44.454821
          ],
          [
            -93.1892905,
            44.4547749
          ],
          [
            -93.1892903,
            44.4547058
          ],
          [
            -93.1892659,
            44.4546194
          ],
          [
            -93.1892658,
            44.4545906
          ],
          [
            -93.1892977,
            44.4544926
          ],
          [
            -93.1893536,
            44.4543773
          ],
          [
            -93.1893453,
            44.4542909
          ],
          [
            -93.1893447,
            44.4541295
          ],
          [
            -93.1893283,
            44.4540316
          ],
          [
            -93.1893281,
            44.4539682
          ],
          [
            -93.1894242,
            44.4538356
          ],
          [
            -93.1897701,
            44.4538408
          ],
          [
            -93.1900679,
            44.4538979
          ],
          [
            -93.1905345,
            44.4539201
          ],
          [
            -93.1907919,
            44.4539197
          ],
          [
            -93.1909045,
            44.4539022
          ],
          [
            -93.1910789,
            44.4537983
          ]
        ]
      }
    },
    {
      "type": "Feature",
      "properties": {
        "NAME": "Campus Drive",
        "Type": "Access Trail",
        "_layer": "Natural Lands Trails"
      },
      "geometry": {
        "type": "LineString",
        "coordinates": [
          [
            -93.1907717,
            44.4657658
          ],
          [
            -93.1907755,
            44.4665059
          ],
          [
            -93.1907798,
            44.4669002
          ],
          [
            -93.1907583,
            44.4672643
          ],
          [
            -93.190734,
            44.467675
          ],
          [
            -93.1905625,
            44.4679337
          ],
          [
            -93.1902805,
            44.468348
          ],
          [
            -93.1896267,
            44.4694163
          ],
          [
            -93.189103,
            44.470272
          ]
        ]
      }
    },
    {
      "type": "Feature",
      "properties": {
        "NAME": "Conifer Trail",
        "Type": null,
        "_layer": "Natural Lands Trails"
      },
      "geometry": {
        "type": "LineString",
        "coordinates": [
          [
            -93.1952914,
            44.4641154
          ],
          [
            -93.1954408,
            44.4640317
          ],
          [
            -93.1958188,
            44.4639392
          ],
          [
            -93.1961703,
            44.4638784
          ],
          [
            -93.1965568,
            44.463786
          ],
          [
            -93.1969433,
            44.4638244
          ],
          [
            -93.1971435,
            44.4638819
          ],
          [
            -93.1976842,
            44.4640371
          ],
          [
            -93.1982109,
            44.4641994
          ],
          [
            -93.1985255,
            44.4642539
          ],
          [
            -93.1987583,
            44.4642853
          ],
          [
            -93.1991579,
            44.4642831
          ],
          [
            -93.1995596,
            44.464263
          ]
        ]
      }
    },
    {
      "type": "Feature",
      "properties": {
        "NAME": "Ellingson Woods Trail",
        "Type": null,
        "_layer": "Natural Lands Trails"
      },
      "geometry": {
        "type": "MultiLineString",
        "coordinates": [
          [
            [
              -93.1829372,
              44.4654758
            ],
            [
              -93.1826579,
              44.4654253
            ],
            [
              -93.1823462,
              44.4653042
            ],
            [
              -93.1821857,
              44.4652422
            ],
            [
              -93.1818894,
              44.4651545
            ],
            [
              -93.1816126,
              44.4649634
            ],
            [
              -93.1815749,
              44.4647966
            ],
            [
              -93.1815651,
              44.4646559
            ],
            [
              -93.1815413,
              44.4645166
            ],
            [
              -93.1814612,
              44.4645467
            ],
            [
              -93.1811115,
              44.4645848
            ],
            [
              -93.1804093,
              44.4645016
            ],
            [
              -93.1796748,
              44.4643342
            ],
            [
              -93.1793251,
              44.464265
            ],
            [
              -93.1791229,
              44.4641889
            ],
            [
              -93.1788333,
              44.4641597
            ],
            [
              -93.1785481,
              44.463989
            ]
          ],
          [
            [
              -93.1829372,
              44.4654758
            ],
            [
              -93.1831395,
              44.4654668
            ],
            [
              -93.1833979,
              44.4655159
            ],
            [
              -93.1835594,
              44.465578
            ],
            [
              -93.1836254,
              44.4656211
            ],
            [
              -93.1835481,
              44.4656702
            ],
            [
              -93.1834864,
              44.4657594
            ],
            [
              -93.1834049,
              44.4658537
            ],
            [
              -93.1833021,
              44.4658598
            ],
            [
              -93.1830217,
              44.4658205
            ],
            [
              -93.1829258,
              44.4658135
            ],
            [
              -93.1828381,
              44.4657524
            ],
            [
              -93.1829372,
              44.4654758
            ]
          ]
        ]
      }
    },
    {
      "type": "Feature",
      "properties": {
        "NAME": "Forest Restoration Loop 1",
        "Type": null,
        "_layer": "Natural Lands Trails"
      },
      "geometry": {
        "type": "MultiLineString",
        "coordinates": [
          [
            [
              -93.1908262,
              44.4631351
            ],
            [
              -93.190817,
              44.462995
            ],
            [
              -93.1908393,
              44.4627773
            ],
            [
              -93.1908486,
              44.4615645
            ],
            [
              -93.190858,
              44.4602397
            ],
            [
              -93.1909288,
              44.4600412
            ],
            [
              -93.1907979,
              44.4598681
            ],
            [
              -93.1904556,
              44.4599527
            ],
            [
              -93.1902489,
              44.4600417
            ],
            [
              -93.1901416,
              44.4600418
            ],
            [
              -93.1900341,
              44.4600495
            ],
            [
              -93.1899163,
              44.4600724
            ],
            [
              -93.1898694,
              44.4600886
            ],
            [
              -93.1898301,
              44.4601025
            ],
            [
              -93.1896909,
              44.4602562
            ],
            [
              -93.1895841,
              44.4604859
            ],
            [
              -93.1895836,
              44.4608656
            ],
            [
              -93.1895732,
              44.4610186
            ],
            [
              -93.1895947,
              44.4611438
            ],
            [
              -93.1895843,
              44.4612279
            ],
            [
              -93.1896376,
              44.4613527
            ],
            [
              -93.1896487,
              44.4614508
            ],
            [
              -93.1896266,
              44.4615717
            ],
            [
              -93.1896272,
              44.4617118
            ],
            [
              -93.1896682,
              44.4618629
            ],
            [
              -93.1897132,
              44.461986
            ],
            [
              -93.1897123,
              44.4621571
            ],
            [
              -93.1896886,
              44.4622093
            ],
            [
              -93.1896481,
              44.4622851
            ],
            [
              -93.1896695,
              44.462483
            ],
            [
              -93.1897966,
              44.4625986
            ],
            [
              -93.1900316,
              44.4626674
            ],
            [
              -93.1902948,
              44.4628067
            ],
            [
              -93.1904586,
              44.4629104
            ],
            [
              -93.1908262,
              44.4631351
            ]
          ],
          [
            [
              -93.1909943,
              44.464081
            ],
            [
              -93.1908712,
              44.4640007
            ],
            [
              -93.1908174,
              44.4634513
            ],
            [
              -93.1908262,
              44.4631351
            ]
          ]
        ]
      }
    },
    {
      "type": "Feature",
      "properties": {
        "NAME": "Forest Restoration Loop 2",
        "Type": null,
        "_layer": "Natural Lands Trails"
      },
      "geometry": {
        "type": "MultiLineString",
        "coordinates": [
          [
            [
              -93.1899954,
              44.4571423
            ],
            [
              -93.1899525,
              44.4569929
            ],
            [
              -93.1898682,
              44.4568774
            ]
          ],
          [
            [
              -93.1899954,
              44.4571423
            ],
            [
              -93.1900734,
              44.4571805
            ],
            [
              -93.1901613,
              44.4572231
            ],
            [
              -93.1903602,
              44.4573911
            ],
            [
              -93.1904253,
              44.4575397
            ],
            [
              -93.1905009,
              44.4576361
            ],
            [
              -93.1905962,
              44.457687
            ],
            [
              -93.1907614,
              44.4577077
            ],
            [
              -93.1908592,
              44.4577291
            ],
            [
              -93.190886,
              44.4577703
            ],
            [
              -93.1908966,
              44.4583419
            ],
            [
              -93.1908887,
              44.4583674
            ],
            [
              -93.1908805,
              44.4583858
            ],
            [
              -93.1908603,
              44.458404
            ],
            [
              -93.1908309,
              44.4584251
            ],
            [
              -93.1908175,
              44.4584489
            ],
            [
              -93.190843,
              44.4586395
            ],
            [
              -93.190832,
              44.4587407
            ],
            [
              -93.1908068,
              44.458894
            ],
            [
              -93.1908376,
              44.4589792
            ],
            [
              -93.1908953,
              44.4590711
            ],
            [
              -93.1909141,
              44.4591333
            ],
            [
              -93.1909262,
              44.4598253
            ],
            [
              -93.1907979,
              44.4598681
            ],
            [
              -93.1904556,
              44.4599527
            ],
            [
              -93.1902489,
              44.4600417
            ],
            [
              -93.1901406,
              44.4600418
            ],
            [
              -93.1900342,
              44.4600494
            ],
            [
              -93.1899163,
              44.4600724
            ],
            [
              -93.1898694,
              44.4600886
            ],
            [
              -93.1897393,
              44.4599479
            ],
            [
              -93.1896884,
              44.4597737
            ],
            [
              -93.1896105,
              44.4590309
            ],
            [
              -93.1895881,
              44.4583797
            ],
            [
              -93.1895849,
              44.458281
            ],
            [
              -93.189581,
              44.4581752
            ],
            [
              -93.1895891,
              44.4580498
            ],
            [
              -93.1896455,
              44.4578297
            ],
            [
              -93.1897089,
              44.4577555
            ],
            [
              -93.1898734,
              44.4576363
            ],
            [
              -93.1899539,
              44.457528
            ],
            [
              -93.1899995,
              44.457416
            ],
            [
              -93.1900209,
              44.4573012
            ],
            [
              -93.1899954,
              44.4571423
            ]
          ]
        ]
      }
    },
    {
      "type": "Feature",
      "properties": {
        "NAME": "Heath Creek Trail",
        "Type": null,
        "_layer": "Natural Lands Trails"
      },
      "geometry": {
        "type": "LineString",
        "coordinates": [
          [
            -93.1874748,
            44.4472073
          ],
          [
            -93.1875088,
            44.4472249
          ],
          [
            -93.1877418,
            44.4473411
          ],
          [
            -93.1882706,
            44.4476176
          ],
          [
            -93.1889136,
            44.4478497
          ],
          [
            -93.1897854,
            44.4480815
          ],
          [
            -93.1899617,
            44.448182
          ],
          [
            -93.1900414,
            44.4483395
          ],
          [
            -93.1900419,
            44.448497
          ],
          [
            -93.1899631,
            44.4486295
          ],
          [
            -93.1895854,
            44.4488003
          ],
          [
            -93.1891548,
            44.4489775
          ],
          [
            -93.1889532,
            44.4492047
          ],
          [
            -93.1888216,
            44.4493247
          ],
          [
            -93.1887343,
            44.4495391
          ],
          [
            -93.1887347,
            44.4496589
          ],
          [
            -93.188735,
            44.4497597
          ]
        ]
      }
    },
    {
      "type": "Feature",
      "properties": {
        "NAME": "Knoll Loop",
        "Type": null,
        "_layer": "Natural Lands Trails"
      },
      "geometry": {
        "type": "LineString",
        "coordinates": [
          [
            -93.1843654,
            44.468702
          ],
          [
            -93.1844081,
            44.4686754
          ],
          [
            -93.1845586,
            44.4686252
          ],
          [
            -93.1846229,
            44.4685717
          ],
          [
            -93.1846981,
            44.4684606
          ],
          [
            -93.1847733,
            44.4683226
          ],
          [
            -93.1848109,
            44.4682116
          ],
          [
            -93.184832,
            44.4680782
          ],
          [
            -93.1848591,
            44.467967
          ],
          [
            -93.1848857,
            44.467894
          ],
          [
            -93.1850198,
            44.4677446
          ],
          [
            -93.1851123,
            44.4677082
          ],
          [
            -93.1852025,
            44.4676682
          ],
          [
            -93.1852689,
            44.467704
          ],
          [
            -93.1853457,
            44.4677645
          ],
          [
            -93.1854137,
            44.4678159
          ],
          [
            -93.1855618,
            44.467921
          ],
          [
            -93.1856149,
            44.4679772
          ],
          [
            -93.1857094,
            44.4680457
          ],
          [
            -93.1857334,
            44.4680589
          ],
          [
            -93.1858314,
            44.4681142
          ],
          [
            -93.1859146,
            44.4681501
          ],
          [
            -93.1860271,
            44.468198
          ],
          [
            -93.1861085,
            44.4682382
          ],
          [
            -93.1861454,
            44.46826
          ],
          [
            -93.1862,
            44.4682916
          ],
          [
            -93.1862644,
            44.4683535
          ],
          [
            -93.1863074,
            44.4683882
          ],
          [
            -93.1863127,
            44.4684414
          ],
          [
            -93.1863022,
            44.468495
          ],
          [
            -93.1862647,
            44.4685641
          ],
          [
            -93.186171,
            44.4686066
          ],
          [
            -93.1860628,
            44.4686324
          ],
          [
            -93.1859625,
            44.4686678
          ],
          [
            -93.1858834,
            44.4687018
          ],
          [
            -93.185864,
            44.4687508
          ],
          [
            -93.185831,
            44.4688484
          ],
          [
            -93.1857723,
            44.4689353
          ],
          [
            -93.1857111,
            44.4689393
          ],
          [
            -93.1852586,
            44.4689366
          ],
          [
            -93.1849006,
            44.4689357
          ],
          [
            -93.1847648,
            44.4689277
          ],
          [
            -93.1846491,
            44.468901
          ],
          [
            -93.1845753,
            44.4688172
          ],
          [
            -93.184494,
            44.468756
          ],
          [
            -93.1843654,
            44.468702
          ]
        ]
      }
    },
    {
      "type": "Feature",
      "properties": {
        "NAME": "Norway Valley Trail",
        "Type": null,
        "_layer": "Natural Lands Trails"
      },
      "geometry": {
        "type": "LineString",
        "coordinates": [
          [
            -93.1821837,
            44.4587151
          ],
          [
            -93.1837816,
            44.4587397
          ],
          [
            -93.1837931,
            44.4584826
          ],
          [
            -93.184044,
            44.4583835
          ],
          [
            -93.1842941,
            44.4583634
          ],
          [
            -93.1844277,
            44.4582501
          ],
          [
            -93.1843124,
            44.4580559
          ],
          [
            -93.1841554,
            44.4579169
          ],
          [
            -93.1840424,
            44.4577097
          ],
          [
            -93.1841177,
            44.4575204
          ],
          [
            -93.1842606,
            44.4573949
          ],
          [
            -93.1845195,
            44.4573792
          ],
          [
            -93.1849543,
            44.4574431
          ],
          [
            -93.1850155,
            44.4577852
          ],
          [
            -93.1856171,
            44.4583705
          ],
          [
            -93.1855136,
            44.4586139
          ],
          [
            -93.1855213,
            44.458871
          ],
          [
            -93.1856094,
            44.4591636
          ],
          [
            -93.1857359,
            44.459541
          ],
          [
            -93.1860328,
            44.4596918
          ]
        ]
      }
    },
    {
      "type": "Feature",
      "properties": {
        "NAME": "Prairie Loop",
        "Type": null,
        "_layer": "Natural Lands Trails"
      },
      "geometry": {
        "type": "MultiLineString",
        "coordinates": [
          [
            [
              -93.1857723,
              44.4689353
            ],
            [
              -93.185783,
              44.4689756
            ],
            [
              -93.1858232,
              44.4690462
            ],
            [
              -93.185842,
              44.4691612
            ],
            [
              -93.1858795,
              44.4691975
            ],
            [
              -93.1859251,
              44.4692186
            ],
            [
              -93.1859843,
              44.4692186
            ],
            [
              -93.1860379,
              44.4692263
            ],
            [
              -93.1861164,
              44.4692263
            ],
            [
              -93.1861746,
              44.4692238
            ],
            [
              -93.1862088,
              44.4692225
            ],
            [
              -93.1863012,
              44.4692147
            ],
            [
              -93.1864482,
              44.4692128
            ],
            [
              -93.1864599,
              44.469213
            ],
            [
              -93.186527,
              44.4692141
            ],
            [
              -93.1865742,
              44.4692148
            ],
            [
              -93.1866413,
              44.4692224
            ],
            [
              -93.1867055,
              44.469232
            ],
            [
              -93.1867901,
              44.4692521
            ],
            [
              -93.1868293,
              44.4692614
            ],
            [
              -93.1868663,
              44.4692702
            ],
            [
              -93.1869069,
              44.4692837
            ],
            [
              -93.1869552,
              44.4692913
            ],
            [
              -93.1870034,
              44.4692913
            ],
            [
              -93.1870742,
              44.4693007
            ],
            [
              -93.187151,
              44.4693086
            ],
            [
              -93.1872233,
              44.4693181
            ],
            [
              -93.1873091,
              44.4693353
            ],
            [
              -93.1873824,
              44.4693624
            ],
            [
              -93.1874647,
              44.4693889
            ],
            [
              -93.1875077,
              44.4694093
            ],
            [
              -93.1876045,
              44.4694446
            ],
            [
              -93.1876969,
              44.4694913
            ],
            [
              -93.1877814,
              44.4695422
            ],
            [
              -93.1878455,
              44.4695898
            ],
            [
              -93.187899,
              44.4696204
            ],
            [
              -93.1879365,
              44.4696548
            ],
            [
              -93.1879984,
              44.4696894
            ],
            [
              -93.1880382,
              44.469716
            ],
            [
              -93.1880914,
              44.469737
            ],
            [
              -93.1881942,
              44.469768
            ],
            [
              -93.1882531,
              44.4697698
            ],
            [
              -93.1883316,
              44.4697948
            ],
            [
              -93.1883846,
              44.4698081
            ],
            [
              -93.188441,
              44.4698386
            ],
            [
              -93.1885062,
              44.4698914
            ],
            [
              -93.1885413,
              44.4699197
            ],
            [
              -93.1885539,
              44.4699288
            ],
            [
              -93.1885867,
              44.4699523
            ],
            [
              -93.1886334,
              44.4699924
            ],
            [
              -93.1886932,
              44.4700512
            ],
            [
              -93.1887408,
              44.4700863
            ],
            [
              -93.1887844,
              44.4701182
            ],
            [
              -93.1888244,
              44.4701373
            ],
            [
              -93.1888799,
              44.4701729
            ],
            [
              -93.1889538,
              44.4702076
            ],
            [
              -93.1890942,
              44.4702671
            ],
            [
              -93.1891542,
              44.4702926
            ],
            [
              -93.1891899,
              44.4703068
            ],
            [
              -93.1893002,
              44.4703502
            ],
            [
              -93.189383,
              44.4703864
            ],
            [
              -93.1894575,
              44.470413
            ],
            [
              -93.1894983,
              44.4704245
            ],
            [
              -93.1895565,
              44.4704284
            ],
            [
              -93.1896693,
              44.4704188
            ],
            [
              -93.1897072,
              44.470413
            ],
            [
              -93.1897471,
              44.4704035
            ],
            [
              -93.1898195,
              44.470394
            ],
            [
              -93.1899225,
              44.4703765
            ],
            [
              -93.1900141,
              44.4703635
            ],
            [
              -93.1900935,
              44.4703461
            ],
            [
              -93.1901579,
              44.4703421
            ],
            [
              -93.1902005,
              44.4703364
            ],
            [
              -93.190329,
              44.4703364
            ],
            [
              -93.1904581,
              44.4703497
            ],
            [
              -93.1905066,
              44.4703633
            ],
            [
              -93.1905461,
              44.4703729
            ],
            [
              -93.190616,
              44.4703899
            ],
            [
              -93.1907717,
              44.4704512
            ],
            [
              -93.1908523,
              44.4704781
            ],
            [
              -93.1909543,
              44.470526
            ],
            [
              -93.1910142,
              44.4705455
            ],
            [
              -93.1910528,
              44.4705677
            ],
            [
              -93.191109,
              44.470586
            ],
            [
              -93.1911447,
              44.4706025
            ],
            [
              -93.1911903,
              44.470614
            ],
            [
              -93.1912277,
              44.4706198
            ],
            [
              -93.1912789,
              44.4706197
            ],
            [
              -93.1913056,
              44.4706159
            ],
            [
              -93.1913352,
              44.4706159
            ],
            [
              -93.1913859,
              44.4706042
            ],
            [
              -93.1914103,
              44.4705987
            ],
            [
              -93.1914584,
              44.4705795
            ],
            [
              -93.19155,
              44.4705507
            ],
            [
              -93.1916329,
              44.4705029
            ],
            [
              -93.1916841,
              44.4704798
            ],
            [
              -93.1917582,
              44.4704329
            ],
            [
              -93.1918675,
              44.4703299
            ],
            [
              -93.191936,
              44.4702621
            ],
            [
              -93.1919654,
              44.4702236
            ],
            [
              -93.1919789,
              44.4702027
            ],
            [
              -93.1920028,
              44.4701661
            ],
            [
              -93.1920916,
              44.4700301
            ],
            [
              -93.1921211,
              44.4699919
            ],
            [
              -93.1921667,
              44.4699766
            ],
            [
              -93.1921986,
              44.4699614
            ],
            [
              -93.1922257,
              44.4699517
            ],
            [
              -93.1923024,
              44.4699358
            ],
            [
              -93.1923729,
              44.4699211
            ]
          ],
          [
            [
              -93.1923731,
              44.4699211
            ],
            [
              -93.1924272,
              44.4699037
            ],
            [
              -93.1924727,
              44.4698924
            ],
            [
              -93.1926227,
              44.4698445
            ],
            [
              -93.1926923,
              44.4698274
            ],
            [
              -93.1927487,
              44.4698254
            ],
            [
              -93.1928213,
              44.469831
            ],
            [
              -93.1929123,
              44.4698483
            ],
            [
              -93.1929662,
              44.4698648
            ],
            [
              -93.1930249,
              44.4698828
            ],
            [
              -93.1930892,
              44.4699172
            ],
            [
              -93.1931056,
              44.4699224
            ],
            [
              -93.1931618,
              44.4699402
            ],
            [
              -93.1932127,
              44.4699709
            ],
            [
              -93.193288,
              44.4700015
            ],
            [
              -93.1933787,
              44.470032
            ],
            [
              -93.1934671,
              44.4700435
            ],
            [
              -93.1935373,
              44.4700493
            ],
            [
              -93.193591,
              44.4700493
            ],
            [
              -93.193674,
              44.4700455
            ],
            [
              -93.1937789,
              44.4700357
            ],
            [
              -93.1938429,
              44.4700321
            ],
            [
              -93.1938993,
              44.4700359
            ],
            [
              -93.1939709,
              44.4700454
            ],
            [
              -93.1941119,
              44.4700672
            ],
            [
              -93.1942398,
              44.4700914
            ],
            [
              -93.1942801,
              44.470101
            ],
            [
              -93.1944331,
              44.4701144
            ],
            [
              -93.1945136,
              44.4701087
            ],
            [
              -93.1946164,
              44.4700847
            ],
            [
              -93.1946367,
              44.4700801
            ],
            [
              -93.1946986,
              44.470057
            ],
            [
              -93.1948411,
              44.4699707
            ],
            [
              -93.1948943,
              44.4699327
            ],
            [
              -93.1949561,
              44.4698983
            ],
            [
              -93.1950153,
              44.4698751
            ],
            [
              -93.1951063,
              44.4698541
            ],
            [
              -93.1952006,
              44.4698445
            ],
            [
              -93.195251,
              44.4698368
            ],
            [
              -93.1954122,
              44.4698446
            ],
            [
              -93.195487,
              44.4698579
            ],
            [
              -93.195654,
              44.4699014
            ],
            [
              -93.1956561,
              44.4699019
            ],
            [
              -93.1957636,
              44.4699522
            ],
            [
              -93.1957902,
              44.4699638
            ],
            [
              -93.1958892,
              44.4700185
            ],
            [
              -93.1959733,
              44.4700495
            ],
            [
              -93.1960318,
              44.4700665
            ],
            [
              -93.1960773,
              44.4700761
            ],
            [
              -93.1961469,
              44.4700761
            ],
            [
              -93.1961709,
              44.4700744
            ],
            [
              -93.1962273,
              44.4700533
            ],
            [
              -93.1962897,
              44.4700187
            ],
            [
              -93.1963236,
              44.470001
            ],
            [
              -93.1963482,
              44.4699881
            ],
            [
              -93.1964152,
              44.4699192
            ],
            [
              -93.1964579,
              44.4698581
            ],
            [
              -93.1965495,
              44.4697677
            ],
            [
              -93.1966129,
              44.4697166
            ],
            [
              -93.1966786,
              44.4696759
            ],
            [
              -93.1968065,
              44.4696301
            ],
            [
              -93.1968586,
              44.4696133
            ],
            [
              -93.1969587,
              44.4695808
            ],
            [
              -93.197076,
              44.4695534
            ],
            [
              -93.1972069,
              44.4695325
            ],
            [
              -93.1973003,
              44.469523
            ],
            [
              -93.1973725,
              44.4695191
            ],
            [
              -93.1974467,
              44.4695279
            ],
            [
              -93.197517,
              44.4695362
            ],
            [
              -93.1975639,
              44.4695498
            ],
            [
              -93.1976171,
              44.4695613
            ],
            [
              -93.197684,
              44.4695842
            ],
            [
              -93.1977298,
              44.469588
            ],
            [
              -93.1977513,
              44.469588
            ],
            [
              -93.197775,
              44.4695881
            ],
            [
              -93.1978093,
              44.4695786
            ],
            [
              -93.197847,
              44.469571
            ],
            [
              -93.1979523,
              44.4695327
            ],
            [
              -93.1980167,
              44.4695153
            ],
            [
              -93.1980447,
              44.4695095
            ],
            [
              -93.198081,
              44.4695019
            ],
            [
              -93.1981425,
              44.4695019
            ],
            [
              -93.198215,
              44.4695096
            ],
            [
              -93.1982985,
              44.4695267
            ],
            [
              -93.1985313,
              44.4695573
            ],
            [
              -93.1985805,
              44.4695613
            ],
            [
              -93.1986685,
              44.4695631
            ],
            [
              -93.1987218,
              44.4695613
            ],
            [
              -93.1987809,
              44.4695536
            ],
            [
              -93.1988719,
              44.4695174
            ],
            [
              -93.1990089,
              44.4694464
            ],
            [
              -93.1990806,
              44.4694182
            ],
            [
              -93.1991489,
              44.4693771
            ],
            [
              -93.1992317,
              44.4693124
            ],
            [
              -93.1992639,
              44.4692604
            ],
            [
              -93.1993013,
              44.4691882
            ],
            [
              -93.1993118,
              44.4691441
            ],
            [
              -93.199344,
              44.4690877
            ],
            [
              -93.1994113,
              44.4689812
            ],
            [
              -93.1994116,
              44.4689806
            ],
            [
              -93.1994435,
              44.4689086
            ],
            [
              -93.1994488,
              44.468846
            ],
            [
              -93.199452,
              44.4687735
            ],
            [
              -93.1994463,
              44.4686562
            ],
            [
              -93.1994625,
              44.4685998
            ],
            [
              -93.1995749,
              44.4683995
            ],
            [
              -93.1996208,
              44.4683281
            ],
            [
              -93.1996367,
              44.4682807
            ],
            [
              -93.1996447,
              44.4682463
            ],
            [
              -93.1996366,
              44.4682156
            ],
            [
              -93.1995937,
              44.4681716
            ],
            [
              -93.1995458,
              44.4681411
            ],
            [
              -93.1994007,
              44.4680703
            ],
            [
              -93.1993471,
              44.4680357
            ],
            [
              -93.1992826,
              44.4680013
            ],
            [
              -93.1992429,
              44.4679748
            ],
            [
              -93.1991924,
              44.4679271
            ],
            [
              -93.1991481,
              44.4678745
            ],
            [
              -93.1991397,
              44.4678601
            ],
            [
              -93.1990949,
              44.4677849
            ],
            [
              -93.1990252,
              44.4675764
            ],
            [
              -93.1989794,
              44.4674977
            ],
            [
              -93.1989096,
              44.4674286
            ],
            [
              -93.1987908,
              44.4673865
            ],
            [
              -93.1986998,
              44.4673675
            ],
            [
              -93.1985001,
              44.4673162
            ],
            [
              -93.1984215,
              44.4672919
            ],
            [
              -93.1983517,
              44.4672738
            ],
            [
              -93.1982521,
              44.4672392
            ],
            [
              -93.1980504,
              44.4671392
            ],
            [
              -93.1979736,
              44.4671036
            ],
            [
              -93.1978945,
              44.4670638
            ],
            [
              -93.1977994,
              44.4669947
            ],
            [
              -93.1977615,
              44.466956
            ],
            [
              -93.1977378,
              44.4669257
            ],
            [
              -93.1976971,
              44.4668908
            ],
            [
              -93.1975526,
              44.4668184
            ],
            [
              -93.1974906,
              44.466801
            ],
            [
              -93.1973939,
              44.4667953
            ],
            [
              -93.1972789,
              44.4667915
            ],
            [
              -93.1971881,
              44.4667782
            ],
            [
              -93.1970507,
              44.4667359
            ],
            [
              -93.1969892,
              44.466712
            ],
            [
              -93.1968575,
              44.466665
            ],
            [
              -93.1967787,
              44.4666239
            ],
            [
              -93.1967129,
              44.4665772
            ],
            [
              -93.196667,
              44.4665208
            ],
            [
              -93.1965928,
              44.4663828
            ],
            [
              -93.1965467,
              44.4663033
            ],
            [
              -93.1964985,
              44.4662498
            ],
            [
              -93.1964885,
              44.466241
            ],
            [
              -93.1964524,
              44.4662091
            ],
            [
              -93.1964074,
              44.4661809
            ],
            [
              -93.1963079,
              44.4661408
            ],
            [
              -93.196177,
              44.4661134
            ],
            [
              -93.1959576,
              44.4660948
            ],
            [
              -93.1958471,
              44.4660946
            ],
            [
              -93.1958119,
              44.4661179
            ]
          ]
        ]
      }
    },
    {
      "type": "Feature",
      "properties": {
        "NAME": "Windmilll Trail",
        "Type": null,
        "_layer": "Natural Lands Trails"
      },
      "geometry": {
        "type": "LineString",
        "coordinates": [
          [
            -93.1952914,
            44.4641154
          ],
          [
            -93.1952901,
            44.4639862
          ],
          [
            -93.1952284,
            44.4639058
          ],
          [
            -93.1950983,
            44.463789
          ],
          [
            -93.1948636,
            44.4637498
          ],
          [
            -93.1946678,
            44.4637555
          ],
          [
            -93.1945244,
            44.4637316
          ],
          [
            -93.1944401,
            44.4636639
          ],
          [
            -93.1943889,
            44.4635805
          ],
          [
            -93.1943621,
            44.463477
          ],
          [
            -93.194417,
            44.4633967
          ],
          [
            -93.1945422,
            44.4633167
          ],
          [
            -93.1945566,
            44.4633076
          ],
          [
            -93.194622,
            44.4632562
          ],
          [
            -93.194692,
            44.4632013
          ],
          [
            -93.194865,
            44.4631286
          ],
          [
            -93.1949629,
            44.4630003
          ],
          [
            -93.1949991,
            44.4628463
          ],
          [
            -93.1949387,
            44.4626728
          ],
          [
            -93.1949294,
            44.4625734
          ],
          [
            -93.1949763,
            44.4624844
          ],
          [
            -93.1949938,
            44.4623131
          ],
          [
            -93.1949712,
            44.4621632
          ],
          [
            -93.1949562,
            44.4619762
          ],
          [
            -93.1948373,
            44.461874
          ],
          [
            -93.1948285,
            44.4618667
          ],
          [
            -93.1947736,
            44.4618212
          ],
          [
            -93.1947645,
            44.4618137
          ],
          [
            -93.1946531,
            44.4617212
          ],
          [
            -93.1946355,
            44.4617085
          ],
          [
            -93.19454,
            44.4616375
          ],
          [
            -93.1942855,
            44.4614487
          ],
          [
            -93.19424,
            44.4613563
          ],
          [
            -93.1942292,
            44.4613347
          ],
          [
            -93.1941528,
            44.461242
          ],
          [
            -93.1940979,
            44.46113
          ],
          [
            -93.1941327,
            44.460909
          ],
          [
            -93.1941151,
            44.460809
          ],
          [
            -93.1941017,
            44.4606974
          ],
          [
            -93.1940131,
            44.460602
          ],
          [
            -93.1939036,
            44.4605127
          ],
          [
            -93.1936641,
            44.460413
          ],
          [
            -93.1934128,
            44.4602824
          ],
          [
            -93.1932354,
            44.4601841
          ],
          [
            -93.1930701,
            44.4601429
          ],
          [
            -93.1929838,
            44.460079
          ],
          [
            -93.1928821,
            44.4600046
          ],
          [
            -93.1923685,
            44.4597467
          ],
          [
            -93.1922039,
            44.4596778
          ],
          [
            -93.192044,
            44.4596769
          ],
          [
            -93.1918332,
            44.4596748
          ],
          [
            -93.1916391,
            44.4596732
          ],
          [
            -93.1913522,
            44.4596834
          ],
          [
            -93.1909271,
            44.459825
          ],
          [
            -93.1907979,
            44.4598681
          ]
        ]
      }
    }
  ]
}
