{
  "type": "FeatureCollection",
  "name": "parking-lots",
  "features": [
    {
      "type": "Feature",
      "properties": {
        "Id": 0,
        "Name": " ",
        "Type": "Campus Parking",
        "Lot": " ",
        "Details": " ",
        "_layer": "St. Olaf - Parking Lots"
      },
      "geometry": {
        "type": "Polygon",
        "coordinates": [
          [
            [
              -93.1806951,
              44.4608662
            ],
            [
              -93.1806927,
              44.460907
            ],
            [
              -93.1805394,
              44.4609107
            ],
            [
              -93.1805405,
              44.4608633
            ],
            [
              -93.1806951,
              44.4608662
            ]
          ]
        ]
      }
    },
    {
      "type": "Feature",
      "properties": {
        "Id": 0,
        "Name": " ",
        "Type": "Campus Parking",
        "Lot": " ",
        "Details": " ",
        "_layer": "St. Olaf - Parking Lots"
      },
      "geometry": {
        "type": "Polygon",
        "coordinates": [
          [
            [
              -93.1858402,
              44.4610817
            ],
            [
              -93.185832,
              44.4611337
            ],
            [
              -93.185832,
              44.461158
            ],
            [
              -93.1854637,
              44.461158
            ],
            [
              -93.1853931,
              44.4611571
            ],
            [
              -93.1853895,
              44.4610746
            ],
            [
              -93.1857557,
              44.4610872
            ],
            [
              -93.1858402,
              44.4610817
            ]
          ]
        ]
      }
    },
    {
      "type": "Feature",
      "properties": {
        "Id": 0,
        "Name": " ",
        "Type": "Campus Parking",
        "Lot": " Lot N",
        "Details": "Reserved for Faculty/Staff permits.",
        "_layer": "St. Olaf - Parking Lots"
      },
      "geometry": {
        "type": "Polygon",
        "coordinates": [
          [
            [
              -93.1809377,
              44.4605532
            ],
            [
              -93.1809344,
              44.4609019
            ],
            [
              -93.1808217,
              44.4609016
            ],
            [
              -93.1807612,
              44.4608682
            ],
            [
              -93.18076,
              44.4608564
            ],
            [
              -93.180693,
              44.4608557
            ],
            [
              -93.1806969,
              44.460551
            ],
            [
              -93.1809377,
              44.4605532
            ]
          ]
        ]
      }
    },
    {
      "type": "Feature",
      "properties": {
        "Id": 0,
        "Name": " ",
        "Type": "Campus Parking",
        "Lot": " ",
        "Details": " ",
        "_layer": "St. Olaf - Parking Lots"
      },
      "geometry": {
        "type": "Polygon",
        "coordinates": [
          [
            [
              -93.186549,
              44.4621451
            ],
            [
              -93.186591,
              44.4622083
            ],
            [
              -93.1864802,
              44.4622531
            ],
            [
              -93.1863524,
              44.4623234
            ],
            [
              -93.186294,
              44.4622679
            ],
            [
              -93.186549,
              44.4621451
            ]
          ]
        ]
      }
    },
    {
      "type": "Feature",
      "properties": {
        "Id": 0,
        "Name": " ",
        "Type": "Campus Parking",
        "Lot": " Lot J",
        "Details": "Reserved for Faculty/Staff permits, disability parking, and general student permits.",
        "_layer": "St. Olaf - Parking Lots"
      },
      "geometry": {
        "type": "Polygon",
        "coordinates": [
          [
            [
              -93.18544,
              44.466329
            ],
            [
              -93.1853684,
              44.4663011
            ],
            [
              -93.1853473,
              44.4662616
            ],
            [
              -93.1853236,
              44.4661978
            ],
            [
              -93.185506,
              44.4659769
            ],
            [
              -93.1857264,
              44.4660533
            ],
            [
              -93.1857534,
              44.4660631
            ],
            [
              -93.1858527,
              44.4660631
            ],
            [
              -93.1859821,
              44.4660573
            ],
            [
              -93.1860759,
              44.4660328
            ],
            [
              -93.1861596,
              44.4660031
            ],
            [
              -93.1862538,
              44.4659365
            ],
            [
              -93.1863135,
              44.4658775
            ],
            [
              -93.1863364,
              44.465842
            ],
            [
              -93.1864431,
              44.4656743
            ],
            [
              -93.1866438,
              44.465322
            ],
            [
              -93.1867111,
              44.465155
            ],
            [
              -93.1867618,
              44.4649499
            ],
            [
              -93.1867662,
              44.4648028
            ],
            [
              -93.1867612,
              44.4646347
            ],
            [
              -93.186836,
              44.4646332
            ],
            [
              -93.1868464,
              44.4646084
            ],
            [
              -93.1868442,
              44.4645433
            ],
            [
              -93.1868878,
              44.4645436
            ],
            [
              -93.1868884,
              44.4645225
            ],
            [
              -93.1876093,
              44.4645125
            ],
            [
              -93.1876521,
              44.4645123
            ],
            [
              -93.1877238,
              44.4644926
            ],
            [
              -93.1877209,
              44.4645623
            ],
            [
              -93.1877889,
              44.4645676
            ],
            [
              -93.1877812,
              44.4646858
            ],
            [
              -93.1877422,
              44.4646877
            ],
            [
              -93.1877245,
              44.4646958
            ],
            [
              -93.1877182,
              44.4647113
            ],
            [
              -93.1877177,
              44.4647537
            ],
            [
              -93.1869389,
              44.4647538
            ],
            [
              -93.1869391,
              44.4647807
            ],
            [
              -93.186946,
              44.4647894
            ],
            [
              -93.1869496,
              44.4647914
            ],
            [
              -93.1869598,
              44.4647939
            ],
            [
              -93.187003,
              44.4647933
            ],
            [
              -93.1869984,
              44.4649145
            ],
            [
              -93.1869892,
              44.4649848
            ],
            [
              -93.1869776,
              44.4650822
            ],
            [
              -93.1869118,
              44.4652809
            ],
            [
              -93.1868231,
              44.4654657
            ],
            [
              -93.1867479,
              44.4655902
            ],
            [
              -93.1865513,
              44.4659155
            ],
            [
              -93.186593,
              44.4659426
            ],
            [
              -93.1866507,
              44.4659885
            ],
            [
              -93.1866846,
              44.4660356
            ],
            [
              -93.1867043,
              44.4660984
            ],
            [
              -93.1866994,
              44.4661621
            ],
            [
              -93.1866835,
              44.4662033
            ],
            [
              -93.1866624,
              44.4662342
            ],
            [
              -93.1866251,
              44.4663357
            ],
            [
              -93.1865913,
              44.4663489
            ],
            [
              -93.1865177,
              44.4663732
            ],
            [
              -93.1864608,
              44.4663779
            ],
            [
              -93.1863507,
              44.4663811
            ],
            [
              -93.1863079,
              44.4663186
            ],
            [
              -93.1862468,
              44.4663399
            ],
            [
              -93.1862207,
              44.4663464
            ],
            [
              -93.1861629,
              44.4663617
            ],
            [
              -93.1860347,
              44.4663842
            ],
            [
              -93.1859483,
              44.466395
            ],
            [
              -93.1858579,
              44.466397
            ],
            [
              -93.1857424,
              44.4663924
            ],
            [
              -93.1856404,
              44.4663815
            ],
            [
              -93.185523,
              44.4663561
            ],
            [
              -93.18544,
              44.466329
            ]
          ]
        ]
      }
    },
    {
      "type": "Feature",
      "properties": {
        "Id": 0,
        "Name": null,
        "Type": "Campus Parking",
        "Lot": " Lot G",
        "Details": " Reserved for Faculty/Staff permits and Residence Life parking. Paid hourly parking available in spots designated by signage.",
        "_layer": "St. Olaf - Parking Lots"
      },
      "geometry": {
        "type": "Polygon",
        "coordinates": [
          [
            [
              -93.1860437,
              44.4581103
            ],
            [
              -93.1861559,
              44.4581126
            ],
            [
              -93.1861454,
              44.4584679
            ],
            [
              -93.1861509,
              44.4586774
            ],
            [
              -93.1861991,
              44.4587559
            ],
            [
              -93.1861938,
              44.4588212
            ],
            [
              -93.1860255,
              44.4588082
            ],
            [
              -93.1860437,
              44.4581103
            ]
          ]
        ]
      }
    },
    {
      "type": "Feature",
      "properties": {
        "Id": 0,
        "Name": " ",
        "Type": "Campus Parking",
        "Lot": " ",
        "Details": " ",
        "_layer": "St. Olaf - Parking Lots"
      },
      "geometry": {
        "type": "Polygon",
        "coordinates": [
          [
            [
              -93.1859965,
              44.4627816
            ],
            [
              -93.1860518,
              44.4628108
            ],
            [
              -93.1860363,
              44.4628407
            ],
            [
              -93.1859283,
              44.462922
            ],
            [
              -93.1858735,
              44.4628746
            ],
            [
              -93.1859965,
              44.4627816
            ]
          ]
        ]
      }
    },
    {
      "type": "Feature",
      "properties": {
        "Id": 0,
        "Name": " ",
        "Type": "Campus Parking",
        "Lot": " ",
        "Details": " ",
        "_layer": "St. Olaf - Parking Lots"
      },
      "geometry": {
        "type": "Polygon",
        "coordinates": [
          [
            [
              -93.178106,
              44.4597117
            ],
            [
              -93.1781036,
              44.4601999
            ],
            [
              -93.1780287,
              44.4601996
            ],
            [
              -93.1780287,
              44.4597092
            ],
            [
              -93.178106,
              44.4597117
            ]
          ]
        ]
      }
    },
    {
      "type": "Feature",
      "properties": {
        "Id": 0,
        "Name": " ",
        "Type": "Campus Parking",
        "Lot": " ",
        "Details": " ",
        "_layer": "St. Olaf - Parking Lots"
      },
      "geometry": {
        "type": "Polygon",
        "coordinates": [
          [
            [
              -93.1808214,
              44.4609767
            ],
            [
              -93.1808208,
              44.4610362
            ],
            [
              -93.1806422,
              44.4610351
            ],
            [
              -93.1806437,
              44.4609804
            ],
            [
              -93.1808214,
              44.4609767
            ]
          ]
        ]
      }
    },
    {
      "type": "Feature",
      "properties": {
        "Id": 0,
        "Name": " ",
        "Type": "Campus Parking",
        "Lot": " Lot I",
        "Details": "Reserved for students with general student permits.",
        "_layer": "St. Olaf - Parking Lots"
      },
      "geometry": {
        "type": "Polygon",
        "coordinates": [
          [
            [
              -93.1882503,
              44.4645345
            ],
            [
              -93.1889648,
              44.4645417
            ],
            [
              -93.1889548,
              44.465223
            ],
            [
              -93.1882443,
              44.4652244
            ],
            [
              -93.1882503,
              44.4645345
            ]
          ]
        ]
      }
    },
    {
      "type": "Feature",
      "properties": {
        "Id": 0,
        "Name": "Admissions Visitor Parking",
        "Type": "Admissions Parking",
        "Lot": "Lot F",
        "Details": "Admissions visitors should park in the admissions lot (Lot F), located just northeast of the roundabout. If you coordinated your visit with the admissions office, you should see a personalized reserved parking space just for you!",
        "_layer": "St. Olaf - Parking Lots"
      },
      "geometry": {
        "type": "Polygon",
        "coordinates": [
          [
            [
              -93.1855452,
              44.4598619
            ],
            [
              -93.1855685,
              44.459882
            ],
            [
              -93.1855831,
              44.4598914
            ],
            [
              -93.185705,
              44.4599496
            ],
            [
              -93.1857358,
              44.4599803
            ],
            [
              -93.185563,
              44.4600662
            ],
            [
              -93.1855309,
              44.4600351
            ],
            [
              -93.1855258,
              44.4600322
            ],
            [
              -93.1855198,
              44.46003
            ],
            [
              -93.1854441,
              44.4599776
            ],
            [
              -93.1854025,
              44.4599405
            ],
            [
              -93.1854531,
              44.4599126
            ],
            [
              -93.1854799,
              44.4598962
            ],
            [
              -93.1855452,
              44.4598619
            ]
          ]
        ]
      }
    },
    {
      "type": "Feature",
      "properties": {
        "Id": 0,
        "Name": "Admissions Visitor Parking",
        "Type": "Admissions Parking",
        "Lot": "Lot F",
        "Details": "Admissions visitors should park in the admissions lot (Lot F), located just northeast of the roundabout. If you coordinated your visit with the admissions office, you should see a personalized reserved parking space just for you!",
        "_layer": "St. Olaf - Parking Lots"
      },
      "geometry": {
        "type": "Polygon",
        "coordinates": [
          [
            [
              -93.185336,
              44.460148
            ],
            [
              -93.1852995,
              44.4601468
            ],
            [
              -93.185197,
              44.4601471
            ],
            [
              -93.185198,
              44.4600956
            ],
            [
              -93.1853753,
              44.4600965
            ],
            [
              -93.1853752,
              44.4601479
            ],
            [
              -93.185336,
              44.460148
            ]
          ]
        ]
      }
    },
    {
      "type": "Feature",
      "properties": {
        "Id": 0,
        "Name": " Alumni Hall Road",
        "Type": "Campus Parking",
        "Lot": " ",
        "Details": "Reserved for Faculty/Staff permits, disability parking, and visitors.",
        "_layer": "St. Olaf - Parking Lots"
      },
      "geometry": {
        "type": "Polygon",
        "coordinates": [
          [
            [
              -93.1860588,
              44.4625324
            ],
            [
              -93.1861306,
              44.4625336
            ],
            [
              -93.186112,
              44.462569
            ],
            [
              -93.1861011,
              44.4625984
            ],
            [
              -93.1860909,
              44.4627343
            ],
            [
              -93.1860737,
              44.4627633
            ],
            [
              -93.1860022,
              44.4627564
            ],
            [
              -93.1859956,
              44.4625318
            ],
            [
              -93.1860588,
              44.4625324
            ]
          ]
        ]
      }
    },
    {
      "type": "Feature",
      "properties": {
        "Id": 0,
        "Name": " Below Regents Hall",
        "Type": "Campus Parking",
        "Lot": " Lot M",
        "Details": "Reserved for Faculty/Staff permits. Paid hourly parking available in spots designated by signage.",
        "_layer": "St. Olaf - Parking Lots"
      },
      "geometry": {
        "type": "Polygon",
        "coordinates": [
          [
            [
              -93.1807644,
              44.458268
            ],
            [
              -93.1809022,
              44.4582295
            ],
            [
              -93.1810758,
              44.4582067
            ],
            [
              -93.1812872,
              44.4582064
            ],
            [
              -93.1814707,
              44.4582314
            ],
            [
              -93.1816841,
              44.4582733
            ],
            [
              -93.181892,
              44.4583545
            ],
            [
              -93.1820074,
              44.4584254
            ],
            [
              -93.1819739,
              44.4584706
            ],
            [
              -93.1819465,
              44.4584991
            ],
            [
              -93.1819266,
              44.4584853
            ],
            [
              -93.1817879,
              44.4584101
            ],
            [
              -93.1816372,
              44.4583559
            ],
            [
              -93.1815071,
              44.4583175
            ],
            [
              -93.1813438,
              44.458295
            ],
            [
              -93.1811548,
              44.4582912
            ],
            [
              -93.1810002,
              44.4583008
            ],
            [
              -93.1808597,
              44.458333
            ],
            [
              -93.1808297,
              44.4583132
            ],
            [
              -93.1807644,
              44.458268
            ]
          ]
        ]
      }
    },
    {
      "type": "Feature",
      "properties": {
        "Id": 0,
        "Name": " Below Regents Hall",
        "Type": "Campus Parking",
        "Lot": " Lot M",
        "Details": "Reserved for Faculty/Staff permits. Paid hourly parking available in spots designated by signage.",
        "_layer": "St. Olaf - Parking Lots"
      },
      "geometry": {
        "type": "Polygon",
        "coordinates": [
          [
            [
              -93.1807313,
              44.4585306
            ],
            [
              -93.1809161,
              44.4585091
            ],
            [
              -93.1811544,
              44.4584996
            ],
            [
              -93.1813811,
              44.458513
            ],
            [
              -93.1815924,
              44.4585445
            ],
            [
              -93.1816514,
              44.4585592
            ],
            [
              -93.1816422,
              44.4586525
            ],
            [
              -93.1813692,
              44.4585937
            ],
            [
              -93.1811666,
              44.4585809
            ],
            [
              -93.1810141,
              44.4585858
            ],
            [
              -93.1808092,
              44.4586073
            ],
            [
              -93.1807313,
              44.4585306
            ]
          ]
        ]
      }
    },
    {
      "type": "Feature",
      "properties": {
        "Id": 0,
        "Name": "Bunt + Rolvaag",
        "Type": "Campus Parking",
        "Lot": " ",
        "Details": " ",
        "_layer": "St. Olaf - Parking Lots"
      },
      "geometry": {
        "type": "Polygon",
        "coordinates": [
          [
            [
              -93.1820266,
              44.46176
            ],
            [
              -93.1820616,
              44.4618051
            ],
            [
              -93.1819486,
              44.4618496
            ],
            [
              -93.1819075,
              44.4618028
            ],
            [
              -93.1820266,
              44.46176
            ]
          ]
        ]
      }
    },
    {
      "type": "Feature",
      "properties": {
        "Id": 0,
        "Name": "Buntrock Commons Parking",
        "Type": "General Vistor Parking",
        "Lot": "Lot A | Lot A-1",
        "Details": "General visitors to the college should park in the Buntrock Commons parking lot (Lot A). The first two rows are reserved specifically for visitors.",
        "_layer": "St. Olaf - Parking Lots"
      },
      "geometry": {
        "type": "Polygon",
        "coordinates": [
          [
            [
              -93.1836644,
              44.4624258
            ],
            [
              -93.183669,
              44.4627771
            ],
            [
              -93.1836738,
              44.4631689
            ],
            [
              -93.1836747,
              44.4632192
            ],
            [
              -93.1835505,
              44.4632203
            ],
            [
              -93.1826521,
              44.4632263
            ],
            [
              -93.1824311,
              44.463195
            ],
            [
              -93.182444,
              44.4631397
            ],
            [
              -93.1823294,
              44.463122
            ],
            [
              -93.182485,
              44.4627083
            ],
            [
              -93.182533,
              44.4625625
            ],
            [
              -93.1825882,
              44.4623696
            ],
            [
              -93.1828152,
              44.4624228
            ],
            [
              -93.1830255,
              44.4624392
            ],
            [
              -93.1836644,
              44.4624258
            ]
          ]
        ]
      }
    },
    {
      "type": "Feature",
      "properties": {
        "Id": 0,
        "Name": " CAD Road",
        "Type": "Campus Parking",
        "Lot": " ",
        "Details": "Reserved for Faculty/Staff permits.",
        "_layer": "St. Olaf - Parking Lots"
      },
      "geometry": {
        "type": "Polygon",
        "coordinates": [
          [
            [
              -93.1842088,
              44.4629929
            ],
            [
              -93.1844671,
              44.4631221
            ],
            [
              -93.184384,
              44.4632096
            ],
            [
              -93.1843673,
              44.463204
            ],
            [
              -93.1841211,
              44.4630815
            ],
            [
              -93.1842088,
              44.4629929
            ]
          ]
        ]
      }
    },
    {
      "type": "Feature",
      "properties": {
        "Id": 0,
        "Name": " CHM Road",
        "Type": "Campus Parking",
        "Lot": " ",
        "Details": "Reserved for Faculty/Staff permits and disability parking.",
        "_layer": "St. Olaf - Parking Lots"
      },
      "geometry": {
        "type": "Polygon",
        "coordinates": [
          [
            [
              -93.1868734,
              44.4613258
            ],
            [
              -93.1869131,
              44.4613663
            ],
            [
              -93.1869763,
              44.461438
            ],
            [
              -93.187,
              44.461499
            ],
            [
              -93.1869507,
              44.4614959
            ],
            [
              -93.1869133,
              44.4614995
            ],
            [
              -93.1868906,
              44.4615102
            ],
            [
              -93.1868396,
              44.461429
            ],
            [
              -93.1867809,
              44.4613597
            ],
            [
              -93.1868734,
              44.4613258
            ]
          ]
        ]
      }
    },
    {
      "type": "Feature",
      "properties": {
        "Id": 0,
        "Name": " CHM Road",
        "Type": "Campus Parking",
        "Lot": " ",
        "Details": "Reserved for Faculty/Staff permits and disability parking.",
        "_layer": "St. Olaf - Parking Lots"
      },
      "geometry": {
        "type": "Polygon",
        "coordinates": [
          [
            [
              -93.1865249,
              44.4610541
            ],
            [
              -93.1867596,
              44.4612338
            ],
            [
              -93.1867178,
              44.4612506
            ],
            [
              -93.1866758,
              44.4612776
            ],
            [
              -93.1864419,
              44.4611018
            ],
            [
              -93.1865249,
              44.4610541
            ]
          ]
        ]
      }
    },
    {
      "type": "Feature",
      "properties": {
        "Id": 0,
        "Name": " Commuter",
        "Type": "Campus Parking",
        "Lot": " Lot H",
        "Details": "Reserved for Faculty/Staff permits, disability parking, and students with Off-Campus Living permits.",
        "_layer": "St. Olaf - Parking Lots"
      },
      "geometry": {
        "type": "Polygon",
        "coordinates": [
          [
            [
              -93.1805116,
              44.4606835
            ],
            [
              -93.1805096,
              44.460892
            ],
            [
              -93.1803856,
              44.4608954
            ],
            [
              -93.1803815,
              44.4606996
            ],
            [
              -93.1803762,
              44.4606789
            ],
            [
              -93.1805116,
              44.4606835
            ]
          ]
        ]
      }
    },
    {
      "type": "Feature",
      "properties": {
        "Id": 0,
        "Name": "Ellingson",
        "Type": "Campus Parking",
        "Lot": "Lot P",
        "Details": "</b>Reserved parking by signage </b> <ul><li>Blue permits</a></li> <li>Disability parking</a></li> <li>General student parking</a></li> <li>Paid hourly parking</a></li> <li>15-minute loading/unloading parking</a></li> </ul>",
        "_layer": "St. Olaf - Parking Lots"
      },
      "geometry": {
        "type": "Polygon",
        "coordinates": [
          [
            [
              -93.181575,
              44.463642
            ],
            [
              -93.1806655,
              44.4636437
            ],
            [
              -93.1806624,
              44.4636002
            ],
            [
              -93.1807148,
              44.4635692
            ],
            [
              -93.180784,
              44.4635795
            ],
            [
              -93.181574,
              44.4635777
            ],
            [
              -93.181575,
              44.463642
            ]
          ]
        ]
      }
    },
    {
      "type": "Feature",
      "properties": {
        "Id": 0,
        "Name": " Facilities",
        "Type": "Campus Parking",
        "Lot": " Lot H",
        "Details": "Reserved for Faculty/Staff permits, disability parking, and students with Off-Campus Living permits.",
        "_layer": "St. Olaf - Parking Lots"
      },
      "geometry": {
        "type": "Polygon",
        "coordinates": [
          [
            [
              -93.1805056,
              44.4609918
            ],
            [
              -93.180767,
              44.4614404
            ],
            [
              -93.1806883,
              44.4614692
            ],
            [
              -93.1805478,
              44.4612962
            ],
            [
              -93.1804255,
              44.4610767
            ],
            [
              -93.180388,
              44.4610128
            ],
            [
              -93.1805056,
              44.4609918
            ]
          ]
        ]
      }
    },
    {
      "type": "Feature",
      "properties": {
        "Id": 0,
        "Name": " Hill-Kit Road Lot",
        "Type": "Campus Parking",
        "Lot": " ",
        "Details": " Reserved for Blue DAC permits.",
        "_layer": "St. Olaf - Parking Lots"
      },
      "geometry": {
        "type": "Polygon",
        "coordinates": [
          [
            [
              -93.186221,
              44.459431
            ],
            [
              -93.1861088,
              44.4594343
            ],
            [
              -93.1860961,
              44.459369
            ],
            [
              -93.1861432,
              44.4592205
            ],
            [
              -93.1862397,
              44.4591346
            ],
            [
              -93.1863571,
              44.4591824
            ],
            [
              -93.186259,
              44.4593024
            ],
            [
              -93.186221,
              44.459431
            ]
          ]
        ]
      }
    },
    {
      "type": "Feature",
      "properties": {
        "Id": 0,
        "Name": " Holland Lot",
        "Type": "Campus Parking",
        "Lot": " ",
        "Details": "Reserved for Faculty/Staff permits and disability parking.",
        "_layer": "St. Olaf - Parking Lots"
      },
      "geometry": {
        "type": "Polygon",
        "coordinates": [
          [
            [
              -93.1814777,
              44.4598864
            ],
            [
              -93.1814613,
              44.4599409
            ],
            [
              -93.1814413,
              44.4599687
            ],
            [
              -93.1813982,
              44.4599637
            ],
            [
              -93.1813533,
              44.4599648
            ],
            [
              -93.1813102,
              44.4599792
            ],
            [
              -93.1812733,
              44.4599995
            ],
            [
              -93.1812415,
              44.4600344
            ],
            [
              -93.1812343,
              44.4600585
            ],
            [
              -93.1812337,
              44.4600689
            ],
            [
              -93.1811207,
              44.460056
            ],
            [
              -93.1811478,
              44.4599775
            ],
            [
              -93.1811824,
              44.4599453
            ],
            [
              -93.1812206,
              44.4599184
            ],
            [
              -93.1812641,
              44.4598966
            ],
            [
              -93.181321,
              44.4598818
            ],
            [
              -93.1813787,
              44.4598756
            ],
            [
              -93.1814269,
              44.4598772
            ],
            [
              -93.1814777,
              44.4598864
            ]
          ]
        ]
      }
    },
    {
      "type": "Feature",
      "properties": {
        "Id": 0,
        "Name": " Hoyme Circle",
        "Type": "Campus Parking",
        "Lot": " ",
        "Details": " Reserved for Faculty/Staff permits. Paid hourly parking available in spots designated by signage.",
        "_layer": "St. Olaf - Parking Lots"
      },
      "geometry": {
        "type": "Polygon",
        "coordinates": [
          [
            [
              -93.1867049,
              44.4606596
            ],
            [
              -93.186657,
              44.4607103
            ],
            [
              -93.186595,
              44.4607606
            ],
            [
              -93.1865577,
              44.4607421
            ],
            [
              -93.1865821,
              44.4607095
            ],
            [
              -93.1866062,
              44.4606415
            ],
            [
              -93.1866762,
              44.4606541
            ],
            [
              -93.1867049,
              44.4606596
            ]
          ]
        ]
      }
    },
    {
      "type": "Feature",
      "properties": {
        "Id": 0,
        "Name": " Hoyme Circle",
        "Type": "Campus Parking",
        "Lot": " ",
        "Details": "Reserved for Faculty/Staff permits. Paid hourly parking available in spots designated by signage. ",
        "_layer": "St. Olaf - Parking Lots"
      },
      "geometry": {
        "type": "Polygon",
        "coordinates": [
          [
            [
              -93.186303,
              44.4604746
            ],
            [
              -93.1863289,
              44.4604744
            ],
            [
              -93.1863937,
              44.4604804
            ],
            [
              -93.1864935,
              44.4604923
            ],
            [
              -93.186604,
              44.4605129
            ],
            [
              -93.1866632,
              44.4605337
            ],
            [
              -93.1866934,
              44.4605503
            ],
            [
              -93.1867063,
              44.4605707
            ],
            [
              -93.1866685,
              44.4605859
            ],
            [
              -93.1866004,
              44.460614
            ],
            [
              -93.1865934,
              44.4605993
            ],
            [
              -93.1865771,
              44.4605677
            ],
            [
              -93.1865707,
              44.4605552
            ],
            [
              -93.1864684,
              44.4605288
            ],
            [
              -93.1863007,
              44.4605153
            ],
            [
              -93.1863015,
              44.4605043
            ],
            [
              -93.186303,
              44.4604746
            ]
          ]
        ]
      }
    },
    {
      "type": "Feature",
      "properties": {
        "Id": 0,
        "Name": " Hoyme Road",
        "Type": "Campus Parking",
        "Lot": " ",
        "Details": " Reserved for Faculty/Staff permits.",
        "_layer": "St. Olaf - Parking Lots"
      },
      "geometry": {
        "type": "Polygon",
        "coordinates": [
          [
            [
              -93.1860902,
              44.4605065
            ],
            [
              -93.1860946,
              44.460518
            ],
            [
              -93.1862838,
              44.4608159
            ],
            [
              -93.1861841,
              44.4608437
            ],
            [
              -93.1861425,
              44.4608432
            ],
            [
              -93.1859798,
              44.46053
            ],
            [
              -93.1860902,
              44.4605065
            ]
          ]
        ]
      }
    },
    {
      "type": "Feature",
      "properties": {
        "Id": 0,
        "Name": " Hoyme Road",
        "Type": "Campus Parking",
        "Lot": " ",
        "Details": " Reserved for Faculty/Staff permits.",
        "_layer": "St. Olaf - Parking Lots"
      },
      "geometry": {
        "type": "Polygon",
        "coordinates": [
          [
            [
              -93.1861846,
              44.4602093
            ],
            [
              -93.1861882,
              44.4603145
            ],
            [
              -93.186212,
              44.4603745
            ],
            [
              -93.1862367,
              44.4604372
            ],
            [
              -93.1861316,
              44.4604577
            ],
            [
              -93.1860719,
              44.4602972
            ],
            [
              -93.1860667,
              44.4602346
            ],
            [
              -93.1860735,
              44.4602136
            ],
            [
              -93.1861846,
              44.4602093
            ]
          ]
        ]
      }
    },
    {
      "type": "Feature",
      "properties": {
        "Id": 0,
        "Name": " Lincoln Lot",
        "Type": "Campus Parking",
        "Lot": " ",
        "Details": "Reserved for student permits and disability parking. 2 EV charging stations. Paid hourly parking is available in spots designated by signage.",
        "_layer": "St. Olaf - Parking Lots"
      },
      "geometry": {
        "type": "Polygon",
        "coordinates": [
          [
            [
              -93.1779153,
              44.4612122
            ],
            [
              -93.1786069,
              44.4612131
            ],
            [
              -93.1786069,
              44.4612588
            ],
            [
              -93.1787901,
              44.4612616
            ],
            [
              -93.1787888,
              44.4612093
            ],
            [
              -93.1792717,
              44.4612076
            ],
            [
              -93.179273,
              44.4613786
            ],
            [
              -93.1785442,
              44.4613777
            ],
            [
              -93.1785352,
              44.4613274
            ],
            [
              -93.1780907,
              44.461332
            ],
            [
              -93.1780895,
              44.4613786
            ],
            [
              -93.177914,
              44.4613768
            ],
            [
              -93.1779153,
              44.4612122
            ]
          ]
        ]
      }
    },
    {
      "type": "Feature",
      "properties": {
        "Id": 0,
        "Name": "Lower Admissions",
        "Type": "Campus Parking",
        "Lot": "Lot E ",
        "Details": " Reserved for Faculty/Staff permits.",
        "_layer": "St. Olaf - Parking Lots"
      },
      "geometry": {
        "type": "Polygon",
        "coordinates": [
          [
            [
              -93.185596,
              44.4602619
            ],
            [
              -93.1855957,
              44.4605106
            ],
            [
              -93.1855162,
              44.4605096
            ],
            [
              -93.1855147,
              44.4604813
            ],
            [
              -93.1853733,
              44.4604817
            ],
            [
              -93.1853733,
              44.4602599
            ],
            [
              -93.185596,
              44.4602619
            ]
          ]
        ]
      }
    },
    {
      "type": "Feature",
      "properties": {
        "Id": 0,
        "Name": "Lower Lincoln",
        "Type": "Campus Parking",
        "Lot": " ",
        "Details": "Reserved for student permits and disability parking. 2 EV charging stations. Paid hourly parking is available in spots designated by signage.",
        "_layer": "St. Olaf - Parking Lots"
      },
      "geometry": {
        "type": "Polygon",
        "coordinates": [
          [
            [
              -93.176377,
              44.4615331
            ],
            [
              -93.1773876,
              44.4615294
            ],
            [
              -93.1773876,
              44.4616839
            ],
            [
              -93.1774145,
              44.4617095
            ],
            [
              -93.1774349,
              44.4617433
            ],
            [
              -93.1774478,
              44.4617918
            ],
            [
              -93.177426,
              44.4618329
            ],
            [
              -93.1773722,
              44.4618613
            ],
            [
              -93.177189,
              44.4618677
            ],
            [
              -93.1771839,
              44.4619161
            ],
            [
              -93.1763552,
              44.4619125
            ],
            [
              -93.176377,
              44.4615331
            ]
          ]
        ]
      }
    },
    {
      "type": "Feature",
      "properties": {
        "Id": 0,
        "Name": "Lower Tomson",
        "Type": "Campus Parking",
        "Lot": " Lot L",
        "Details": " Reserved for Faculty/Staff permits and disability parking.",
        "_layer": "St. Olaf - Parking Lots"
      },
      "geometry": {
        "type": "Polygon",
        "coordinates": [
          [
            [
              -93.1840446,
              44.4598414
            ],
            [
              -93.1840406,
              44.4600356
            ],
            [
              -93.1840114,
              44.460036
            ],
            [
              -93.1840113,
              44.4600512
            ],
            [
              -93.1836251,
              44.4600542
            ],
            [
              -93.1836254,
              44.4600353
            ],
            [
              -93.1836256,
              44.460009
            ],
            [
              -93.1836241,
              44.4599536
            ],
            [
              -93.1836245,
              44.4598392
            ],
            [
              -93.1840446,
              44.4598414
            ]
          ]
        ]
      }
    },
    {
      "type": "Feature",
      "properties": {
        "Id": 0,
        "Name": " Mellby Lot",
        "Type": "Campus Parking",
        "Lot": " Lot D",
        "Details": "Reserved for Faculty/Staff permits and disability parking. Paid hourly parking available in spots designated by signage.",
        "_layer": "St. Olaf - Parking Lots"
      },
      "geometry": {
        "type": "Polygon",
        "coordinates": [
          [
            [
              -93.1851433,
              44.4609966
            ],
            [
              -93.1858099,
              44.4609966
            ],
            [
              -93.1858163,
              44.4610042
            ],
            [
              -93.1858384,
              44.4610619
            ],
            [
              -93.18576,
              44.4610681
            ],
            [
              -93.1852949,
              44.4610564
            ],
            [
              -93.1851461,
              44.4610461
            ],
            [
              -93.1851433,
              44.4609966
            ]
          ]
        ]
      }
    },
    {
      "type": "Feature",
      "properties": {
        "Id": 0,
        "Name": " Mohn + Ellingson",
        "Type": "Campus Parking",
        "Lot": "Lot Q",
        "Details": "Reserved for Blue permits and disability parking. Paid hourly parking available in spots designated by signage. ",
        "_layer": "St. Olaf - Parking Lots"
      },
      "geometry": {
        "type": "Polygon",
        "coordinates": [
          [
            [
              -93.1817431,
              44.4638546
            ],
            [
              -93.18174,
              44.464086
            ],
            [
              -93.1816307,
              44.4640864
            ],
            [
              -93.1816317,
              44.4638587
            ],
            [
              -93.1817431,
              44.4638546
            ]
          ]
        ]
      }
    },
    {
      "type": "Feature",
      "properties": {
        "Id": 0,
        "Name": "Mohn + Kildahl",
        "Type": "Campus Parking",
        "Lot": "Lot C",
        "Details": "Reserved for students with temporary permits and disability parking",
        "_layer": "St. Olaf - Parking Lots"
      },
      "geometry": {
        "type": "Polygon",
        "coordinates": [
          [
            [
              -93.1827087,
              44.4635328
            ],
            [
              -93.1827069,
              44.4638592
            ],
            [
              -93.1824407,
              44.4638592
            ],
            [
              -93.1824387,
              44.4635351
            ],
            [
              -93.1827087,
              44.4635328
            ]
          ]
        ]
      }
    },
    {
      "type": "Feature",
      "properties": {
        "Id": 0,
        "Name": " Old Main",
        "Type": "Campus Parking",
        "Lot": " ",
        "Details": "Reserved for Faculty/Staff permits and disability parking.",
        "_layer": "St. Olaf - Parking Lots"
      },
      "geometry": {
        "type": "Polygon",
        "coordinates": [
          [
            [
              -93.1804246,
              44.4590989
            ],
            [
              -93.1802061,
              44.4591075
            ],
            [
              -93.1798062,
              44.4591573
            ],
            [
              -93.1797919,
              44.4590796
            ],
            [
              -93.180235,
              44.4590329
            ],
            [
              -93.1804438,
              44.4590325
            ],
            [
              -93.1804455,
              44.4590991
            ],
            [
              -93.1804246,
              44.4590989
            ]
          ]
        ]
      }
    },
    {
      "type": "Feature",
      "properties": {
        "Id": 0,
        "Name": " Porter",
        "Type": "Campus Parking",
        "Lot": " ",
        "Details": "Reserved for Faculty/Staff permits and disability parking. Paid hourly parking available in spots designated by signage.",
        "_layer": "St. Olaf - Parking Lots"
      },
      "geometry": {
        "type": "Polygon",
        "coordinates": [
          [
            [
              -93.1801946,
              44.4614055
            ],
            [
              -93.1801761,
              44.4614227
            ],
            [
              -93.1799931,
              44.4614217
            ],
            [
              -93.1798463,
              44.4612848
            ],
            [
              -93.180062,
              44.4612878
            ],
            [
              -93.1801946,
              44.4614055
            ]
          ]
        ]
      }
    },
    {
      "type": "Feature",
      "properties": {
        "Id": 0,
        "Name": " Porter",
        "Type": "Campus Parking",
        "Lot": " ",
        "Details": "Reserved for Faculty/Staff permits and disability parking. Paid hourly parking available in spots designated by signage.",
        "_layer": "St. Olaf - Parking Lots"
      },
      "geometry": {
        "type": "Polygon",
        "coordinates": [
          [
            [
              -93.1797467,
              44.4610617
            ],
            [
              -93.1798367,
              44.4610937
            ],
            [
              -93.1799694,
              44.4611049
            ],
            [
              -93.1802994,
              44.4611049
            ],
            [
              -93.180296,
              44.4611709
            ],
            [
              -93.1797497,
              44.4611646
            ],
            [
              -93.1797467,
              44.4610617
            ]
          ]
        ]
      }
    },
    {
      "type": "Feature",
      "properties": {
        "Id": 0,
        "Name": " Porter",
        "Type": "Campus Parking",
        "Lot": " ",
        "Details": "Reserved for Faculty/Staff permits and disability parking. Paid hourly parking available in spots designated by signage.",
        "_layer": "St. Olaf - Parking Lots"
      },
      "geometry": {
        "type": "Polygon",
        "coordinates": [
          [
            [
              -93.1802269,
              44.461215
            ],
            [
              -93.1802293,
              44.4612639
            ],
            [
              -93.1802246,
              44.46129
            ],
            [
              -93.1799495,
              44.4612862
            ],
            [
              -93.1798086,
              44.4612842
            ],
            [
              -93.1797184,
              44.4612833
            ],
            [
              -93.179719,
              44.4612095
            ],
            [
              -93.1802269,
              44.461215
            ]
          ]
        ]
      }
    },
    {
      "type": "Feature",
      "properties": {
        "Id": 0,
        "Name": "Porter Hall Parking",
        "Type": "Campus Parking",
        "Lot": "Lot H-1",
        "Details": "Reserved for Faculty/Staff permits, disability parking, and students with Off-Campus Living permits.",
        "_layer": "St. Olaf - Parking Lots"
      },
      "geometry": {
        "type": "Polygon",
        "coordinates": [
          [
            [
              -93.1807769,
              44.4621141
            ],
            [
              -93.1807943,
              44.4623167
            ],
            [
              -93.1806303,
              44.4623144
            ],
            [
              -93.1806303,
              44.462113
            ],
            [
              -93.1807769,
              44.4621141
            ]
          ]
        ]
      }
    },
    {
      "type": "Feature",
      "properties": {
        "Id": 0,
        "Name": " Rand",
        "Type": "Campus Parking",
        "Lot": " Lot B",
        "Details": "Reserved for Faculty/Staff permits, disability parking, and students with Off-Campus Living or Blue permits.",
        "_layer": "St. Olaf - Parking Lots"
      },
      "geometry": {
        "type": "Polygon",
        "coordinates": [
          [
            [
              -93.1856106,
              44.463188
            ],
            [
              -93.1856949,
              44.463125
            ],
            [
              -93.1856729,
              44.4639893
            ],
            [
              -93.1856621,
              44.4640051
            ],
            [
              -93.1856069,
              44.4640146
            ],
            [
              -93.1855889,
              44.464026
            ],
            [
              -93.1855816,
              44.4640482
            ],
            [
              -93.1855669,
              44.4640583
            ],
            [
              -93.1855185,
              44.4640721
            ],
            [
              -93.1854517,
              44.4640769
            ],
            [
              -93.1848295,
              44.4640789
            ],
            [
              -93.1847839,
              44.4640341
            ],
            [
              -93.184782,
              44.4638922
            ],
            [
              -93.1847816,
              44.463828
            ],
            [
              -93.184785,
              44.4637903
            ],
            [
              -93.1847786,
              44.4635466
            ],
            [
              -93.1847835,
              44.4633019
            ],
            [
              -93.1849216,
              44.4633172
            ],
            [
              -93.1851139,
              44.4633202
            ],
            [
              -93.1852584,
              44.463302
            ],
            [
              -93.1853636,
              44.4632802
            ],
            [
              -93.1854853,
              44.4632443
            ],
            [
              -93.1856106,
              44.463188
            ]
          ]
        ]
      }
    },
    {
      "type": "Feature",
      "properties": {
        "Id": 0,
        "Name": " Skoglund",
        "Type": "Campus Parking",
        "Lot": " Lot S-1",
        "Details": "Reserved for Faculty/Staff permits, disability parking, general student permits, and visitors.",
        "_layer": "St. Olaf - Parking Lots"
      },
      "geometry": {
        "type": "Polygon",
        "coordinates": [
          [
            [
              -93.1891252,
              44.4631205
            ],
            [
              -93.1891325,
              44.4634183
            ],
            [
              -93.1883621,
              44.463413
            ],
            [
              -93.1883625,
              44.4631142
            ],
            [
              -93.1891252,
              44.4631205
            ]
          ]
        ]
      }
    },
    {
      "type": "Feature",
      "properties": {
        "Id": 0,
        "Name": " Skoglund Overflow",
        "Type": "Campus Parking",
        "Lot": " ",
        "Details": "Reserved for students with general student permits, and disability parking.",
        "_layer": "St. Olaf - Parking Lots"
      },
      "geometry": {
        "type": "Polygon",
        "coordinates": [
          [
            [
              -93.1898874,
              44.4643207
            ],
            [
              -93.1898914,
              44.4635747
            ],
            [
              -93.1905078,
              44.4635661
            ],
            [
              -93.1905158,
              44.4643123
            ],
            [
              -93.1898874,
              44.4643207
            ]
          ]
        ]
      }
    },
    {
      "type": "Feature",
      "properties": {
        "Id": 0,
        "Name": " Skoglund S-2",
        "Type": "Campus Parking",
        "Lot": " Lot S-2",
        "Details": "Reserved for Faculty/Staff/Visitor Parking",
        "_layer": "St. Olaf - Parking Lots"
      },
      "geometry": {
        "type": "Polygon",
        "coordinates": [
          [
            [
              -93.1884789,
              44.4629342
            ],
            [
              -93.1884793,
              44.4629122
            ],
            [
              -93.1884516,
              44.4629116
            ],
            [
              -93.1884496,
              44.462809
            ],
            [
              -93.1884808,
              44.4628086
            ],
            [
              -93.1884811,
              44.4627839
            ],
            [
              -93.1887151,
              44.4627837
            ],
            [
              -93.188874,
              44.4627807
            ],
            [
              -93.1891295,
              44.4627842
            ],
            [
              -93.1891311,
              44.4630893
            ],
            [
              -93.188471,
              44.4630839
            ],
            [
              -93.1884775,
              44.4629573
            ],
            [
              -93.1886451,
              44.4629553
            ],
            [
              -93.1886422,
              44.4629349
            ],
            [
              -93.1884789,
              44.4629342
            ]
          ]
        ]
      }
    },
    {
      "type": "Feature",
      "properties": {
        "Id": 0,
        "Name": "Skoglund S-7 (Behind Skoglund)",
        "Type": "Campus Parking",
        "Lot": " Lot S-7",
        "Details": "Reserved for Athletics permit parking.",
        "_layer": "St. Olaf - Parking Lots"
      },
      "geometry": {
        "type": "Polygon",
        "coordinates": [
          [
            [
              -93.1884273,
              44.4643212
            ],
            [
              -93.1885031,
              44.4642486
            ],
            [
              -93.1885616,
              44.4642223
            ],
            [
              -93.1888453,
              44.4642192
            ],
            [
              -93.1890467,
              44.4642501
            ],
            [
              -93.1890792,
              44.4643305
            ],
            [
              -93.1884273,
              44.4643212
            ]
          ]
        ]
      }
    },
    {
      "type": "Feature",
      "properties": {
        "Id": 0,
        "Name": "Skoglund S-7 (Between Skoglund + Tennis Courts)",
        "Type": "Campus Parking",
        "Lot": " Lot S-7",
        "Details": "Reserved for Athletics permit parking.",
        "_layer": "St. Olaf - Parking Lots"
      },
      "geometry": {
        "type": "Polygon",
        "coordinates": [
          [
            [
              -93.1878847,
              44.4642821
            ],
            [
              -93.1878862,
              44.4643898
            ],
            [
              -93.1876456,
              44.4644735
            ],
            [
              -93.1875614,
              44.4644768
            ],
            [
              -93.1875569,
              44.4638422
            ],
            [
              -93.1876802,
              44.4638424
            ],
            [
              -93.1876802,
              44.4638661
            ],
            [
              -93.1878832,
              44.4638657
            ],
            [
              -93.1878847,
              44.4642821
            ]
          ]
        ]
      }
    },
    {
      "type": "Feature",
      "properties": {
        "Id": 0,
        "Name": "Thorson",
        "Type": "Campus Parking",
        "Lot": "Lot P-1",
        "Details": "Reserved for Faculty/Staff permits.",
        "_layer": "St. Olaf - Parking Lots"
      },
      "geometry": {
        "type": "Polygon",
        "coordinates": [
          [
            [
              -93.1807615,
              44.4633335
            ],
            [
              -93.1807635,
              44.4634788
            ],
            [
              -93.1806532,
              44.4634747
            ],
            [
              -93.1806651,
              44.4633324
            ],
            [
              -93.1807615,
              44.4633335
            ]
          ]
        ]
      }
    },
    {
      "type": "Feature",
      "properties": {
        "Id": 0,
        "Name": "Upper Lincoln",
        "Type": "Campus Parking",
        "Lot": " ",
        "Details": "Reserved for student permits and disability parking. 2 EV charging stations. Paid hourly parking is available in spots designated by signage.",
        "_layer": "St. Olaf - Parking Lots"
      },
      "geometry": {
        "type": "Polygon",
        "coordinates": [
          [
            [
              -93.177832,
              44.461001
            ],
            [
              -93.1783789,
              44.4609955
            ],
            [
              -93.1783893,
              44.4610451
            ],
            [
              -93.1784212,
              44.4610477
            ],
            [
              -93.1784199,
              44.4611171
            ],
            [
              -93.1783866,
              44.461118
            ],
            [
              -93.1783828,
              44.4611692
            ],
            [
              -93.1778307,
              44.4611647
            ],
            [
              -93.177832,
              44.461001
            ]
          ]
        ]
      }
    },
    {
      "type": "Feature",
      "properties": {
        "Id": 0,
        "Name": "Upper Regents",
        "Type": "Campus Parking",
        "Lot": " RMS Lot",
        "Details": "Reserved for Faculty/Staff permits and disability parking.",
        "_layer": "St. Olaf - Parking Lots"
      },
      "geometry": {
        "type": "Polygon",
        "coordinates": [
          [
            [
              -93.182889,
              44.4593318
            ],
            [
              -93.182889,
              44.4594503
            ],
            [
              -93.1825098,
              44.4594457
            ],
            [
              -93.1825153,
              44.4593271
            ],
            [
              -93.182889,
              44.4593318
            ]
          ]
        ]
      }
    },
    {
      "type": "Feature",
      "properties": {
        "Id": 0,
        "Name": " Upper Tomson",
        "Type": "Campus Parking",
        "Lot": "Lot K",
        "Details": " Reserved for Faculty/Staff permits and disability parking. Paid hourly parking is available in spots designated by signage. ",
        "_layer": "St. Olaf - Parking Lots"
      },
      "geometry": {
        "type": "Polygon",
        "coordinates": [
          [
            [
              -93.1847551,
              44.4597519
            ],
            [
              -93.1847569,
              44.4598664
            ],
            [
              -93.1845967,
              44.4598971
            ],
            [
              -93.1846084,
              44.4599257
            ],
            [
              -93.1842233,
              44.4600111
            ],
            [
              -93.1842182,
              44.4597498
            ],
            [
              -93.1842604,
              44.4597465
            ],
            [
              -93.1847111,
              44.4596905
            ],
            [
              -93.1847551,
              44.4596881
            ],
            [
              -93.1847551,
              44.4597519
            ]
          ]
        ]
      }
    },
    {
      "type": "Feature",
      "properties": {
        "Id": 0,
        "Name": " Ytterboe Lot",
        "Type": "Campus Parking",
        "Lot": " ",
        "Details": "Reserved for Faculty/Staff permits, disability parking, and Blue permits. Paid hourly parking available in spots designated by signage.",
        "_layer": "St. Olaf - Parking Lots"
      },
      "geometry": {
        "type": "Polygon",
        "coordinates": [
          [
            [
              -93.1889012,
              44.4618339
            ],
            [
              -93.1889335,
              44.4618424
            ],
            [
              -93.1889634,
              44.4618776
            ],
            [
              -93.1889776,
              44.4619175
            ],
            [
              -93.1889786,
              44.4619605
            ],
            [
              -93.1889681,
              44.4620054
            ],
            [
              -93.1889117,
              44.4620626
            ],
            [
              -93.1888735,
              44.4620836
            ],
            [
              -93.1888199,
              44.4620981
            ],
            [
              -93.1887583,
              44.4621063
            ],
            [
              -93.1886895,
              44.4621063
            ],
            [
              -93.1884266,
              44.4621039
            ],
            [
              -93.188427,
              44.4620118
            ],
            [
              -93.188493,
              44.4620121
            ],
            [
              -93.1885498,
              44.4620124
            ],
            [
              -93.188719,
              44.4620146
            ],
            [
              -93.1887806,
              44.4620148
            ],
            [
              -93.1888365,
              44.4619903
            ],
            [
              -93.188862,
              44.4619651
            ],
            [
              -93.1888597,
              44.461923
            ],
            [
              -93.1888376,
              44.4618936
            ],
            [
              -93.1888134,
              44.4618876
            ],
            [
              -93.1889012,
              44.4618339
            ]
          ]
        ]
      }
    }
  ]
}
