{
  "type": "FeatureCollection",
  "name": "walkways",
  "features": [
    {
      "type": "Feature",
      "properties": {
        "_layer": "Walkways"
      },
      "geometry": {
        "type": "LineString",
        "coordinates": [
          [
            -93.1850894,
            44.4600819
          ],
          [
            -93.1852011,
            44.460066
          ]
        ]
      }
    },
    {
      "type": "Feature",
      "properties": {
        "_layer": "Walkways"
      },
      "geometry": {
        "type": "LineString",
        "coordinates": [
          [
            -93.1797434,
            44.4608236
          ],
          [
            -93.1798016,
            44.4608225
          ],
          [
            -93.1797906,
            44.4606422
          ],
          [
            -93.1796296,
            44.460641
          ]
        ]
      }
    },
    {
      "type": "Feature",
      "properties": {
        "_layer": "Walkways"
      },
      "geometry": {
        "type": "LineString",
        "coordinates": [
          [
            -93.1841449,
            44.463029
          ],
          [
            -93.1840683,
            44.4631269
          ],
          [
            -93.1840332,
            44.4632078
          ],
          [
            -93.1840268,
            44.4635471
          ],
          [
            -93.184038,
            44.4639707
          ],
          [
            -93.1840507,
            44.4645492
          ],
          [
            -93.1839615,
            44.4645879
          ]
        ]
      }
    },
    {
      "type": "Feature",
      "properties": {
        "_layer": "Walkways"
      },
      "geometry": {
        "type": "LineString",
        "coordinates": [
          [
            -93.1805167,
            44.4636334
          ],
          [
            -93.1805106,
            44.4631065
          ],
          [
            -93.1807638,
            44.4631801
          ]
        ]
      }
    },
    {
      "type": "Feature",
      "properties": {
        "_layer": "Walkways"
      },
      "geometry": {
        "type": "LineString",
        "coordinates": [
          [
            -93.1837172,
            44.4635015
          ],
          [
            -93.1830264,
            44.4635061
          ],
          [
            -93.1830296,
            44.4634378
          ],
          [
            -93.1833072,
            44.4634264
          ],
          [
            -93.1833742,
            44.4634378
          ],
          [
            -93.1836343,
            44.4633808
          ],
          [
            -93.1837108,
            44.4633204
          ],
          [
            -93.1839997,
            44.4631429
          ],
          [
            -93.1840348,
            44.4631235
          ],
          [
            -93.1840683,
            44.4631269
          ],
          [
            -93.1842853,
            44.4632237
          ],
          [
            -93.1844145,
            44.4632761
          ],
          [
            -93.1845852,
            44.4633171
          ]
        ]
      }
    },
    {
      "type": "Feature",
      "properties": {
        "_layer": "Walkways"
      },
      "geometry": {
        "type": "LineString",
        "coordinates": [
          [
            -93.1789595,
            44.4599039
          ],
          [
            -93.1789627,
            44.4601366
          ],
          [
            -93.1784553,
            44.460132
          ],
          [
            -93.1784537,
            44.4603938
          ],
          [
            -93.1784569,
            44.46055
          ],
          [
            -93.1784537,
            44.4612129
          ]
        ]
      }
    },
    {
      "type": "Feature",
      "properties": {
        "_layer": "Walkways"
      },
      "geometry": {
        "type": "LineString",
        "coordinates": [
          [
            -93.184494,
            44.4631247
          ],
          [
            -93.1845348,
            44.4631998
          ]
        ]
      }
    },
    {
      "type": "Feature",
      "properties": {
        "_layer": "Walkways"
      },
      "geometry": {
        "type": "LineString",
        "coordinates": [
          [
            -93.1792802,
            44.4606456
          ],
          [
            -93.1792802,
            44.4605516
          ]
        ]
      }
    },
    {
      "type": "Feature",
      "properties": {
        "_layer": "Walkways"
      },
      "geometry": {
        "type": "LineString",
        "coordinates": [
          [
            -93.1819258,
            44.4596848
          ],
          [
            -93.1818697,
            44.4596658
          ],
          [
            -93.1817533,
            44.4596134
          ],
          [
            -93.181642,
            44.4595572
          ],
          [
            -93.1815705,
            44.4595303
          ],
          [
            -93.18145,
            44.4595113
          ],
          [
            -93.1814816,
            44.4594435
          ],
          [
            -93.1815194,
            44.4593852
          ],
          [
            -93.1815194,
            44.4592475
          ]
        ]
      }
    },
    {
      "type": "Feature",
      "properties": {
        "_layer": "Walkways"
      },
      "geometry": {
        "type": "LineString",
        "coordinates": [
          [
            -93.1830296,
            44.4634378
          ],
          [
            -93.1825366,
            44.463431
          ],
          [
            -93.1825175,
            44.4634606
          ],
          [
            -93.1823037,
            44.4634571
          ],
          [
            -93.1822095,
            44.4634196
          ],
          [
            -93.1821588,
            44.4635511
          ]
        ]
      }
    },
    {
      "type": "Feature",
      "properties": {
        "_layer": "Walkways"
      },
      "geometry": {
        "type": "LineString",
        "coordinates": [
          [
            -93.1813976,
            44.458852
          ],
          [
            -93.1814234,
            44.4588051
          ],
          [
            -93.1814347,
            44.458773
          ],
          [
            -93.1814122,
            44.4587388
          ],
          [
            -93.1813591,
            44.458722
          ],
          [
            -93.1812876,
            44.4587293
          ],
          [
            -93.1812213,
            44.4587475
          ],
          [
            -93.1811416,
            44.4587519
          ],
          [
            -93.1810926,
            44.4587402
          ],
          [
            -93.1810466,
            44.4587133
          ],
          [
            -93.1810426,
            44.4586812
          ],
          [
            -93.1809793,
            44.4586666
          ],
          [
            -93.1809068,
            44.458644
          ],
          [
            -93.1808874,
            44.4586236
          ],
          [
            -93.1808785,
            44.4586
          ]
        ]
      }
    },
    {
      "type": "Feature",
      "properties": {
        "_layer": "Walkways"
      },
      "geometry": {
        "type": "LineString",
        "coordinates": [
          [
            -93.1823184,
            44.4630868
          ],
          [
            -93.18224,
            44.4630631
          ],
          [
            -93.1819035,
            44.4631414
          ],
          [
            -93.1811456,
            44.4631574
          ],
          [
            -93.1810309,
            44.4631663
          ],
          [
            -93.1807966,
            44.4632695
          ],
          [
            -93.1807891,
            44.4633709
          ]
        ]
      }
    },
    {
      "type": "Feature",
      "properties": {
        "_layer": "Walkways"
      },
      "geometry": {
        "type": "LineString",
        "coordinates": [
          [
            -93.1857946,
            44.4613175
          ],
          [
            -93.1857771,
            44.461158
          ]
        ]
      }
    },
    {
      "type": "Feature",
      "properties": {
        "_layer": "Walkways"
      },
      "geometry": {
        "type": "LineString",
        "coordinates": [
          [
            -93.184205,
            44.4600465
          ],
          [
            -93.184206,
            44.4598254
          ],
          [
            -93.1841897,
            44.459805
          ],
          [
            -93.1841539,
            44.459808
          ],
          [
            -93.1840365,
            44.4598152
          ],
          [
            -93.1839181,
            44.4598094
          ],
          [
            -93.1838282,
            44.4597919
          ],
          [
            -93.1837526,
            44.4597671
          ],
          [
            -93.1836372,
            44.4597059
          ]
        ]
      }
    },
    {
      "type": "Feature",
      "properties": {
        "_layer": "Walkways"
      },
      "geometry": {
        "type": "LineString",
        "coordinates": [
          [
            -93.1829993,
            44.4612867
          ],
          [
            -93.183036,
            44.4612286
          ],
          [
            -93.1830871,
            44.4611182
          ],
          [
            -93.1831429,
            44.460813
          ],
          [
            -93.1830248,
            44.4605101
          ],
          [
            -93.1829371,
            44.4605158
          ],
          [
            -93.1828397,
            44.4605488
          ],
          [
            -93.1827073,
            44.4606092
          ],
          [
            -93.1826004,
            44.4606433
          ],
          [
            -93.1825206,
            44.4606445
          ],
          [
            -93.1824281,
            44.4608574
          ],
          [
            -93.1824121,
            44.4608995
          ],
          [
            -93.1823966,
            44.4610294
          ]
        ]
      }
    },
    {
      "type": "Feature",
      "properties": {
        "_layer": "Walkways"
      },
      "geometry": {
        "type": "LineString",
        "coordinates": [
          [
            -93.1805006,
            44.4605252
          ],
          [
            -93.1804529,
            44.4606137
          ]
        ]
      }
    },
    {
      "type": "Feature",
      "properties": {
        "_layer": "Walkways"
      },
      "geometry": {
        "type": "LineString",
        "coordinates": [
          [
            -93.1845087,
            44.4623298
          ],
          [
            -93.1845023,
            44.4625872
          ],
          [
            -93.1843842,
            44.4625894
          ],
          [
            -93.1840252,
            44.4626054
          ],
          [
            -93.1840124,
            44.462561
          ]
        ]
      }
    },
    {
      "type": "Feature",
      "properties": {
        "_layer": "Walkways"
      },
      "geometry": {
        "type": "LineString",
        "coordinates": [
          [
            -93.1829077,
            44.4596993
          ],
          [
            -93.1828653,
            44.4597015
          ],
          [
            -93.1823394,
            44.4597854
          ]
        ]
      }
    },
    {
      "type": "Feature",
      "properties": {
        "_layer": "Walkways"
      },
      "geometry": {
        "type": "LineString",
        "coordinates": [
          [
            -93.1803396,
            44.4616033
          ],
          [
            -93.1802981,
            44.4615942
          ],
          [
            -93.1803061,
            44.4614644
          ],
          [
            -93.1802056,
            44.4613619
          ],
          [
            -93.1801369,
            44.4613095
          ]
        ]
      }
    },
    {
      "type": "Feature",
      "properties": {
        "_layer": "Walkways"
      },
      "geometry": {
        "type": "LineString",
        "coordinates": [
          [
            -93.185675,
            44.4627275
          ],
          [
            -93.1859889,
            44.4627275
          ]
        ]
      }
    },
    {
      "type": "Feature",
      "properties": {
        "_layer": "Walkways"
      },
      "geometry": {
        "type": "LineString",
        "coordinates": [
          [
            -93.1827325,
            44.4610309
          ],
          [
            -93.1827089,
            44.4609713
          ],
          [
            -93.1826451,
            44.4608722
          ],
          [
            -93.18261,
            44.460797
          ],
          [
            -93.1825765,
            44.4607287
          ],
          [
            -93.1825206,
            44.4606445
          ]
        ]
      }
    },
    {
      "type": "Feature",
      "properties": {
        "_layer": "Walkways"
      },
      "geometry": {
        "type": "LineString",
        "coordinates": [
          [
            -93.1856734,
            44.4620383
          ],
          [
            -93.185718,
            44.4621146
          ]
        ]
      }
    },
    {
      "type": "Feature",
      "properties": {
        "_layer": "Walkways"
      },
      "geometry": {
        "type": "LineString",
        "coordinates": [
          [
            -93.1818709,
            44.463142
          ],
          [
            -93.1818063,
            44.4630506
          ],
          [
            -93.1819409,
            44.4630079
          ],
          [
            -93.1820048,
            44.4629653
          ],
          [
            -93.182068,
            44.4629029
          ],
          [
            -93.1821121,
            44.4628429
          ],
          [
            -93.1821428,
            44.4627748
          ],
          [
            -93.1821497,
            44.4627142
          ],
          [
            -93.1821395,
            44.4626425
          ],
          [
            -93.1821135,
            44.4625992
          ],
          [
            -93.1820728,
            44.4625597
          ],
          [
            -93.1820018,
            44.4625217
          ],
          [
            -93.1819156,
            44.4625032
          ],
          [
            -93.1818087,
            44.4624937
          ],
          [
            -93.1816169,
            44.4625244
          ],
          [
            -93.1814859,
            44.46255
          ],
          [
            -93.1813465,
            44.4625586
          ],
          [
            -93.181157,
            44.4625512
          ],
          [
            -93.1809759,
            44.4624925
          ],
          [
            -93.1808821,
            44.4624433
          ],
          [
            -93.1807567,
            44.4623544
          ],
          [
            -93.1807475,
            44.4621009
          ],
          [
            -93.1807269,
            44.4618413
          ],
          [
            -93.1807126,
            44.461691
          ],
          [
            -93.1806268,
            44.4616124
          ],
          [
            -93.1804896,
            44.4615817
          ],
          [
            -93.1803492,
            44.461601
          ],
          [
            -93.1803827,
            44.4618143
          ]
        ]
      }
    },
    {
      "type": "Feature",
      "properties": {
        "_layer": "Walkways"
      },
      "geometry": {
        "type": "LineString",
        "coordinates": [
          [
            -93.182851,
            44.4602977
          ],
          [
            -93.1828295,
            44.4598961
          ],
          [
            -93.1828306,
            44.4598254
          ],
          [
            -93.1828581,
            44.4597504
          ],
          [
            -93.1828653,
            44.4597015
          ]
        ]
      }
    },
    {
      "type": "Feature",
      "properties": {
        "_layer": "Walkways"
      },
      "geometry": {
        "type": "LineString",
        "coordinates": [
          [
            -93.1804942,
            44.4593415
          ],
          [
            -93.1805024,
            44.458894
          ]
        ]
      }
    },
    {
      "type": "Feature",
      "properties": {
        "_layer": "Walkways"
      },
      "geometry": {
        "type": "LineString",
        "coordinates": [
          [
            -93.1813849,
            44.4636716
          ],
          [
            -93.1805555,
            44.4636684
          ],
          [
            -93.1807163,
            44.4638644
          ]
        ]
      }
    },
    {
      "type": "Feature",
      "properties": {
        "_layer": "Walkways"
      },
      "geometry": {
        "type": "LineString",
        "coordinates": [
          [
            -93.1856734,
            44.4620383
          ],
          [
            -93.1855633,
            44.4620998
          ],
          [
            -93.185375,
            44.4621989
          ],
          [
            -93.1851883,
            44.4623344
          ]
        ]
      }
    },
    {
      "type": "Feature",
      "properties": {
        "_layer": "Walkways"
      },
      "geometry": {
        "type": "LineString",
        "coordinates": [
          [
            -93.1859606,
            44.4605021
          ],
          [
            -93.1860324,
            44.4604771
          ],
          [
            -93.1859685,
            44.4603119
          ],
          [
            -93.1859111,
            44.4603233
          ]
        ]
      }
    },
    {
      "type": "Feature",
      "properties": {
        "_layer": "Walkways"
      },
      "geometry": {
        "type": "LineString",
        "coordinates": [
          [
            -93.1823966,
            44.4610294
          ],
          [
            -93.1824121,
            44.4611489
          ]
        ]
      }
    },
    {
      "type": "Feature",
      "properties": {
        "_layer": "Walkways"
      },
      "geometry": {
        "type": "LineString",
        "coordinates": [
          [
            -93.1884336,
            44.4630757
          ],
          [
            -93.1884735,
            44.4630825
          ],
          [
            -93.1884591,
            44.4634833
          ],
          [
            -93.1883714,
            44.4636002
          ]
        ]
      }
    },
    {
      "type": "Feature",
      "properties": {
        "_layer": "Walkways"
      },
      "geometry": {
        "type": "LineString",
        "coordinates": [
          [
            -93.1850894,
            44.4600819
          ],
          [
            -93.1851213,
            44.4600398
          ],
          [
            -93.1855282,
            44.4597847
          ]
        ]
      }
    },
    {
      "type": "Feature",
      "properties": {
        "_layer": "Walkways"
      },
      "geometry": {
        "type": "LineString",
        "coordinates": [
          [
            -93.1843555,
            44.4639115
          ],
          [
            -93.1842406,
            44.4638341
          ],
          [
            -93.1841257,
            44.4637179
          ],
          [
            -93.1840811,
            44.4636154
          ],
          [
            -93.1840273,
            44.4635186
          ]
        ]
      }
    },
    {
      "type": "Feature",
      "properties": {
        "_layer": "Walkways"
      },
      "geometry": {
        "type": "LineString",
        "coordinates": [
          [
            -93.1859685,
            44.4603119
          ],
          [
            -93.1859494,
            44.4601411
          ],
          [
            -93.1859191,
            44.4600204
          ],
          [
            -93.185876,
            44.4599498
          ],
          [
            -93.1858505,
            44.4599111
          ]
        ]
      }
    },
    {
      "type": "Feature",
      "properties": {
        "_layer": "Walkways"
      },
      "geometry": {
        "type": "LineString",
        "coordinates": [
          [
            -93.1842406,
            44.4623218
          ],
          [
            -93.183671,
            44.4623366
          ]
        ]
      }
    },
    {
      "type": "Feature",
      "properties": {
        "_layer": "Walkways"
      },
      "geometry": {
        "type": "LineString",
        "coordinates": [
          [
            -93.1848676,
            44.4601571
          ],
          [
            -93.1850894,
            44.4600819
          ],
          [
            -93.1850814,
            44.4601343
          ],
          [
            -93.1851149,
            44.4601844
          ],
          [
            -93.1851867,
            44.4602049
          ],
          [
            -93.1852538,
            44.4602151
          ],
          [
            -93.1854512,
            44.460214
          ]
        ]
      }
    },
    {
      "type": "Feature",
      "properties": {
        "_layer": "Walkways"
      },
      "geometry": {
        "type": "LineString",
        "coordinates": [
          [
            -93.1822095,
            44.4634196
          ],
          [
            -93.1825816,
            44.462282
          ],
          [
            -93.1827312,
            44.4622001
          ],
          [
            -93.1829186,
            44.4621637
          ]
        ]
      }
    },
    {
      "type": "Feature",
      "properties": {
        "_layer": "Walkways"
      },
      "geometry": {
        "type": "LineString",
        "coordinates": [
          [
            -93.1843256,
            44.4603332
          ],
          [
            -93.1843778,
            44.460337
          ],
          [
            -93.1845693,
            44.460296
          ],
          [
            -93.1846475,
            44.4602504
          ],
          [
            -93.1846889,
            44.4601388
          ],
          [
            -93.184681,
            44.4601138
          ],
          [
            -93.1845932,
            44.4601013
          ],
          [
            -93.1845087,
            44.460083
          ],
          [
            -93.1844305,
            44.4600614
          ],
          [
            -93.1843284,
            44.4600534
          ],
          [
            -93.184239,
            44.4600455
          ],
          [
            -93.184166,
            44.4600478
          ]
        ]
      }
    },
    {
      "type": "Feature",
      "properties": {
        "_layer": "Walkways"
      },
      "geometry": {
        "type": "LineString",
        "coordinates": [
          [
            -93.1784537,
            44.4606467
          ],
          [
            -93.1779846,
            44.4606456
          ]
        ]
      }
    },
    {
      "type": "Feature",
      "properties": {
        "_layer": "Walkways"
      },
      "geometry": {
        "type": "LineString",
        "coordinates": [
          [
            -93.1854229,
            44.4602141
          ],
          [
            -93.1855186,
            44.4602117
          ],
          [
            -93.1857372,
            44.4602903
          ],
          [
            -93.1859111,
            44.4603233
          ],
          [
            -93.185892,
            44.4603461
          ],
          [
            -93.1859606,
            44.4605021
          ],
          [
            -93.185959,
            44.4605351
          ],
          [
            -93.1861472,
            44.4608859
          ]
        ]
      }
    },
    {
      "type": "Feature",
      "properties": {
        "_layer": "Walkways"
      },
      "geometry": {
        "type": "LineString",
        "coordinates": [
          [
            -93.1800476,
            44.4610624
          ],
          [
            -93.1800412,
            44.4610214
          ],
          [
            -93.1799838,
            44.4609736
          ],
          [
            -93.1798896,
            44.4609531
          ],
          [
            -93.1798242,
            44.4609257
          ],
          [
            -93.1797588,
            44.4608483
          ],
          [
            -93.1796296,
            44.460641
          ],
          [
            -93.1796248,
            44.4605518
          ],
          [
            -93.1796232,
            44.4603837
          ],
          [
            -93.1796232,
            44.4602418
          ]
        ]
      }
    },
    {
      "type": "Feature",
      "properties": {
        "_layer": "Walkways"
      },
      "geometry": {
        "type": "LineString",
        "coordinates": [
          [
            -93.1854803,
            44.4616739
          ],
          [
            -93.1857184,
            44.4618142
          ]
        ]
      }
    },
    {
      "type": "Feature",
      "properties": {
        "_layer": "Walkways"
      },
      "geometry": {
        "type": "LineString",
        "coordinates": [
          [
            -93.1856703,
            44.4630599
          ],
          [
            -93.1856949,
            44.463125
          ],
          [
            -93.1856927,
            44.4632101
          ],
          [
            -93.1860882,
            44.4629254
          ],
          [
            -93.1861552,
            44.4628696
          ],
          [
            -93.1861776,
            44.4628206
          ],
          [
            -93.1862254,
            44.4626338
          ],
          [
            -93.1862701,
            44.4625405
          ],
          [
            -93.1863387,
            44.4624608
          ],
          [
            -93.1864584,
            44.4623822
          ],
          [
            -93.1862924,
            44.4623628
          ]
        ]
      }
    },
    {
      "type": "Feature",
      "properties": {
        "_layer": "Walkways"
      },
      "geometry": {
        "type": "LineString",
        "coordinates": [
          [
            -93.1856463,
            44.4658427
          ],
          [
            -93.1856495,
            44.4657606
          ]
        ]
      }
    },
    {
      "type": "Feature",
      "properties": {
        "_layer": "Walkways"
      },
      "geometry": {
        "type": "LineString",
        "coordinates": [
          [
            -93.1808485,
            44.4594742
          ],
          [
            -93.1808548,
            44.4591934
          ]
        ]
      }
    },
    {
      "type": "Feature",
      "properties": {
        "_layer": "Walkways"
      },
      "geometry": {
        "type": "LineString",
        "coordinates": [
          [
            -93.1829993,
            44.4612867
          ],
          [
            -93.1831812,
            44.4614222
          ],
          [
            -93.1832626,
            44.4614621
          ],
          [
            -93.1833806,
            44.4614985
          ],
          [
            -93.1836136,
            44.4615099
          ],
          [
            -93.1836168,
            44.4611057
          ]
        ]
      }
    },
    {
      "type": "Feature",
      "properties": {
        "_layer": "Walkways"
      },
      "geometry": {
        "type": "LineString",
        "coordinates": [
          [
            -93.1827325,
            44.4610309
          ],
          [
            -93.1828382,
            44.4611558
          ],
          [
            -93.1829993,
            44.4612867
          ],
          [
            -93.1829722,
            44.4616238
          ]
        ]
      }
    },
    {
      "type": "Feature",
      "properties": {
        "_layer": "Walkways"
      },
      "geometry": {
        "type": "LineString",
        "coordinates": [
          [
            -93.1851915,
            44.4624986
          ],
          [
            -93.1851883,
            44.4623344
          ],
          [
            -93.1843363,
            44.4623287
          ],
          [
            -93.1843236,
            44.4622683
          ],
          [
            -93.1843268,
            44.4620702
          ],
          [
            -93.1843395,
            44.4617331
          ],
          [
            -93.184359,
            44.4615179
          ]
        ]
      }
    },
    {
      "type": "Feature",
      "properties": {
        "_layer": "Walkways"
      },
      "geometry": {
        "type": "LineString",
        "coordinates": [
          [
            -93.1802981,
            44.4602937
          ],
          [
            -93.1801593,
            44.4603518
          ],
          [
            -93.1799503,
            44.4603711
          ],
          [
            -93.1796232,
            44.4603837
          ],
          [
            -93.1784425,
            44.4603939
          ],
          [
            -93.1775347,
            44.4603951
          ]
        ]
      }
    },
    {
      "type": "Feature",
      "properties": {
        "_layer": "Walkways"
      },
      "geometry": {
        "type": "LineString",
        "coordinates": [
          [
            -93.1830248,
            44.4605101
          ],
          [
            -93.1830488,
            44.4604603
          ],
          [
            -93.1830815,
            44.4604052
          ],
          [
            -93.1831083,
            44.4603707
          ],
          [
            -93.1831323,
            44.4603291
          ],
          [
            -93.1830553,
            44.4603231
          ],
          [
            -93.1829684,
            44.4603161
          ],
          [
            -93.182851,
            44.4602977
          ]
        ]
      }
    },
    {
      "type": "Feature",
      "properties": {
        "_layer": "Walkways"
      },
      "geometry": {
        "type": "LineString",
        "coordinates": [
          [
            -93.1810987,
            44.4594508
          ],
          [
            -93.1810242,
            44.4594195
          ],
          [
            -93.1809466,
            44.4593874
          ],
          [
            -93.1808874,
            44.4593554
          ],
          [
            -93.1808519,
            44.4593233
          ]
        ]
      }
    },
    {
      "type": "Feature",
      "properties": {
        "_layer": "Walkways"
      },
      "geometry": {
        "type": "LineString",
        "coordinates": [
          [
            -93.1825048,
            44.4602409
          ],
          [
            -93.1825018,
            44.460184
          ],
          [
            -93.1824956,
            44.4601097
          ],
          [
            -93.1824926,
            44.4600288
          ],
          [
            -93.1824589,
            44.4599581
          ],
          [
            -93.1823986,
            44.4598502
          ],
          [
            -93.1823394,
            44.4597854
          ],
          [
            -93.1822924,
            44.4597766
          ],
          [
            -93.1822056,
            44.4597358
          ],
          [
            -93.1820923,
            44.4596957
          ],
          [
            -93.1819861,
            44.4596826
          ],
          [
            -93.1819258,
            44.4596848
          ],
          [
            -93.1819279,
            44.4598804
          ]
        ]
      }
    },
    {
      "type": "Feature",
      "properties": {
        "_layer": "Walkways"
      },
      "geometry": {
        "type": "LineString",
        "coordinates": [
          [
            -93.182575,
            44.4623022
          ],
          [
            -93.182455,
            44.4622648
          ],
          [
            -93.1823432,
            44.4622302
          ],
          [
            -93.1820827,
            44.462103
          ],
          [
            -93.1819112,
            44.461987
          ],
          [
            -93.1817085,
            44.4617889
          ],
          [
            -93.1814788,
            44.4618379
          ],
          [
            -93.1812921,
            44.4617809
          ],
          [
            -93.1811214,
            44.4617445
          ],
          [
            -93.1809028,
            44.4616181
          ],
          [
            -93.1807432,
            44.4615372
          ]
        ]
      }
    },
    {
      "type": "Feature",
      "properties": {
        "_layer": "Walkways"
      },
      "geometry": {
        "type": "LineString",
        "coordinates": [
          [
            -93.1844143,
            44.4608057
          ],
          [
            -93.1848932,
            44.4607686
          ],
          [
            -93.1851181,
            44.4607674
          ],
          [
            -93.1851277,
            44.4611341
          ],
          [
            -93.1851883,
            44.4612981
          ],
          [
            -93.1850352,
            44.4613095
          ],
          [
            -93.1849713,
            44.4613334
          ],
          [
            -93.1848517,
            44.4614165
          ],
          [
            -93.1849254,
            44.4614589
          ]
        ]
      }
    },
    {
      "type": "Feature",
      "properties": {
        "_layer": "Walkways"
      },
      "geometry": {
        "type": "LineString",
        "coordinates": [
          [
            -93.1781777,
            44.4603943
          ],
          [
            -93.1781761,
            44.4596514
          ]
        ]
      }
    },
    {
      "type": "Feature",
      "properties": {
        "_layer": "Walkways"
      },
      "geometry": {
        "type": "LineString",
        "coordinates": [
          [
            -93.1836136,
            44.4615099
          ],
          [
            -93.183596,
            44.4621453
          ],
          [
            -93.1836965,
            44.4621624
          ],
          [
            -93.1838306,
            44.4621977
          ],
          [
            -93.1838864,
            44.4622205
          ],
          [
            -93.1841018,
            44.4623036
          ],
          [
            -93.1842406,
            44.4623218
          ],
          [
            -93.1843363,
            44.4623287
          ],
          [
            -93.1841385,
            44.462438
          ],
          [
            -93.1840124,
            44.462561
          ],
          [
            -93.1839215,
            44.4624414
          ],
          [
            -93.1837891,
            44.4623708
          ],
          [
            -93.183671,
            44.4623366
          ]
        ]
      }
    },
    {
      "type": "Feature",
      "properties": {
        "_layer": "Walkways"
      },
      "geometry": {
        "type": "LineString",
        "coordinates": [
          [
            -93.1805106,
            44.4631065
          ],
          [
            -93.180534,
            44.4628667
          ],
          [
            -93.1810027,
            44.4624688
          ]
        ]
      }
    },
    {
      "type": "Feature",
      "properties": {
        "_layer": "Walkways"
      },
      "geometry": {
        "type": "LineString",
        "coordinates": [
          [
            -93.1825206,
            44.4606445
          ],
          [
            -93.1825538,
            44.4605929
          ],
          [
            -93.182562,
            44.4605193
          ],
          [
            -93.1825497,
            44.4604267
          ],
          [
            -93.1825171,
            44.4603342
          ],
          [
            -93.1825048,
            44.4602409
          ],
          [
            -93.1820851,
            44.460141
          ],
          [
            -93.1820902,
            44.4601913
          ]
        ]
      }
    },
    {
      "type": "Feature",
      "properties": {
        "_layer": "Walkways"
      },
      "geometry": {
        "type": "LineString",
        "coordinates": [
          [
            -93.1801459,
            44.460353
          ],
          [
            -93.1801385,
            44.4604087
          ],
          [
            -93.1801657,
            44.4604816
          ],
          [
            -93.18022,
            44.4605253
          ]
        ]
      }
    },
    {
      "type": "Feature",
      "properties": {
        "_layer": "Walkways"
      },
      "geometry": {
        "type": "LineString",
        "coordinates": [
          [
            -93.1857018,
            44.4614228
          ],
          [
            -93.1856973,
            44.4616784
          ],
          [
            -93.1857276,
            44.4618732
          ]
        ]
      }
    },
    {
      "type": "Feature",
      "properties": {
        "_layer": "Walkways"
      },
      "geometry": {
        "type": "LineString",
        "coordinates": [
          [
            -93.1854795,
            44.4598152
          ],
          [
            -93.1853701,
            44.4597788
          ],
          [
            -93.18517,
            44.459746
          ],
          [
            -93.1850056,
            44.4597322
          ],
          [
            -93.1847809,
            44.4597548
          ]
        ]
      }
    },
    {
      "type": "Feature",
      "properties": {
        "_layer": "Walkways"
      },
      "geometry": {
        "type": "LineString",
        "coordinates": [
          [
            -93.1836168,
            44.4611057
          ],
          [
            -93.1835954,
            44.4610797
          ],
          [
            -93.1835229,
            44.4608349
          ],
          [
            -93.18353,
            44.4607766
          ],
          [
            -93.1835545,
            44.4607102
          ]
        ]
      }
    },
    {
      "type": "Feature",
      "properties": {
        "_layer": "Walkways"
      },
      "geometry": {
        "type": "LineString",
        "coordinates": [
          [
            -93.1861472,
            44.4608859
          ],
          [
            -93.186393,
            44.4611102
          ],
          [
            -93.1864743,
            44.4611683
          ],
          [
            -93.1865637,
            44.4612412
          ],
          [
            -93.1866419,
            44.4613004
          ],
          [
            -93.186744,
            44.4613846
          ],
          [
            -93.1868413,
            44.4614962
          ],
          [
            -93.1868955,
            44.4616841
          ],
          [
            -93.1869115,
            44.4617229
          ],
          [
            -93.1868971,
            44.461831
          ],
          [
            -93.1867679,
            44.4620132
          ],
          [
            -93.1862605,
            44.4622717
          ],
          [
            -93.1861361,
            44.4623116
          ],
          [
            -93.1860356,
            44.4623241
          ],
          [
            -93.185718,
            44.4621146
          ],
          [
            -93.1857005,
            44.4622501
          ],
          [
            -93.1856798,
            44.4623332
          ],
          [
            -93.1851883,
            44.4623344
          ],
          [
            -93.1851804,
            44.4621396
          ],
          [
            -93.1851118,
            44.4618994
          ],
          [
            -93.1851756,
            44.4618629
          ],
          [
            -93.1853415,
            44.4619187
          ],
          [
            -93.1856734,
            44.4620383
          ]
        ]
      }
    },
    {
      "type": "Feature",
      "properties": {
        "_layer": "Walkways"
      },
      "geometry": {
        "type": "LineString",
        "coordinates": [
          [
            -93.1824121,
            44.4611489
          ],
          [
            -93.1823744,
            44.4611482
          ]
        ]
      }
    },
    {
      "type": "Feature",
      "properties": {
        "_layer": "Walkways"
      },
      "geometry": {
        "type": "LineString",
        "coordinates": [
          [
            -93.1828328,
            44.4611494
          ],
          [
            -93.1824121,
            44.4611489
          ]
        ]
      }
    },
    {
      "type": "Feature",
      "properties": {
        "_layer": "Walkways"
      },
      "geometry": {
        "type": "LineString",
        "coordinates": [
          [
            -93.1824926,
            44.4600288
          ],
          [
            -93.182851,
            44.4602977
          ]
        ]
      }
    },
    {
      "type": "Feature",
      "properties": {
        "_layer": "Walkways"
      },
      "geometry": {
        "type": "LineString",
        "coordinates": [
          [
            -93.183671,
            44.4623366
          ],
          [
            -93.1835689,
            44.4622638
          ],
          [
            -93.1834077,
            44.4621795
          ],
          [
            -93.1831171,
            44.4621647
          ]
        ]
      }
    },
    {
      "type": "Feature",
      "properties": {
        "_layer": "Walkways"
      },
      "geometry": {
        "type": "LineString",
        "coordinates": [
          [
            -93.1836965,
            44.4621624
          ],
          [
            -93.183671,
            44.4623366
          ]
        ]
      }
    },
    {
      "type": "Feature",
      "properties": {
        "_layer": "Walkways"
      },
      "geometry": {
        "type": "LineString",
        "coordinates": [
          [
            -93.1851883,
            44.4612981
          ],
          [
            -93.1852554,
            44.4615065
          ],
          [
            -93.1854803,
            44.4616739
          ],
          [
            -93.1857946,
            44.4613175
          ],
          [
            -93.1854436,
            44.4612992
          ]
        ]
      }
    },
    {
      "type": "Feature",
      "properties": {
        "_layer": "Walkways"
      },
      "geometry": {
        "type": "LineString",
        "coordinates": [
          [
            -93.1802981,
            44.4615942
          ],
          [
            -93.1803021,
            44.4617494
          ],
          [
            -93.1802998,
            44.462147
          ],
          [
            -93.1802286,
            44.4622388
          ],
          [
            -93.1801333,
            44.4623437
          ],
          [
            -93.1800058,
            44.4624166
          ],
          [
            -93.1798542,
            44.4624625
          ],
          [
            -93.1796934,
            44.4624871
          ],
          [
            -93.1795143,
            44.4624822
          ],
          [
            -93.1793087,
            44.462492
          ]
        ]
      }
    },
    {
      "type": "Feature",
      "properties": {
        "_layer": "Walkways"
      },
      "geometry": {
        "type": "LineString",
        "coordinates": [
          [
            -93.1814479,
            44.4595108
          ],
          [
            -93.1813942,
            44.4596287
          ],
          [
            -93.1812394,
            44.459763
          ],
          [
            -93.1809634,
            44.4599475
          ],
          [
            -93.1806571,
            44.4601047
          ],
          [
            -93.1805661,
            44.4601536
          ]
        ]
      }
    },
    {
      "type": "Feature",
      "properties": {
        "_layer": "Walkways"
      },
      "geometry": {
        "type": "LineString",
        "coordinates": [
          [
            -93.1828295,
            44.4598961
          ],
          [
            -93.1833403,
            44.4598976
          ]
        ]
      }
    },
    {
      "type": "Feature",
      "properties": {
        "_layer": "Walkways"
      },
      "geometry": {
        "type": "LineString",
        "coordinates": [
          [
            -93.1821677,
            44.460919
          ],
          [
            -93.182029,
            44.4609544
          ],
          [
            -93.1819156,
            44.4610047
          ],
          [
            -93.1818993,
            44.4610324
          ],
          [
            -93.1818993,
            44.4610433
          ]
        ]
      }
    },
    {
      "type": "Feature",
      "properties": {
        "_layer": "Walkways"
      },
      "geometry": {
        "type": "LineString",
        "coordinates": [
          [
            -93.1805024,
            44.458894
          ],
          [
            -93.1806229,
            44.4588976
          ],
          [
            -93.1806709,
            44.4589013
          ],
          [
            -93.1807229,
            44.4588962
          ],
          [
            -93.1807954,
            44.4588751
          ],
          [
            -93.1810926,
            44.4588627
          ],
          [
            -93.181306,
            44.458843
          ],
          [
            -93.1813836,
            44.4588466
          ],
          [
            -93.1814694,
            44.4588794
          ],
          [
            -93.1816124,
            44.4589151
          ],
          [
            -93.1816113,
            44.458938
          ]
        ]
      }
    },
    {
      "type": "Feature",
      "properties": {
        "_layer": "Walkways"
      },
      "geometry": {
        "type": "LineString",
        "coordinates": [
          [
            -93.1814498,
            44.4605863
          ],
          [
            -93.1816243,
            44.4606361
          ],
          [
            -93.1818985,
            44.4607429
          ],
          [
            -93.1821677,
            44.460919
          ],
          [
            -93.1822659,
            44.4609981
          ],
          [
            -93.1823966,
            44.4610294
          ],
          [
            -93.1827325,
            44.4610309
          ]
        ]
      }
    },
    {
      "type": "Feature",
      "properties": {
        "_layer": "Walkways"
      },
      "geometry": {
        "type": "LineString",
        "coordinates": [
          [
            -93.1839426,
            44.46084
          ],
          [
            -93.1844143,
            44.4608057
          ],
          [
            -93.1844235,
            44.4605564
          ]
        ]
      }
    },
    {
      "type": "Feature",
      "properties": {
        "_layer": "Walkways"
      },
      "geometry": {
        "type": "LineString",
        "coordinates": [
          [
            -93.1848676,
            44.4601571
          ],
          [
            -93.1849745,
            44.460247
          ],
          [
            -93.1849698,
            44.4606023
          ],
          [
            -93.1851933,
            44.4605885
          ]
        ]
      }
    },
    {
      "type": "Feature",
      "properties": {
        "_layer": "Walkways"
      },
      "geometry": {
        "type": "LineString",
        "coordinates": [
          [
            -93.1842246,
            44.4629698
          ],
          [
            -93.1842591,
            44.4630016
          ],
          [
            -93.184494,
            44.4631247
          ],
          [
            -93.1844327,
            44.4631757
          ],
          [
            -93.1845348,
            44.4631998
          ],
          [
            -93.1848279,
            44.4632472
          ],
          [
            -93.1850832,
            44.4632523
          ],
          [
            -93.1851791,
            44.4632435
          ],
          [
            -93.1853088,
            44.4632238
          ],
          [
            -93.1854344,
            44.4631889
          ],
          [
            -93.1856703,
            44.4630599
          ],
          [
            -93.1856764,
            44.4626299
          ]
        ]
      }
    },
    {
      "type": "Feature",
      "properties": {
        "_layer": "Walkways"
      },
      "geometry": {
        "type": "LineString",
        "coordinates": [
          [
            -93.1833718,
            44.460571
          ],
          [
            -93.1833135,
            44.4605171
          ],
          [
            -93.1832441,
            44.4604544
          ],
          [
            -93.1831941,
            44.4603976
          ],
          [
            -93.1831561,
            44.4603544
          ]
        ]
      }
    },
    {
      "type": "Feature",
      "properties": {
        "_layer": "Walkways"
      },
      "geometry": {
        "type": "LineString",
        "coordinates": [
          [
            -93.1839426,
            44.46084
          ],
          [
            -93.1843919,
            44.461095
          ],
          [
            -93.1844143,
            44.4608057
          ]
        ]
      }
    },
    {
      "type": "Feature",
      "properties": {
        "_layer": "Walkways"
      },
      "geometry": {
        "type": "LineString",
        "coordinates": [
          [
            -93.1837189,
            44.463549
          ],
          [
            -93.1836949,
            44.4628718
          ],
          [
            -93.1836965,
            44.4627329
          ],
          [
            -93.1836917,
            44.4624733
          ],
          [
            -93.183718,
            44.4623502
          ]
        ]
      }
    },
    {
      "type": "Feature",
      "properties": {
        "_layer": "Walkways"
      },
      "geometry": {
        "type": "LineString",
        "coordinates": [
          [
            -93.1825048,
            44.4602409
          ],
          [
            -93.18256,
            44.4602554
          ],
          [
            -93.1826662,
            44.4602766
          ],
          [
            -93.1827438,
            44.4602882
          ],
          [
            -93.182851,
            44.4602977
          ]
        ]
      }
    },
    {
      "type": "Feature",
      "properties": {
        "_layer": "Walkways"
      },
      "geometry": {
        "type": "LineString",
        "coordinates": [
          [
            -93.1870856,
            44.4616744
          ],
          [
            -93.1872112,
            44.4616416
          ],
          [
            -93.1875676,
            44.4615921
          ],
          [
            -93.187735,
            44.4616052
          ],
          [
            -93.188493,
            44.4615885
          ]
        ]
      }
    },
    {
      "type": "Feature",
      "properties": {
        "_layer": "Walkways"
      },
      "geometry": {
        "type": "LineString",
        "coordinates": [
          [
            -93.1843698,
            44.4626805
          ],
          [
            -93.1842246,
            44.4629698
          ],
          [
            -93.1841449,
            44.463029
          ],
          [
            -93.184097,
            44.4629971
          ],
          [
            -93.1840587,
            44.4629424
          ],
          [
            -93.1840396,
            44.4628798
          ],
          [
            -93.1840348,
            44.4627215
          ]
        ]
      }
    },
    {
      "type": "Feature",
      "properties": {
        "_layer": "Walkways"
      },
      "geometry": {
        "type": "LineString",
        "coordinates": [
          [
            -93.1793934,
            44.4610988
          ],
          [
            -93.1792849,
            44.4610419
          ],
          [
            -93.1785909,
            44.4610419
          ],
          [
            -93.1785909,
            44.4610806
          ],
          [
            -93.1786388,
            44.4611068
          ],
          [
            -93.1786435,
            44.4611583
          ]
        ]
      }
    },
    {
      "type": "Feature",
      "properties": {
        "_layer": "Walkways"
      },
      "geometry": {
        "type": "LineString",
        "coordinates": [
          [
            -93.1875676,
            44.4615921
          ],
          [
            -93.1875502,
            44.4615658
          ],
          [
            -93.1874001,
            44.4615163
          ],
          [
            -93.1872592,
            44.4614507
          ],
          [
            -93.1871172,
            44.4613771
          ],
          [
            -93.1870468,
            44.4613436
          ],
          [
            -93.1870059,
            44.4613166
          ],
          [
            -93.1869763,
            44.4613304
          ],
          [
            -93.1867918,
            44.4613175
          ]
        ]
      }
    },
    {
      "type": "Feature",
      "properties": {
        "_layer": "Walkways"
      },
      "geometry": {
        "type": "LineString",
        "coordinates": [
          [
            -93.1845023,
            44.4625872
          ],
          [
            -93.1845194,
            44.4625862
          ]
        ]
      }
    },
    {
      "type": "Feature",
      "properties": {
        "_layer": "Walkways"
      },
      "geometry": {
        "type": "LineString",
        "coordinates": [
          [
            -93.1854803,
            44.4616739
          ],
          [
            -93.1853415,
            44.4619187
          ],
          [
            -93.1857276,
            44.4618732
          ],
          [
            -93.1858776,
            44.4618732
          ],
          [
            -93.1861042,
            44.46179
          ],
          [
            -93.1860866,
            44.4613015
          ],
          [
            -93.186085,
            44.4612617
          ],
          [
            -93.1860116,
            44.4610988
          ],
          [
            -93.1857946,
            44.4613175
          ],
          [
            -93.1860866,
            44.4613015
          ],
          [
            -93.1866419,
            44.4613004
          ],
          [
            -93.1867918,
            44.4613175
          ]
        ]
      }
    },
    {
      "type": "Feature",
      "properties": {
        "_layer": "Walkways"
      },
      "geometry": {
        "type": "LineString",
        "coordinates": [
          [
            -93.1871341,
            44.463483
          ],
          [
            -93.1868595,
            44.4634901
          ],
          [
            -93.1866426,
            44.4635737
          ],
          [
            -93.1865828,
            44.4637196
          ],
          [
            -93.1865878,
            44.4644171
          ],
          [
            -93.1866526,
            44.464474
          ],
          [
            -93.1867548,
            44.4644989
          ],
          [
            -93.186887,
            44.4645007
          ]
        ]
      }
    },
    {
      "type": "Feature",
      "properties": {
        "_layer": "Walkways"
      },
      "geometry": {
        "type": "LineString",
        "coordinates": [
          [
            -93.1805661,
            44.4601536
          ],
          [
            -93.1804082,
            44.4601776
          ],
          [
            -93.1802981,
            44.4602937
          ],
          [
            -93.1804098,
            44.4603484
          ],
          [
            -93.1804401,
            44.4604247
          ],
          [
            -93.1804149,
            44.4604816
          ],
          [
            -93.1803188,
            44.4605203
          ],
          [
            -93.1802295,
            44.4605249
          ],
          [
            -93.1796152,
            44.4605522
          ],
          [
            -93.1784489,
            44.4605499
          ],
          [
            -93.1779846,
            44.4605545
          ],
          [
            -93.1776543,
            44.4605477
          ]
        ]
      }
    },
    {
      "type": "Feature",
      "properties": {
        "_layer": "Walkways"
      },
      "geometry": {
        "type": "LineString",
        "coordinates": [
          [
            -93.1853064,
            44.4611091
          ],
          [
            -93.1851766,
            44.4612663
          ]
        ]
      }
    },
    {
      "type": "Feature",
      "properties": {
        "_layer": "Walkways"
      },
      "geometry": {
        "type": "LineString",
        "coordinates": [
          [
            -93.1830248,
            44.4605101
          ],
          [
            -93.1830195,
            44.4604763
          ],
          [
            -93.1829684,
            44.4603859
          ],
          [
            -93.1829143,
            44.4603349
          ],
          [
            -93.182851,
            44.4602977
          ],
          [
            -93.1825783,
            44.4606155
          ],
          [
            -93.1825206,
            44.4606445
          ]
        ]
      }
    },
    {
      "type": "Feature",
      "properties": {
        "_layer": "Walkways"
      },
      "geometry": {
        "type": "LineString",
        "coordinates": [
          [
            -93.1777868,
            44.4611774
          ],
          [
            -93.1783899,
            44.4611865
          ],
          [
            -93.1784539,
            44.461158
          ],
          [
            -93.1793232,
            44.4611592
          ],
          [
            -93.1794445,
            44.4610533
          ],
          [
            -93.1795083,
            44.4610407
          ]
        ]
      }
    },
    {
      "type": "Feature",
      "properties": {
        "_layer": "Walkways"
      },
      "geometry": {
        "type": "LineString",
        "coordinates": [
          [
            -93.1832626,
            44.4614621
          ],
          [
            -93.1829714,
            44.4616562
          ]
        ]
      }
    },
    {
      "type": "Feature",
      "properties": {
        "_layer": "Walkways"
      },
      "geometry": {
        "type": "LineString",
        "coordinates": [
          [
            -93.1822095,
            44.4634196
          ],
          [
            -93.1820007,
            44.4634509
          ],
          [
            -93.1817938,
            44.4635791
          ],
          [
            -93.1816642,
            44.4636662
          ],
          [
            -93.1813849,
            44.4636716
          ],
          [
            -93.1813924,
            44.4638933
          ]
        ]
      }
    },
    {
      "type": "Feature",
      "properties": {
        "_layer": "Walkways"
      },
      "geometry": {
        "type": "LineString",
        "coordinates": [
          [
            -93.1864584,
            44.4623822
          ],
          [
            -93.1866131,
            44.4624152
          ],
          [
            -93.1868014,
            44.4624972
          ],
          [
            -93.1869833,
            44.4625803
          ],
          [
            -93.1872099,
            44.4627466
          ],
          [
            -93.1874811,
            44.462742
          ],
          [
            -93.1875433,
            44.4628092
          ],
          [
            -93.1878452,
            44.4630665
          ]
        ]
      }
    },
    {
      "type": "Feature",
      "properties": {
        "_layer": "Walkways"
      },
      "geometry": {
        "type": "LineString",
        "coordinates": [
          [
            -93.1777868,
            44.4611774
          ],
          [
            -93.1777868,
            44.461634
          ],
          [
            -93.1775602,
            44.4616375
          ],
          [
            -93.1774485,
            44.4616887
          ]
        ]
      }
    },
    {
      "type": "Feature",
      "properties": {
        "_layer": "Walkways"
      },
      "geometry": {
        "type": "LineString",
        "coordinates": [
          [
            -93.18145,
            44.4595113
          ],
          [
            -93.1813724,
            44.4594909
          ],
          [
            -93.1812693,
            44.4594691
          ],
          [
            -93.1810987,
            44.4594508
          ],
          [
            -93.1809588,
            44.4594632
          ],
          [
            -93.1808475,
            44.4594756
          ],
          [
            -93.1807301,
            44.4594647
          ],
          [
            -93.1806157,
            44.4594217
          ],
          [
            -93.1804942,
            44.4593415
          ],
          [
            -93.1804952,
            44.459488
          ],
          [
            -93.1808067,
            44.4594902
          ],
          [
            -93.1808036,
            44.4595784
          ],
          [
            -93.1805443,
            44.4595755
          ],
          [
            -93.1803727,
            44.4598167
          ],
          [
            -93.1803216,
            44.4598932
          ],
          [
            -93.1802103,
            44.4599756
          ],
          [
            -93.1801552,
            44.4600171
          ],
          [
            -93.180099,
            44.4600404
          ]
        ]
      }
    },
    {
      "type": "Feature",
      "properties": {
        "_layer": "Walkways"
      },
      "geometry": {
        "type": "LineString",
        "coordinates": [
          [
            -93.1814498,
            44.4605863
          ],
          [
            -93.1813527,
            44.4605272
          ],
          [
            -93.1812139,
            44.4604213
          ],
          [
            -93.1810943,
            44.4603803
          ],
          [
            -93.1809905,
            44.4603837
          ],
          [
            -93.1807911,
            44.4604121
          ],
          [
            -93.1806204,
            44.4604372
          ],
          [
            -93.1804098,
            44.4604827
          ],
          [
            -93.1804688,
            44.4605237
          ],
          [
            -93.180622,
            44.4605306
          ],
          [
            -93.180764,
            44.4605408
          ],
          [
            -93.1807608,
            44.4605135
          ],
          [
            -93.1807847,
            44.4604657
          ]
        ]
      }
    },
    {
      "type": "Feature",
      "properties": {
        "_layer": "Walkways"
      },
      "geometry": {
        "type": "LineString",
        "coordinates": [
          [
            -93.1833718,
            44.460571
          ],
          [
            -93.183433,
            44.4606279
          ],
          [
            -93.1835545,
            44.4607102
          ],
          [
            -93.1836648,
            44.4607707
          ],
          [
            -93.1837312,
            44.4607999
          ],
          [
            -93.1838159,
            44.4608239
          ],
          [
            -93.1839426,
            44.46084
          ],
          [
            -93.184157,
            44.4605681
          ]
        ]
      }
    },
    {
      "type": "Feature",
      "properties": {
        "_layer": "Walkways"
      },
      "geometry": {
        "type": "LineString",
        "coordinates": [
          [
            -93.1830248,
            44.4605101
          ],
          [
            -93.1833718,
            44.460571
          ],
          [
            -93.184157,
            44.4605681
          ],
          [
            -93.1844235,
            44.4605564
          ],
          [
            -93.1844286,
            44.4604872
          ],
          [
            -93.184399,
            44.4604172
          ],
          [
            -93.1843612,
            44.4603713
          ],
          [
            -93.1843256,
            44.4603332
          ]
        ]
      }
    },
    {
      "type": "Feature",
      "properties": {
        "_layer": "Walkways"
      },
      "geometry": {
        "type": "LineString",
        "coordinates": [
          [
            -93.1853522,
            44.4661631
          ],
          [
            -93.1851165,
            44.4661201
          ]
        ]
      }
    },
    {
      "type": "Feature",
      "properties": {
        "_layer": "Walkways"
      },
      "geometry": {
        "type": "LineString",
        "coordinates": [
          [
            -93.1846475,
            44.4602504
          ],
          [
            -93.1848676,
            44.4601571
          ],
          [
            -93.1848166,
            44.4601161
          ],
          [
            -93.1846849,
            44.4601262
          ]
        ]
      }
    },
    {
      "type": "Feature",
      "properties": {
        "_layer": "Walkways"
      },
      "geometry": {
        "type": "LineString",
        "coordinates": [
          [
            -93.1844432,
            44.464601
          ],
          [
            -93.1844161,
            44.4645742
          ],
          [
            -93.1843746,
            44.4645127
          ],
          [
            -93.1843156,
            44.4644694
          ],
          [
            -93.1842055,
            44.4644102
          ],
          [
            -93.1841353,
            44.4643635
          ],
          [
            -93.1840433,
            44.4642133
          ]
        ]
      }
    },
    {
      "type": "Feature",
      "properties": {
        "_layer": "Walkways"
      },
      "geometry": {
        "type": "LineString",
        "coordinates": [
          [
            -93.1806076,
            44.463374
          ],
          [
            -93.180416,
            44.4633732
          ]
        ]
      }
    },
    {
      "type": "Feature",
      "properties": {
        "_layer": "Walkways"
      },
      "geometry": {
        "type": "LineString",
        "coordinates": [
          [
            -93.1805555,
            44.4636684
          ],
          [
            -93.1805167,
            44.4636334
          ],
          [
            -93.1804184,
            44.4636356
          ]
        ]
      }
    },
    {
      "type": "Feature",
      "properties": {
        "_layer": "Walkways"
      },
      "geometry": {
        "type": "LineString",
        "coordinates": [
          [
            -93.1804968,
            44.4591986
          ],
          [
            -93.1808546,
            44.4592023
          ]
        ]
      }
    },
    {
      "type": "Feature",
      "properties": {
        "_layer": "Walkways"
      },
      "geometry": {
        "type": "LineString",
        "coordinates": [
          [
            -93.1820851,
            44.460141
          ],
          [
            -93.182077,
            44.4600565
          ]
        ]
      }
    },
    {
      "type": "Feature",
      "properties": {
        "_layer": "Walkways"
      },
      "geometry": {
        "type": "LineString",
        "coordinates": [
          [
            -93.1848534,
            44.460012
          ],
          [
            -93.1849719,
            44.4600098
          ],
          [
            -93.1849737,
            44.4601211
          ]
        ]
      }
    },
    {
      "type": "Feature",
      "properties": {
        "_layer": "Walkways"
      },
      "geometry": {
        "type": "LineString",
        "coordinates": [
          [
            -93.1877626,
            44.4616046
          ],
          [
            -93.1877656,
            44.4617352
          ]
        ]
      }
    },
    {
      "type": "Feature",
      "properties": {
        "_layer": "Walkways"
      },
      "geometry": {
        "type": "LineString",
        "coordinates": [
          [
            -93.1808542,
            44.4592191
          ],
          [
            -93.1807495,
            44.4592234
          ],
          [
            -93.1806494,
            44.4592489
          ],
          [
            -93.1805667,
            44.4592949
          ],
          [
            -93.1804942,
            44.4593415
          ]
        ]
      }
    },
    {
      "type": "Feature",
      "properties": {
        "_layer": "Walkways"
      },
      "geometry": {
        "type": "LineString",
        "coordinates": [
          [
            -93.1870856,
            44.4616744
          ],
          [
            -93.1869115,
            44.4617229
          ]
        ]
      }
    },
    {
      "type": "Feature",
      "properties": {
        "_layer": "Walkways"
      },
      "geometry": {
        "type": "LineString",
        "coordinates": [
          [
            -93.1829722,
            44.4616238
          ],
          [
            -93.1829714,
            44.4616562
          ]
        ]
      }
    },
    {
      "type": "Feature",
      "properties": {
        "_layer": "Walkways"
      },
      "geometry": {
        "type": "LineString",
        "coordinates": [
          [
            -93.1851444,
            44.4618807
          ],
          [
            -93.1843395,
            44.4617331
          ],
          [
            -93.1840713,
            44.4617377
          ]
        ]
      }
    },
    {
      "type": "Feature",
      "properties": {
        "_layer": "Walkways"
      },
      "geometry": {
        "type": "LineString",
        "coordinates": [
          [
            -93.1836168,
            44.4611057
          ],
          [
            -93.183769,
            44.4609558
          ],
          [
            -93.1839426,
            44.46084
          ]
        ]
      }
    },
    {
      "type": "Feature",
      "properties": {
        "_layer": "Walkways"
      },
      "geometry": {
        "type": "LineString",
        "coordinates": [
          [
            -93.1810426,
            44.4586812
          ],
          [
            -93.18111,
            44.4586564
          ],
          [
            -93.1811437,
            44.458652
          ],
          [
            -93.1812019,
            44.4586433
          ],
          [
            -93.1812611,
            44.4586404
          ],
          [
            -93.1813101,
            44.4586345
          ],
          [
            -93.1813693,
            44.4586404
          ],
          [
            -93.1813897,
            44.4586375
          ],
          [
            -93.1814157,
            44.4586037
          ]
        ]
      }
    },
    {
      "type": "Feature",
      "properties": {
        "_layer": "Walkways"
      },
      "geometry": {
        "type": "LineString",
        "coordinates": [
          [
            -93.1853415,
            44.4619187
          ],
          [
            -93.1852952,
            44.4620064
          ],
          [
            -93.1851804,
            44.4621396
          ]
        ]
      }
    },
    {
      "type": "Feature",
      "properties": {
        "_layer": "Walkways"
      },
      "geometry": {
        "type": "LineString",
        "coordinates": [
          [
            -93.1823394,
            44.4597854
          ],
          [
            -93.1823454,
            44.4594522
          ]
        ]
      }
    },
    {
      "type": "Feature",
      "properties": {
        "_layer": "Walkways"
      },
      "geometry": {
        "type": "LineString",
        "coordinates": [
          [
            -93.1851181,
            44.4607674
          ],
          [
            -93.1851245,
            44.4604269
          ]
        ]
      }
    },
    {
      "type": "Feature",
      "properties": {
        "_layer": "Walkways"
      },
      "geometry": {
        "type": "LineString",
        "coordinates": [
          [
            -93.1815288,
            44.4606089
          ],
          [
            -93.1815215,
            44.4605484
          ],
          [
            -93.1815184,
            44.4604027
          ],
          [
            -93.1815317,
            44.4603422
          ],
          [
            -93.1815664,
            44.4602642
          ],
          [
            -93.1815787,
            44.4601789
          ],
          [
            -93.1815501,
            44.4601388
          ]
        ]
      }
    },
    {
      "type": "Feature",
      "properties": {
        "_layer": "Walkways"
      },
      "geometry": {
        "type": "LineString",
        "coordinates": [
          [
            -93.1855406,
            44.4659889
          ],
          [
            -93.1856383,
            44.4658882
          ],
          [
            -93.1856463,
            44.4658427
          ],
          [
            -93.1862047,
            44.4658484
          ],
          [
            -93.186227,
            44.465837
          ],
          [
            -93.1862541,
            44.4658085
          ],
          [
            -93.1862446,
            44.4651026
          ]
        ]
      }
    },
    {
      "type": "Feature",
      "properties": {
        "_layer": "Walkways"
      },
      "geometry": {
        "type": "LineString",
        "coordinates": [
          [
            -93.1877635,
            44.4629903
          ],
          [
            -93.1877332,
            44.4628172
          ],
          [
            -93.1877459,
            44.4627796
          ],
          [
            -93.1880347,
            44.4625576
          ],
          [
            -93.188073,
            44.4625872
          ],
          [
            -93.1881305,
            44.4626509
          ],
          [
            -93.1882645,
            44.4627147
          ],
          [
            -93.1883363,
            44.4627363
          ],
          [
            -93.1883985,
            44.4627682
          ],
          [
            -93.1884272,
            44.4628308
          ],
          [
            -93.1884336,
            44.4630757
          ],
          [
            -93.1883714,
            44.4630711
          ],
          [
            -93.1882884,
            44.4630358
          ],
          [
            -93.188231,
            44.46298
          ],
          [
            -93.1881559,
            44.4628992
          ]
        ]
      }
    },
    {
      "type": "Feature",
      "properties": {
        "_layer": "Walkways"
      },
      "geometry": {
        "type": "LineString",
        "coordinates": [
          [
            -93.1836136,
            44.4615099
          ],
          [
            -93.1839295,
            44.4615133
          ],
          [
            -93.1843587,
            44.4615179
          ],
          [
            -93.1843919,
            44.461095
          ]
        ]
      }
    },
    {
      "type": "Feature",
      "properties": {
        "_layer": "Walkways"
      },
      "geometry": {
        "type": "LineString",
        "coordinates": [
          [
            -93.1796296,
            44.460641
          ],
          [
            -93.1792802,
            44.4606456
          ],
          [
            -93.1792802,
            44.4608312
          ]
        ]
      }
    },
    {
      "type": "Feature",
      "properties": {
        "_layer": "Walkways"
      },
      "geometry": {
        "type": "LineString",
        "coordinates": [
          [
            -93.1844286,
            44.4604872
          ],
          [
            -93.1844552,
            44.4604413
          ],
          [
            -93.1845134,
            44.4603691
          ],
          [
            -93.1845693,
            44.460296
          ]
        ]
      }
    },
    {
      "type": "Feature",
      "properties": {
        "_layer": "Walkways"
      },
      "geometry": {
        "type": "LineString",
        "coordinates": [
          [
            -93.1843363,
            44.4623287
          ],
          [
            -93.184389,
            44.4624232
          ],
          [
            -93.184386,
            44.4625894
          ],
          [
            -93.1843698,
            44.4626805
          ],
          [
            -93.1842326,
            44.462742
          ],
          [
            -93.1841449,
            44.46275
          ],
          [
            -93.1840731,
            44.4627306
          ],
          [
            -93.1840348,
            44.4627215
          ],
          [
            -93.1840252,
            44.4626054
          ]
        ]
      }
    },
    {
      "type": "Feature",
      "properties": {
        "_layer": "Walkways"
      },
      "geometry": {
        "type": "LineString",
        "coordinates": [
          [
            -93.1820902,
            44.4601913
          ],
          [
            -93.1825206,
            44.4606445
          ]
        ]
      }
    },
    {
      "type": "Feature",
      "properties": {
        "_layer": "Walkways"
      },
      "geometry": {
        "type": "LineString",
        "coordinates": [
          [
            -93.1792818,
            44.4607356
          ],
          [
            -93.1784553,
            44.4607264
          ]
        ]
      }
    },
    {
      "type": "Feature",
      "properties": {
        "_layer": "Walkways"
      },
      "geometry": {
        "type": "LineString",
        "coordinates": [
          [
            -93.1854436,
            44.4612992
          ],
          [
            -93.1851883,
            44.4612981
          ]
        ]
      }
    },
    {
      "type": "Feature",
      "properties": {
        "_layer": "Walkways"
      },
      "geometry": {
        "type": "LineString",
        "coordinates": [
          [
            -93.1843587,
            44.4615179
          ],
          [
            -93.1846634,
            44.4615259
          ],
          [
            -93.1848517,
            44.4614165
          ],
          [
            -93.184665,
            44.4612879
          ],
          [
            -93.1845087,
            44.4611649
          ],
          [
            -93.1843919,
            44.461095
          ]
        ]
      }
    },
    {
      "type": "Feature",
      "properties": {
        "_layer": "Walkways"
      },
      "geometry": {
        "type": "LineString",
        "coordinates": [
          [
            -93.1836168,
            44.4611057
          ],
          [
            -93.1832626,
            44.4614621
          ]
        ]
      }
    },
    {
      "type": "Feature",
      "properties": {
        "_layer": "Walkways"
      },
      "geometry": {
        "type": "LineString",
        "coordinates": [
          [
            -93.1866557,
            44.4662525
          ],
          [
            -93.186744,
            44.4662925
          ],
          [
            -93.186929,
            44.4663095
          ],
          [
            -93.187103,
            44.4662572
          ],
          [
            -93.1871866,
            44.4662073
          ]
        ]
      }
    },
    {
      "type": "Feature",
      "properties": {
        "_layer": "Walkways"
      },
      "geometry": {
        "type": "LineString",
        "coordinates": [
          [
            -93.1839426,
            44.46084
          ],
          [
            -93.1839295,
            44.4615133
          ],
          [
            -93.1839295,
            44.4617053
          ]
        ]
      }
    },
    {
      "type": "Feature",
      "properties": {
        "_layer": "Walkways"
      },
      "geometry": {
        "type": "LineString",
        "coordinates": [
          [
            -93.1794158,
            44.4608825
          ],
          [
            -93.1795658,
            44.460887
          ],
          [
            -93.1797434,
            44.4608236
          ]
        ]
      }
    },
    {
      "type": "Feature",
      "properties": {
        "_layer": "Walkways"
      },
      "geometry": {
        "type": "LineString",
        "coordinates": [
          [
            -93.1856973,
            44.4624054
          ],
          [
            -93.1856798,
            44.4623332
          ],
          [
            -93.1860356,
            44.4623241
          ],
          [
            -93.1861935,
            44.4623389
          ],
          [
            -93.1862924,
            44.4623628
          ]
        ]
      }
    },
    {
      "type": "Feature",
      "properties": {
        "_layer": "Walkways"
      },
      "geometry": {
        "type": "LineString",
        "coordinates": [
          [
            -93.1857276,
            44.4618732
          ],
          [
            -93.1856734,
            44.4620383
          ],
          [
            -93.1857546,
            44.4620326
          ]
        ]
      }
    },
    {
      "type": "Feature",
      "properties": {
        "_layer": "Walkways"
      },
      "geometry": {
        "type": "LineString",
        "coordinates": [
          [
            -93.1782574,
            44.4596173
          ],
          [
            -93.1783276,
            44.4596662
          ],
          [
            -93.1784617,
            44.4597004
          ],
          [
            -93.1789818,
            44.4597164
          ],
          [
            -93.1790807,
            44.4597209
          ],
          [
            -93.1790696,
            44.4598369
          ]
        ]
      }
    },
    {
      "type": "Feature",
      "properties": {
        "_layer": "Walkways"
      },
      "geometry": {
        "type": "LineString",
        "coordinates": [
          [
            -93.1844305,
            44.4600614
          ],
          [
            -93.184494,
            44.4600244
          ],
          [
            -93.1845695,
            44.4600113
          ],
          [
            -93.1846962,
            44.4600091
          ],
          [
            -93.184786,
            44.4600091
          ],
          [
            -93.1848534,
            44.460012
          ],
          [
            -93.1848676,
            44.4601571
          ]
        ]
      }
    },
    {
      "type": "Feature",
      "properties": {
        "_layer": "Walkways"
      },
      "geometry": {
        "type": "LineString",
        "coordinates": [
          [
            -93.188264,
            44.4615935
          ],
          [
            -93.188268,
            44.4617314
          ]
        ]
      }
    }
  ]
}
