{
  "type": "FeatureCollection",
  "name": "water",
  "features": [
    {
      "type": "Feature",
      "properties": {
        "NAME": null,
        "_layer": "Lakes"
      },
      "geometry": {
        "type": "Polygon",
        "coordinates": [
          [
            [
              -93.1904919,
              44.4667166
            ],
            [
              -93.1905091,
              44.4667547
            ],
            [
              -93.1904862,
              44.4668119
            ],
            [
              -93.1904462,
              44.4668691
            ],
            [
              -93.1903909,
              44.4668748
            ],
            [
              -93.1903413,
              44.466871
            ],
            [
              -93.1902937,
              44.4668233
            ],
            [
              -93.1902784,
              44.4667528
            ],
            [
              -93.1902765,
              44.4666747
            ],
            [
              -93.1903013,
              44.4666308
            ],
            [
              -93.1903718,
              44.4666232
            ],
            [
              -93.1904595,
              44.4666632
            ],
            [
              -93.1904919,
              44.4667166
            ]
          ]
        ]
      }
    },
    {
      "type": "Feature",
      "properties": {
        "NAME": null,
        "_layer": "Lakes"
      },
      "geometry": {
        "type": "Polygon",
        "coordinates": [
          [
            [
              -93.1999241,
              44.4701753
            ],
            [
              -93.1999539,
              44.4701861
            ],
            [
              -93.2000016,
              44.4702041
            ],
            [
              -93.2000457,
              44.470223
            ],
            [
              -93.2000628,
              44.47025
            ],
            [
              -93.2000484,
              44.4702671
            ],
            [
              -93.2000412,
              44.4702951
            ],
            [
              -93.2000223,
              44.4703293
            ],
            [
              -93.1999935,
              44.4703671
            ],
            [
              -93.1999503,
              44.4703716
            ],
            [
              -93.1999151,
              44.4703617
            ],
            [
              -93.1998872,
              44.4703455
            ],
            [
              -93.1998431,
              44.4703392
            ],
            [
              -93.1998061,
              44.4703383
            ],
            [
              -93.199753,
              44.4703104
            ],
            [
              -93.1997512,
              44.4702527
            ],
            [
              -93.1997593,
              44.4702131
            ],
            [
              -93.199807,
              44.4701843
            ],
            [
              -93.1998521,
              44.4701735
            ],
            [
              -93.1999241,
              44.4701753
            ]
          ]
        ]
      }
    },
    {
      "type": "Feature",
      "properties": {
        "NAME": null,
        "_layer": "Lakes"
      },
      "geometry": {
        "type": "Polygon",
        "coordinates": [
          [
            [
              -93.1960897,
              44.4679241
            ],
            [
              -93.1961294,
              44.4679363
            ],
            [
              -93.1961653,
              44.4679508
            ],
            [
              -93.196153,
              44.4679882
            ],
            [
              -93.1961164,
              44.4679989
            ],
            [
              -93.1960981,
              44.4680363
            ],
            [
              -93.1960393,
              44.4680569
            ],
            [
              -93.1959806,
              44.4680554
            ],
            [
              -93.1959134,
              44.4680477
            ],
            [
              -93.1958738,
              44.4680134
            ],
            [
              -93.1958722,
              44.4679775
            ],
            [
              -93.1959073,
              44.4679234
            ],
            [
              -93.1959958,
              44.4679119
            ],
            [
              -93.1960897,
              44.4679241
            ]
          ]
        ]
      }
    },
    {
      "type": "Feature",
      "properties": {
        "NAME": null,
        "_layer": "Lakes"
      },
      "geometry": {
        "type": "Polygon",
        "coordinates": [
          [
            [
              -93.190474,
              44.4708339
            ],
            [
              -93.1904715,
              44.4708742
            ],
            [
              -93.190447,
              44.4708957
            ],
            [
              -93.1904046,
              44.4709276
            ],
            [
              -93.1903183,
              44.4709625
            ],
            [
              -93.1902704,
              44.4709777
            ],
            [
              -93.1902241,
              44.4709562
            ],
            [
              -93.1902086,
              44.4709332
            ],
            [
              -93.1901952,
              44.4708937
            ],
            [
              -93.190198,
              44.4708666
            ],
            [
              -93.1902299,
              44.4708207
            ],
            [
              -93.190313,
              44.470792
            ],
            [
              -93.1903613,
              44.4707843
            ],
            [
              -93.1904044,
              44.47079
            ],
            [
              -93.1904473,
              44.4708114
            ],
            [
              -93.190474,
              44.4708339
            ]
          ]
        ]
      }
    },
    {
      "type": "Feature",
      "properties": {
        "NAME": null,
        "_layer": "Lakes"
      },
      "geometry": {
        "type": "Polygon",
        "coordinates": [
          [
            [
              -93.1856593,
              44.4698971
            ],
            [
              -93.18563,
              44.4699711
            ],
            [
              -93.1854532,
              44.4700242
            ],
            [
              -93.1853205,
              44.4700138
            ],
            [
              -93.1852245,
              44.4699506
            ],
            [
              -93.1851358,
              44.4698874
            ],
            [
              -93.1851282,
              44.4698241
            ],
            [
              -93.1851427,
              44.4697449
            ],
            [
              -93.1852237,
              44.4697078
            ],
            [
              -93.1853121,
              44.4696971
            ],
            [
              -93.1853711,
              44.4697023
            ],
            [
              -93.1854303,
              44.4697497
            ],
            [
              -93.1855409,
              44.4697706
            ],
            [
              -93.1856148,
              44.4698127
            ],
            [
              -93.1856593,
              44.4698971
            ]
          ]
        ]
      }
    },
    {
      "type": "Feature",
      "properties": {
        "NAME": null,
        "_layer": "Lakes"
      },
      "geometry": {
        "type": "Polygon",
        "coordinates": [
          [
            [
              -93.1917818,
              44.4590489
            ],
            [
              -93.1917536,
              44.4591831
            ],
            [
              -93.1916277,
              44.45925
            ],
            [
              -93.1914371,
              44.4592376
            ],
            [
              -93.1913615,
              44.4591876
            ],
            [
              -93.19136,
              44.459186
            ],
            [
              -93.1912581,
              44.4591572
            ],
            [
              -93.1912139,
              44.4591447
            ],
            [
              -93.1911848,
              44.459136
            ],
            [
              -93.1911264,
              44.4590916
            ],
            [
              -93.191075,
              44.4590518
            ],
            [
              -93.1910795,
              44.4589416
            ],
            [
              -93.1911104,
              44.4588415
            ],
            [
              -93.1911229,
              44.4587235
            ],
            [
              -93.1910906,
              44.4586112
            ],
            [
              -93.1910999,
              44.4585353
            ],
            [
              -93.1911406,
              44.4585128
            ],
            [
              -93.1912246,
              44.4585123
            ],
            [
              -93.1913717,
              44.458669
            ],
            [
              -93.1915261,
              44.4587478
            ],
            [
              -93.1916852,
              44.4588088
            ],
            [
              -93.1917666,
              44.4589286
            ],
            [
              -93.1917818,
              44.4590489
            ]
          ]
        ]
      }
    },
    {
      "type": "Feature",
      "properties": {
        "NAME": null,
        "_layer": "Lakes"
      },
      "geometry": {
        "type": "Polygon",
        "coordinates": [
          [
            [
              -93.1810167,
              44.4580048
            ],
            [
              -93.1809654,
              44.4579856
            ],
            [
              -93.1809362,
              44.4579513
            ],
            [
              -93.180923,
              44.4579035
            ],
            [
              -93.1809362,
              44.4578557
            ],
            [
              -93.1809819,
              44.4578038
            ],
            [
              -93.1810682,
              44.4578135
            ],
            [
              -93.1811428,
              44.45784
            ],
            [
              -93.18114,
              44.4578798
            ],
            [
              -93.181143,
              44.4579186
            ],
            [
              -93.1811267,
              44.4579587
            ],
            [
              -93.1810893,
              44.4580009
            ],
            [
              -93.1810167,
              44.4580048
            ]
          ]
        ]
      }
    },
    {
      "type": "Feature",
      "properties": {
        "NAME": null,
        "_layer": "Lakes"
      },
      "geometry": {
        "type": "Polygon",
        "coordinates": [
          [
            [
              -93.1818775,
              44.4579758
            ],
            [
              -93.1818856,
              44.4579984
            ],
            [
              -93.1818886,
              44.4580413
            ],
            [
              -93.1818908,
              44.4580756
            ],
            [
              -93.1818573,
              44.4581146
            ],
            [
              -93.1817725,
              44.4581598
            ],
            [
              -93.1817195,
              44.4581503
            ],
            [
              -93.1816983,
              44.4580946
            ],
            [
              -93.1817162,
              44.4580419
            ],
            [
              -93.1817701,
              44.4579953
            ],
            [
              -93.181838,
              44.4579721
            ],
            [
              -93.1818775,
              44.4579758
            ]
          ]
        ]
      }
    },
    {
      "type": "Feature",
      "properties": {
        "NAME": null,
        "_layer": "Lakes"
      },
      "geometry": {
        "type": "Polygon",
        "coordinates": [
          [
            [
              -93.1982995,
              44.4702077
            ],
            [
              -93.1982908,
              44.4702468
            ],
            [
              -93.1982632,
              44.4702642
            ],
            [
              -93.1981921,
              44.4702642
            ],
            [
              -93.1981399,
              44.4702381
            ],
            [
              -93.1980935,
              44.4701989
            ],
            [
              -93.1980601,
              44.4701699
            ],
            [
              -93.1980499,
              44.4701249
            ],
            [
              -93.1980688,
              44.4700887
            ],
            [
              -93.1981123,
              44.4700553
            ],
            [
              -93.1981428,
              44.4700379
            ],
            [
              -93.1982067,
              44.4700379
            ],
            [
              -93.1982647,
              44.4700524
            ],
            [
              -93.1983053,
              44.4700771
            ],
            [
              -93.1982966,
              44.4701206
            ],
            [
              -93.1982531,
              44.4701235
            ],
            [
              -93.1982458,
              44.4701496
            ],
            [
              -93.198272,
              44.4701612
            ],
            [
              -93.1982923,
              44.4701815
            ],
            [
              -93.1982995,
              44.4702077
            ]
          ]
        ]
      }
    },
    {
      "type": "Feature",
      "properties": {
        "NAME": null,
        "_layer": "Lakes"
      },
      "geometry": {
        "type": "Polygon",
        "coordinates": [
          [
            [
              -93.1996652,
              44.4650628
            ],
            [
              -93.1996681,
              44.4650922
            ],
            [
              -93.1996269,
              44.4651246
            ],
            [
              -93.1995856,
              44.4651349
            ],
            [
              -93.1995179,
              44.4651305
            ],
            [
              -93.1994811,
              44.465107
            ],
            [
              -93.1994516,
              44.4650716
            ],
            [
              -93.1994221,
              44.4650348
            ],
            [
              -93.1993986,
              44.4650009
            ],
            [
              -93.1994074,
              44.4649508
            ],
            [
              -93.1994663,
              44.4649361
            ],
            [
              -93.1995429,
              44.4649538
            ],
            [
              -93.199593,
              44.4649715
            ],
            [
              -93.1996225,
              44.4649847
            ],
            [
              -93.1996519,
              44.4650348
            ],
            [
              -93.1996652,
              44.4650628
            ]
          ]
        ]
      }
    },
    {
      "type": "Feature",
      "properties": {
        "NAME": null,
        "_layer": "Lakes"
      },
      "geometry": {
        "type": "Polygon",
        "coordinates": [
          [
            [
              -93.1983902,
              44.4682782
            ],
            [
              -93.198386,
              44.4683816
            ],
            [
              -93.1983287,
              44.4684152
            ],
            [
              -93.1982476,
              44.4684613
            ],
            [
              -93.1982224,
              44.4684907
            ],
            [
              -93.1981567,
              44.4684907
            ],
            [
              -93.1980826,
              44.4684893
            ],
            [
              -93.1979637,
              44.4684739
            ],
            [
              -93.1979302,
              44.4684571
            ],
            [
              -93.1978714,
              44.4683886
            ],
            [
              -93.1977917,
              44.4683718
            ],
            [
              -93.1976841,
              44.4683257
            ],
            [
              -93.1976897,
              44.4682852
            ],
            [
              -93.1977498,
              44.4681593
            ],
            [
              -93.1978602,
              44.4680614
            ],
            [
              -93.1980071,
              44.4680307
            ],
            [
              -93.198179,
              44.4680307
            ],
            [
              -93.1982727,
              44.4680321
            ],
            [
              -93.1983692,
              44.4680852
            ],
            [
              -93.1983958,
              44.4682013
            ],
            [
              -93.1983902,
              44.4682782
            ]
          ]
        ]
      }
    },
    {
      "type": "Feature",
      "properties": {
        "NAME": null,
        "_layer": "Lakes"
      },
      "geometry": {
        "type": "Polygon",
        "coordinates": [
          [
            [
              -93.1814271,
              44.4580431
            ],
            [
              -93.1812743,
              44.4580469
            ],
            [
              -93.1812638,
              44.4580112
            ],
            [
              -93.1813216,
              44.4579586
            ],
            [
              -93.1813577,
              44.4579269
            ],
            [
              -93.1813948,
              44.4578958
            ],
            [
              -93.1814377,
              44.4578669
            ],
            [
              -93.1814995,
              44.4578669
            ],
            [
              -93.1815155,
              44.4578957
            ],
            [
              -93.1815023,
              44.4579275
            ],
            [
              -93.1814995,
              44.4579684
            ],
            [
              -93.1814754,
              44.4580086
            ],
            [
              -93.1814271,
              44.4580431
            ]
          ]
        ]
      }
    },
    {
      "type": "Feature",
      "properties": {
        "NAME": null,
        "_layer": "Lakes"
      },
      "geometry": {
        "type": "Polygon",
        "coordinates": [
          [
            [
              -93.1994376,
              44.464629
            ],
            [
              -93.1994052,
              44.4646393
            ],
            [
              -93.199361,
              44.4646305
            ],
            [
              -93.1993242,
              44.4646113
            ],
            [
              -93.1992992,
              44.4645863
            ],
            [
              -93.1993021,
              44.4645539
            ],
            [
              -93.1993198,
              44.4645362
            ],
            [
              -93.1993389,
              44.4645097
            ],
            [
              -93.1993934,
              44.4645097
            ],
            [
              -93.1994435,
              44.4645127
            ],
            [
              -93.1994906,
              44.4645303
            ],
            [
              -93.1994965,
              44.4645627
            ],
            [
              -93.1994906,
              44.4645922
            ],
            [
              -93.1994641,
              44.4646128
            ],
            [
              -93.1994376,
              44.464629
            ]
          ]
        ]
      }
    },
    {
      "type": "Feature",
      "properties": {
        "NAME": null,
        "_layer": "Lakes"
      },
      "geometry": {
        "type": "Polygon",
        "coordinates": [
          [
            [
              -93.1912822,
              44.4660885
            ],
            [
              -93.1912898,
              44.46614
            ],
            [
              -93.1912593,
              44.4661685
            ],
            [
              -93.1912326,
              44.4661914
            ],
            [
              -93.1911888,
              44.4661914
            ],
            [
              -93.1911278,
              44.4661914
            ],
            [
              -93.1910801,
              44.4661933
            ],
            [
              -93.1910439,
              44.4662124
            ],
            [
              -93.1910497,
              44.4662638
            ],
            [
              -93.1910096,
              44.4663039
            ],
            [
              -93.1909334,
              44.4663115
            ],
            [
              -93.1908724,
              44.4663115
            ],
            [
              -93.1908552,
              44.4662619
            ],
            [
              -93.190859,
              44.4662067
            ],
            [
              -93.1908591,
              44.466159
            ],
            [
              -93.1908614,
              44.4660693
            ],
            [
              -93.1908648,
              44.4660084
            ],
            [
              -93.1908648,
              44.4659608
            ],
            [
              -93.1908876,
              44.4659303
            ],
            [
              -93.1909696,
              44.465997
            ],
            [
              -93.191042,
              44.4660027
            ],
            [
              -93.1911793,
              44.4660447
            ],
            [
              -93.1912822,
              44.4660885
            ]
          ]
        ]
      }
    },
    {
      "type": "Feature",
      "properties": {
        "NAME": null,
        "_layer": "Lakes"
      },
      "geometry": {
        "type": "Polygon",
        "coordinates": [
          [
            [
              -93.1858775,
              44.4677874
            ],
            [
              -93.1858736,
              44.4678161
            ],
            [
              -93.1858387,
              44.4678461
            ],
            [
              -93.1857987,
              44.4678625
            ],
            [
              -93.1857244,
              44.4678565
            ],
            [
              -93.1856495,
              44.467856
            ],
            [
              -93.1855885,
              44.4678247
            ],
            [
              -93.1855445,
              44.4677965
            ],
            [
              -93.1855441,
              44.4677361
            ],
            [
              -93.1855754,
              44.4677059
            ],
            [
              -93.1856704,
              44.4677016
            ],
            [
              -93.1857393,
              44.4676972
            ],
            [
              -93.1858088,
              44.4676965
            ],
            [
              -93.1858775,
              44.4677874
            ]
          ]
        ]
      }
    },
    {
      "type": "Feature",
      "properties": {
        "NAME": null,
        "_layer": "Lakes"
      },
      "geometry": {
        "type": "Polygon",
        "coordinates": [
          [
            [
              -93.1817181,
              44.4584384
            ],
            [
              -93.181653,
              44.4584649
            ],
            [
              -93.1816018,
              44.4584852
            ],
            [
              -93.1815797,
              44.4584844
            ],
            [
              -93.1814471,
              44.4584576
            ],
            [
              -93.1813602,
              44.458446
            ],
            [
              -93.1812647,
              44.4584375
            ],
            [
              -93.1811738,
              44.4584338
            ],
            [
              -93.1810346,
              44.4584352
            ],
            [
              -93.180869,
              44.4584412
            ],
            [
              -93.1808543,
              44.4584343
            ],
            [
              -93.180848,
              44.4584215
            ],
            [
              -93.1808502,
              44.4584091
            ],
            [
              -93.1809123,
              44.4583627
            ],
            [
              -93.1809688,
              44.4583454
            ],
            [
              -93.1810302,
              44.458333
            ],
            [
              -93.1811462,
              44.4583295
            ],
            [
              -93.1812634,
              44.458333
            ],
            [
              -93.1813957,
              44.4583474
            ],
            [
              -93.1814943,
              44.4583654
            ],
            [
              -93.1816133,
              44.4583965
            ],
            [
              -93.1816747,
              44.4584163
            ],
            [
              -93.1817181,
              44.4584384
            ]
          ]
        ]
      }
    },
    {
      "type": "Feature",
      "properties": {
        "NAME": "Baseball Pond",
        "_layer": "Lakes"
      },
      "geometry": {
        "type": "Polygon",
        "coordinates": [
          [
            [
              -93.183218,
              44.4676673
            ],
            [
              -93.183153,
              44.4677584
            ],
            [
              -93.1830578,
              44.4678015
            ],
            [
              -93.1829185,
              44.4678246
            ],
            [
              -93.1827972,
              44.467848
            ],
            [
              -93.1827096,
              44.4678578
            ],
            [
              -93.1825955,
              44.4678543
            ],
            [
              -93.1824461,
              44.4678302
            ],
            [
              -93.1823314,
              44.4677867
            ],
            [
              -93.1822562,
              44.4677473
            ],
            [
              -93.1821774,
              44.4676873
            ],
            [
              -93.1821684,
              44.4676182
            ],
            [
              -93.1821502,
              44.4675283
            ],
            [
              -93.1820548,
              44.4675357
            ],
            [
              -93.1819943,
              44.4674421
            ],
            [
              -93.1819313,
              44.4673752
            ],
            [
              -93.181855,
              44.4672214
            ],
            [
              -93.1819608,
              44.4671747
            ],
            [
              -93.1821175,
              44.467201
            ],
            [
              -93.1821542,
              44.467248
            ],
            [
              -93.1821855,
              44.467306
            ],
            [
              -93.1822564,
              44.4672986
            ],
            [
              -93.1823069,
              44.4671586
            ],
            [
              -93.182431,
              44.4671045
            ],
            [
              -93.1825373,
              44.467074
            ],
            [
              -93.1826057,
              44.4670567
            ],
            [
              -93.1826682,
              44.4670719
            ],
            [
              -93.182787,
              44.4670971
            ],
            [
              -93.1829166,
              44.4671637
            ],
            [
              -93.1830062,
              44.4673474
            ],
            [
              -93.1831794,
              44.4674458
            ],
            [
              -93.1832336,
              44.4675439
            ],
            [
              -93.183218,
              44.4676673
            ]
          ]
        ]
      }
    },
    {
      "type": "Feature",
      "properties": {
        "NAME": "Big Pond",
        "_layer": "Lakes"
      },
      "geometry": {
        "type": "Polygon",
        "coordinates": [
          [
            [
              -93.1908929,
              44.4652398
            ],
            [
              -93.1908817,
              44.465064
            ],
            [
              -93.1908393,
              44.4649284
            ],
            [
              -93.1908818,
              44.4648196
            ],
            [
              -93.1909312,
              44.464768
            ],
            [
              -93.191015,
              44.4646812
            ],
            [
              -93.1910422,
              44.4646509
            ],
            [
              -93.1911376,
              44.4645756
            ],
            [
              -93.191242,
              44.4645095
            ],
            [
              -93.1913659,
              44.4644213
            ],
            [
              -93.191568,
              44.4643835
            ],
            [
              -93.1918269,
              44.4643833
            ],
            [
              -93.1919572,
              44.4644161
            ],
            [
              -93.1921529,
              44.4644635
            ],
            [
              -93.192373,
              44.464513
            ],
            [
              -93.1925019,
              44.464575
            ],
            [
              -93.1926611,
              44.4645598
            ],
            [
              -93.1927525,
              44.464532
            ],
            [
              -93.1929731,
              44.4644606
            ],
            [
              -93.1931855,
              44.4644752
            ],
            [
              -93.1934045,
              44.4644757
            ],
            [
              -93.1935724,
              44.4644221
            ],
            [
              -93.1936689,
              44.4644012
            ],
            [
              -93.1943378,
              44.4642466
            ],
            [
              -93.1944464,
              44.4642223
            ],
            [
              -93.1945833,
              44.4642146
            ],
            [
              -93.194712,
              44.4642687
            ],
            [
              -93.1946905,
              44.4643603
            ],
            [
              -93.1949811,
              44.4645592
            ],
            [
              -93.1950228,
              44.4646676
            ],
            [
              -93.1950133,
              44.4647652
            ],
            [
              -93.1950229,
              44.4649414
            ],
            [
              -93.1949371,
              44.4649963
            ],
            [
              -93.1948087,
              44.4650268
            ],
            [
              -93.1946993,
              44.4650812
            ],
            [
              -93.1946579,
              44.4651641
            ],
            [
              -93.1945293,
              44.4652334
            ],
            [
              -93.1944475,
              44.4652557
            ],
            [
              -93.1941937,
              44.465287
            ],
            [
              -93.1941112,
              44.4653262
            ],
            [
              -93.1938779,
              44.46531
            ],
            [
              -93.1936477,
              44.4653099
            ],
            [
              -93.1935025,
              44.4653022
            ],
            [
              -93.1933077,
              44.4652722
            ],
            [
              -93.1931881,
              44.4652716
            ],
            [
              -93.1930489,
              44.4653019
            ],
            [
              -93.192923,
              44.4653296
            ],
            [
              -93.1928046,
              44.4653324
            ],
            [
              -93.1925819,
              44.4653666
            ],
            [
              -93.1923699,
              44.4654466
            ],
            [
              -93.1920042,
              44.4655763
            ],
            [
              -93.1918035,
              44.4656168
            ],
            [
              -93.191505,
              44.4656941
            ],
            [
              -93.1912165,
              44.4657463
            ],
            [
              -93.1911191,
              44.4657618
            ],
            [
              -93.1910309,
              44.4657382
            ],
            [
              -93.1909889,
              44.4657081
            ],
            [
              -93.1909285,
              44.4656008
            ],
            [
              -93.1909299,
              44.4654942
            ],
            [
              -93.190957,
              44.4653637
            ],
            [
              -93.1908929,
              44.4652398
            ]
          ]
        ]
      }
    },
    {
      "type": "Feature",
      "properties": {
        "NAME": "Dragonfly Pond",
        "_layer": "Lakes"
      },
      "geometry": {
        "type": "Polygon",
        "coordinates": [
          [
            [
              -93.1925577,
              44.4701688
            ],
            [
              -93.1925942,
              44.4702031
            ],
            [
              -93.1926337,
              44.47022
            ],
            [
              -93.1926506,
              44.4702378
            ],
            [
              -93.1926575,
              44.4702589
            ],
            [
              -93.1926486,
              44.4702926
            ],
            [
              -93.1926196,
              44.4703116
            ],
            [
              -93.1925711,
              44.470351
            ],
            [
              -93.1925273,
              44.470375
            ],
            [
              -93.1925076,
              44.470402
            ],
            [
              -93.1924545,
              44.4704015
            ],
            [
              -93.1924073,
              44.4703843
            ],
            [
              -93.1923813,
              44.4703544
            ],
            [
              -93.1923838,
              44.4703088
            ],
            [
              -93.1924077,
              44.470225
            ],
            [
              -93.192463,
              44.4701573
            ],
            [
              -93.1925032,
              44.4701478
            ],
            [
              -93.1925577,
              44.4701688
            ]
          ]
        ]
      }
    },
    {
      "type": "Feature",
      "properties": {
        "NAME": "Duckweed Pond",
        "_layer": "Lakes"
      },
      "geometry": {
        "type": "Polygon",
        "coordinates": [
          [
            [
              -93.1905782,
              44.4663715
            ],
            [
              -93.1905496,
              44.4664458
            ],
            [
              -93.1904793,
              44.4664822
            ],
            [
              -93.1904258,
              44.4664934
            ],
            [
              -93.1903837,
              44.4664934
            ],
            [
              -93.1903686,
              44.4664649
            ],
            [
              -93.1903739,
              44.4664303
            ],
            [
              -93.1903147,
              44.4664229
            ],
            [
              -93.1902683,
              44.4664646
            ],
            [
              -93.1901687,
              44.466448
            ],
            [
              -93.1901399,
              44.466402
            ],
            [
              -93.1901627,
              44.4663238
            ],
            [
              -93.1902313,
              44.4662685
            ],
            [
              -93.1902961,
              44.4662247
            ],
            [
              -93.1904296,
              44.4661713
            ],
            [
              -93.1904791,
              44.4661713
            ],
            [
              -93.1905481,
              44.4662613
            ],
            [
              -93.1905782,
              44.4663715
            ]
          ]
        ]
      }
    },
    {
      "type": "Feature",
      "properties": {
        "NAME": "East Coyote Pond",
        "_layer": "Lakes"
      },
      "geometry": {
        "type": "Polygon",
        "coordinates": [
          [
            [
              -93.1960929,
              44.4662632
            ],
            [
              -93.1961362,
              44.4662404
            ],
            [
              -93.1962284,
              44.466246
            ],
            [
              -93.1962784,
              44.4662531
            ],
            [
              -93.1963477,
              44.4662668
            ],
            [
              -93.1964017,
              44.4662939
            ],
            [
              -93.1964576,
              44.4663181
            ],
            [
              -93.1964827,
              44.4663461
            ],
            [
              -93.1964935,
              44.4663765
            ],
            [
              -93.1964897,
              44.4664229
            ],
            [
              -93.1964355,
              44.4664788
            ],
            [
              -93.1963817,
              44.4665106
            ],
            [
              -93.1963,
              44.4665369
            ],
            [
              -93.1962565,
              44.4665408
            ],
            [
              -93.1961968,
              44.466533
            ],
            [
              -93.1961444,
              44.4665236
            ],
            [
              -93.1961068,
              44.4665006
            ],
            [
              -93.1960989,
              44.4664797
            ],
            [
              -93.1960744,
              44.4664481
            ],
            [
              -93.1960696,
              44.4663884
            ],
            [
              -93.1960586,
              44.4663497
            ],
            [
              -93.1960699,
              44.4663073
            ],
            [
              -93.1960929,
              44.4662632
            ]
          ]
        ]
      }
    },
    {
      "type": "Feature",
      "properties": {
        "NAME": "James Farm Pond",
        "_layer": "Lakes"
      },
      "geometry": {
        "type": "Polygon",
        "coordinates": [
          [
            [
              -93.1982459,
              44.4649564
            ],
            [
              -93.19818,
              44.464946
            ],
            [
              -93.1981121,
              44.46494
            ],
            [
              -93.1980631,
              44.4649369
            ],
            [
              -93.1980086,
              44.4649391
            ],
            [
              -93.1979675,
              44.4649353
            ],
            [
              -93.1979243,
              44.4649244
            ],
            [
              -93.1978841,
              44.4649136
            ],
            [
              -93.1978332,
              44.4648844
            ],
            [
              -93.1977741,
              44.4648619
            ],
            [
              -93.1977178,
              44.4648543
            ],
            [
              -93.1976556,
              44.4648663
            ],
            [
              -93.1975757,
              44.4648892
            ],
            [
              -93.1975467,
              44.4649149
            ],
            [
              -93.1975014,
              44.4649334
            ],
            [
              -93.197408,
              44.464957
            ],
            [
              -93.1973468,
              44.464963
            ],
            [
              -93.1973022,
              44.4649654
            ],
            [
              -93.1972588,
              44.4649621
            ],
            [
              -93.1972036,
              44.4649539
            ],
            [
              -93.1971558,
              44.4649377
            ],
            [
              -93.1970532,
              44.4649259
            ],
            [
              -93.1969821,
              44.4649101
            ],
            [
              -93.1969284,
              44.4648952
            ],
            [
              -93.1969006,
              44.4648807
            ],
            [
              -93.1968662,
              44.4648613
            ],
            [
              -93.1968305,
              44.4648317
            ],
            [
              -93.1968052,
              44.4648173
            ],
            [
              -93.1967778,
              44.4648094
            ],
            [
              -93.1967452,
              44.4648057
            ],
            [
              -93.1967213,
              44.4648026
            ],
            [
              -93.1966915,
              44.4647908
            ],
            [
              -93.1966741,
              44.4647801
            ],
            [
              -93.1966729,
              44.4647725
            ],
            [
              -93.1967151,
              44.4647571
            ],
            [
              -93.1967579,
              44.4646859
            ],
            [
              -93.196765,
              44.4645994
            ],
            [
              -93.1967381,
              44.4645929
            ],
            [
              -93.1966767,
              44.4645965
            ],
            [
              -93.1966609,
              44.4646228
            ],
            [
              -93.1966452,
              44.4646631
            ],
            [
              -93.1966184,
              44.4646817
            ],
            [
              -93.1965996,
              44.4647105
            ],
            [
              -93.1965627,
              44.4647034
            ],
            [
              -93.1965378,
              44.4646696
            ],
            [
              -93.1965224,
              44.4646667
            ],
            [
              -93.1964942,
              44.4646604
            ],
            [
              -93.1964468,
              44.4646497
            ],
            [
              -93.1964068,
              44.4646407
            ],
            [
              -93.1963592,
              44.4646488
            ],
            [
              -93.1962882,
              44.464661
            ],
            [
              -93.1962285,
              44.4646712
            ],
            [
              -93.1961138,
              44.4646578
            ],
            [
              -93.1960576,
              44.4646578
            ],
            [
              -93.1959892,
              44.4646578
            ],
            [
              -93.1959086,
              44.4646491
            ],
            [
              -93.195863,
              44.464607
            ],
            [
              -93.1958314,
              44.4645894
            ],
            [
              -93.1957998,
              44.4645596
            ],
            [
              -93.195784,
              44.4645491
            ],
            [
              -93.1957507,
              44.4645105
            ],
            [
              -93.1957051,
              44.4645035
            ],
            [
              -93.1956472,
              44.4644842
            ],
            [
              -93.1955946,
              44.4644754
            ],
            [
              -93.1954771,
              44.4644754
            ],
            [
              -93.1954245,
              44.4644667
            ],
            [
              -93.1953964,
              44.4644474
            ],
            [
              -93.1953789,
              44.4644176
            ],
            [
              -93.1953579,
              44.4643948
            ],
            [
              -93.1953649,
              44.4643492
            ],
            [
              -93.1953894,
              44.4643193
            ],
            [
              -93.1954227,
              44.4642597
            ],
            [
              -93.1954648,
              44.4642404
            ],
            [
              -93.1954964,
              44.4642229
            ],
            [
              -93.1955508,
              44.4642054
            ],
            [
              -93.1956069,
              44.4641983
            ],
            [
              -93.1956683,
              44.4641948
            ],
            [
              -93.1957314,
              44.4641948
            ],
            [
              -93.1957718,
              44.4641948
            ],
            [
              -93.1958103,
              44.4641948
            ],
            [
              -93.1958472,
              44.4641755
            ],
            [
              -93.1958822,
              44.464172
            ],
            [
              -93.1959068,
              44.464172
            ],
            [
              -93.1959454,
              44.4641685
            ],
            [
              -93.195984,
              44.4641685
            ],
            [
              -93.1960068,
              44.4641685
            ],
            [
              -93.1960594,
              44.4641685
            ],
            [
              -93.1960682,
              44.4641685
            ],
            [
              -93.196105,
              44.4641703
            ],
            [
              -93.1961471,
              44.4641703
            ],
            [
              -93.1961629,
              44.4641703
            ],
            [
              -93.1961979,
              44.4641615
            ],
            [
              -93.196233,
              44.4641387
            ],
            [
              -93.1962646,
              44.4641299
            ],
            [
              -93.1963014,
              44.4641352
            ],
            [
              -93.1963137,
              44.464158
            ],
            [
              -93.1963575,
              44.4641738
            ],
            [
              -93.1963926,
              44.4641773
            ],
            [
              -93.1964505,
              44.4641773
            ],
            [
              -93.1964733,
              44.4641773
            ],
            [
              -93.1965189,
              44.4641773
            ],
            [
              -93.196575,
              44.4641773
            ],
            [
              -93.1966101,
              44.4641773
            ],
            [
              -93.1966364,
              44.4641843
            ],
            [
              -93.1966732,
              44.4642018
            ],
            [
              -93.196675,
              44.4642282
            ],
            [
              -93.1966785,
              44.4642545
            ],
            [
              -93.1966732,
              44.4642983
            ],
            [
              -93.1966539,
              44.4643527
            ],
            [
              -93.1966364,
              44.464393
            ],
            [
              -93.1966381,
              44.4644404
            ],
            [
              -93.1966645,
              44.4644579
            ],
            [
              -93.1966873,
              44.4644895
            ],
            [
              -93.1967101,
              44.4644965
            ],
            [
              -93.1967469,
              44.4645035
            ],
            [
              -93.196791,
              44.4645156
            ],
            [
              -93.1968069,
              44.4645303
            ],
            [
              -93.1968326,
              44.4645477
            ],
            [
              -93.1968765,
              44.4645512
            ],
            [
              -93.1968946,
              44.4645457
            ],
            [
              -93.1969175,
              44.4645521
            ],
            [
              -93.1969644,
              44.4645513
            ],
            [
              -93.197005,
              44.4645626
            ],
            [
              -93.1971178,
              44.4645504
            ],
            [
              -93.1971771,
              44.4645611
            ],
            [
              -93.1972248,
              44.4645583
            ],
            [
              -93.1972734,
              44.4645647
            ],
            [
              -93.1973057,
              44.4645615
            ],
            [
              -93.1973706,
              44.4645764
            ],
            [
              -93.1974147,
              44.4645813
            ],
            [
              -93.1974591,
              44.4645982
            ],
            [
              -93.1976107,
              44.4646226
            ],
            [
              -93.197754,
              44.4646066
            ],
            [
              -93.1978332,
              44.4646096
            ],
            [
              -93.197856,
              44.4646078
            ],
            [
              -93.1979153,
              44.464592
            ],
            [
              -93.1979915,
              44.4645841
            ],
            [
              -93.1980246,
              44.4645794
            ],
            [
              -93.1980455,
              44.4645765
            ],
            [
              -93.1980778,
              44.4645619
            ],
            [
              -93.1982258,
              44.4645226
            ],
            [
              -93.1982886,
              44.464506
            ],
            [
              -93.1983745,
              44.4644965
            ],
            [
              -93.1984573,
              44.464499
            ],
            [
              -93.1985399,
              44.4645299
            ],
            [
              -93.1985808,
              44.4645586
            ],
            [
              -93.19861,
              44.4645914
            ],
            [
              -93.1986088,
              44.4646095
            ],
            [
              -93.1986379,
              44.4646317
            ],
            [
              -93.1986707,
              44.464635
            ],
            [
              -93.1986925,
              44.4646545
            ],
            [
              -93.1987228,
              44.4647029
            ],
            [
              -93.1986981,
              44.464762
            ],
            [
              -93.1986672,
              44.4648175
            ],
            [
              -93.1986153,
              44.4648687
            ],
            [
              -93.1985584,
              44.4649101
            ],
            [
              -93.1984818,
              44.464934
            ],
            [
              -93.1983449,
              44.4649631
            ],
            [
              -93.1983104,
              44.4649635
            ],
            [
              -93.1982899,
              44.4649688
            ],
            [
              -93.1982703,
              44.4649669
            ],
            [
              -93.1982459,
              44.4649564
            ]
          ]
        ]
      }
    },
    {
      "type": "Feature",
      "properties": {
        "NAME": "North Eaves Pond",
        "_layer": "Lakes"
      },
      "geometry": {
        "type": "Polygon",
        "coordinates": [
          [
            [
              -93.2003804,
              44.4693267
            ],
            [
              -93.200261,
              44.4693436
            ],
            [
              -93.2001678,
              44.4693287
            ],
            [
              -93.2000292,
              44.4693093
            ],
            [
              -93.1999102,
              44.4692431
            ],
            [
              -93.199796,
              44.4691843
            ],
            [
              -93.1997323,
              44.4691409
            ],
            [
              -93.1996798,
              44.4690881
            ],
            [
              -93.1996218,
              44.4689811
            ],
            [
              -93.1996002,
              44.4688882
            ],
            [
              -93.199663,
              44.4688241
            ],
            [
              -93.1997742,
              44.4687893
            ],
            [
              -93.1999711,
              44.4687693
            ],
            [
              -93.2002334,
              44.46879
            ],
            [
              -93.2005012,
              44.4688207
            ],
            [
              -93.2005497,
              44.4689346
            ],
            [
              -93.2005471,
              44.469054
            ],
            [
              -93.2005658,
              44.4691977
            ],
            [
              -93.2005359,
              44.4693073
            ],
            [
              -93.2003804,
              44.4693267
            ]
          ]
        ]
      }
    },
    {
      "type": "Feature",
      "properties": {
        "NAME": "Soccer Pond",
        "_layer": "Lakes"
      },
      "geometry": {
        "type": "Polygon",
        "coordinates": [
          [
            [
              -93.1873285,
              44.4676512
            ],
            [
              -93.18751,
              44.4676575
            ],
            [
              -93.187671,
              44.4676683
            ],
            [
              -93.1876944,
              44.4677567
            ],
            [
              -93.1876828,
              44.4678547
            ],
            [
              -93.187658,
              44.4679365
            ],
            [
              -93.1876345,
              44.4680141
            ],
            [
              -93.1874409,
              44.4681008
            ],
            [
              -93.1873066,
              44.468094
            ],
            [
              -93.1871458,
              44.4681282
            ],
            [
              -93.1870592,
              44.4682225
            ],
            [
              -93.1868968,
              44.4682851
            ],
            [
              -93.1867747,
              44.4682574
            ],
            [
              -93.1866817,
              44.4681869
            ],
            [
              -93.1865953,
              44.4681076
            ],
            [
              -93.1864739,
              44.4680355
            ],
            [
              -93.1863497,
              44.4679436
            ],
            [
              -93.1862082,
              44.467822
            ],
            [
              -93.1862192,
              44.4677056
            ],
            [
              -93.186348,
              44.467669
            ],
            [
              -93.1866363,
              44.4676606
            ],
            [
              -93.1869466,
              44.4676502
            ],
            [
              -93.1871588,
              44.4676658
            ],
            [
              -93.1873285,
              44.4676512
            ]
          ]
        ]
      }
    },
    {
      "type": "Feature",
      "properties": {
        "NAME": "South Eaves Pond",
        "_layer": "Lakes"
      },
      "geometry": {
        "type": "Polygon",
        "coordinates": [
          [
            [
              -93.1999691,
              44.4674703
            ],
            [
              -93.2000101,
              44.4674536
            ],
            [
              -93.2001102,
              44.4674263
            ],
            [
              -93.2002254,
              44.4674506
            ],
            [
              -93.2003043,
              44.4675022
            ],
            [
              -93.200365,
              44.4675886
            ],
            [
              -93.2003604,
              44.4676629
            ],
            [
              -93.2003149,
              44.4677585
            ],
            [
              -93.2002391,
              44.467854
            ],
            [
              -93.2001466,
              44.4678707
            ],
            [
              -93.1999934,
              44.4679238
            ],
            [
              -93.1998918,
              44.4679405
            ],
            [
              -93.1997416,
              44.4679845
            ],
            [
              -93.1996476,
              44.4679996
            ],
            [
              -93.1995854,
              44.4680391
            ],
            [
              -93.1995065,
              44.468036
            ],
            [
              -93.1994489,
              44.4680072
            ],
            [
              -93.199367,
              44.4679359
            ],
            [
              -93.1993655,
              44.4678692
            ],
            [
              -93.1994201,
              44.4678237
            ],
            [
              -93.1995278,
              44.4677236
            ],
            [
              -93.1997462,
              44.4675583
            ],
            [
              -93.1999115,
              44.4674779
            ],
            [
              -93.1999691,
              44.4674703
            ]
          ]
        ]
      }
    },
    {
      "type": "Feature",
      "properties": {
        "NAME": "West Coyote Pond",
        "_layer": "Lakes"
      },
      "geometry": {
        "type": "Polygon",
        "coordinates": [
          [
            [
              -93.1972601,
              44.4658345
            ],
            [
              -93.1973394,
              44.4658323
            ],
            [
              -93.1974032,
              44.4658323
            ],
            [
              -93.197456,
              44.4658433
            ],
            [
              -93.1975044,
              44.4658587
            ],
            [
              -93.1975836,
              44.4658807
            ],
            [
              -93.197632,
              44.4659137
            ],
            [
              -93.197654,
              44.4659423
            ],
            [
              -93.197654,
              44.4660017
            ],
            [
              -93.197654,
              44.4660853
            ],
            [
              -93.197621,
              44.4661491
            ],
            [
              -93.1975858,
              44.4662262
            ],
            [
              -93.1975638,
              44.466301
            ],
            [
              -93.1975286,
              44.4663516
            ],
            [
              -93.1974692,
              44.4663802
            ],
            [
              -93.1973416,
              44.4663956
            ],
            [
              -93.1972447,
              44.4663912
            ],
            [
              -93.1971479,
              44.466367
            ],
            [
              -93.1970907,
              44.4663186
            ],
            [
              -93.1970247,
              44.4662658
            ],
            [
              -93.1970137,
              44.4662042
            ],
            [
              -93.1970467,
              44.4661646
            ],
            [
              -93.1970753,
              44.4661117
            ],
            [
              -93.1971523,
              44.4660259
            ],
            [
              -93.1971655,
              44.4659819
            ],
            [
              -93.1971809,
              44.4659181
            ],
            [
              -93.1972183,
              44.4658543
            ],
            [
              -93.1972601,
              44.4658345
            ]
          ]
        ]
      }
    },
    {
      "type": "Feature",
      "properties": {
        "NAME": "Woodland Pond",
        "_layer": "Lakes"
      },
      "geometry": {
        "type": "Polygon",
        "coordinates": [
          [
            [
              -93.1976226,
              44.4625174
            ],
            [
              -93.1975153,
              44.4624836
            ],
            [
              -93.1973664,
              44.462392
            ],
            [
              -93.1972171,
              44.4623356
            ],
            [
              -93.196908,
              44.4622265
            ],
            [
              -93.1966977,
              44.4621686
            ],
            [
              -93.1964877,
              44.4621001
            ],
            [
              -93.1964039,
              44.4619845
            ],
            [
              -93.1963306,
              44.4619457
            ],
            [
              -93.1962462,
              44.4618988
            ],
            [
              -93.1961083,
              44.4618272
            ],
            [
              -93.1960053,
              44.4617743
            ],
            [
              -93.1958735,
              44.4616912
            ],
            [
              -93.1958738,
              44.4615915
            ],
            [
              -93.195975,
              44.4614534
            ],
            [
              -93.1961154,
              44.4613603
            ],
            [
              -93.1965255,
              44.4613713
            ],
            [
              -93.1966435,
              44.4613735
            ],
            [
              -93.1967922,
              44.4613768
            ],
            [
              -93.1969099,
              44.4614024
            ],
            [
              -93.197174,
              44.4614577
            ],
            [
              -93.1974248,
              44.4615537
            ],
            [
              -93.1975901,
              44.4616834
            ],
            [
              -93.1975789,
              44.4617297
            ],
            [
              -93.1975241,
              44.4617648
            ],
            [
              -93.1974125,
              44.4618208
            ],
            [
              -93.1973374,
              44.461929
            ],
            [
              -93.1973629,
              44.4619705
            ],
            [
              -93.1974238,
              44.4620732
            ],
            [
              -93.1974859,
              44.4622587
            ],
            [
              -93.1975941,
              44.4623482
            ],
            [
              -93.1977031,
              44.4624604
            ],
            [
              -93.1977031,
              44.4625212
            ],
            [
              -93.1976713,
              44.462521
            ],
            [
              -93.1976226,
              44.4625174
            ]
          ]
        ]
      }
    }
  ]
}
